Id,Prefecture,Category,Name,Address,Latitude,Longitude,ShopGroup,FullAddress
1584,北海道,その他,キャッツアイ苫小牧駅前店,苫小牧市木場町１丁目３,42.642221,141.598086,1,北海道苫小牧市木場町１丁目３
1523,北海道,イトーヨーカドー,イトーヨーカドー帯広,帯広市稲田町南8線西10-1,42.890214,143.198267,1,北海道帯広市稲田町南8線西10-1
1447,北海道,その他,西條百貨店稚内,稚内市大黒4-7-1,45.397532,141.692138,1,北海道稚内市大黒4-7-1
1380,北海道,ヨドバシカメラ,ヨドバシカメラマルチメディア札幌,札幌市北区北6条西5-1-22,43.068294,141.347586,1,北海道札幌市北区北6条西5-1-22
1343,北海道,モーリーファンタジー・PALO,モーリーファンタジー名寄,名寄市字徳田80-1 ｲｵﾝ名寄店2階,44.338431,142.452592,1,北海道名寄市字徳田80-1 ｲｵﾝ名寄店2階
1283,北海道,モーリーファンタジー・PALO,モーリーファンタジー苫小牧,苫小牧市柳町3-1-20 ｲｵﾝ苫小牧店2階,42.656405,141.642478,1,北海道苫小牧市柳町3-1-20 ｲｵﾝ苫小牧店2階
1279,北海道,モーリーファンタジー・PALO,モーリーファンタジー湯川,函館市湯川町3-14-5 ｲｵﾝ湯川店1･2F,41.777669,140.794059,1,北海道函館市湯川町3-14-5 ｲｵﾝ湯川店1･2F
1276,北海道,モーリーファンタジー・PALO,モーリーファンタジー東札幌,札幌市白石区東札幌3条2-1 ｲｵﾝ東札幌店2F,43.052227,141.385402,1,北海道札幌市白石区東札幌3条2-1 ｲｵﾝ東札幌店2F
1264,北海道,モーリーファンタジー・PALO,モーリーファンタジー登別,登別市若山町4-33-1 ｲｵﾝ登別店2階,42.381349,141.068467,1,北海道登別市若山町4-33-1 ｲｵﾝ登別店2階
1239,北海道,モーリーファンタジー・PALO,モーリーファンタジー中標津,標津郡中標津町南町3-10 東武ｻｳｽﾋﾙｽﾞ1F,43.535427,144.977231,1,北海道標津郡中標津町南町3-10 東武ｻｳｽﾋﾙｽﾞ1F
1197,北海道,モーリーファンタジー・PALO,モーリーファンタジー石狩緑苑台,石狩市緑苑台中央1-2 ｲｵﾝSC石狩緑苑台店1階,43.159047,141.334938,1,北海道石狩市緑苑台中央1-2 ｲｵﾝSC石狩緑苑台店1階
1172,北海道,モーリーファンタジー・PALO,モーリーファンタジー新さっぽろ,札幌市厚別区厚別中央2条5-6-2 duo22Fｹﾞｰﾑｺｰﾅｰ,43.038972,141.47249,1,北海道札幌市厚別区厚別中央2条5-6-2 duo22Fｹﾞｰﾑｺｰﾅｰ
1167,北海道,モーリーファンタジー・PALO,モーリーファンタジー上磯,北斗市七重浜4-44-1 ｲｵﾝ上磯店1F,41.82181,140.712267,1,北海道北斗市七重浜4-44-1 ｲｵﾝ上磯店1F
1148,北海道,モーリーファンタジー・PALO,モーリーファンタジー手稲山口,札幌市手稲区明日風6-1-1 ｲｵﾝSC手稲山口店1階,43.142097,141.233657,1,北海道札幌市手稲区明日風6-1-1 ｲｵﾝSC手稲山口店1階
1125,北海道,モーリーファンタジー・PALO,モーリーファンタジー三笠,三笠市岡山1059-1 ｲｵﾝSC三笠店1階,43.243933,141.805424,1,北海道三笠市岡山1059-1 ｲｵﾝSC三笠店1階
1122,北海道,モーリーファンタジー・PALO,モーリーファンタジー札幌麻生,札幌市北区北39 条西4-1-5ｲｵﾝ麻生店4F,43.10729,141.339721,1,北海道札幌市北区北39 条西4-1-5ｲｵﾝ麻生店4F
1121,北海道,モーリーファンタジー・PALO,モーリーファンタジー札幌平岡,札幌市清田区平岡3条5-3-1 ｲｵﾝ札幌平岡店2階,42.997065,141.458557,1,北海道札幌市清田区平岡3条5-3-1 ｲｵﾝ札幌平岡店2階
1120,北海道,モーリーファンタジー・PALO,モーリーファンタジー札幌苗穂,札幌市東区東苗穂2条3-1-1 ｲｵﾝ札幌苗穂店2階,43.079664,141.404,1,北海道札幌市東区東苗穂2条3-1-1 ｲｵﾝ札幌苗穂店2階
1119,北海道,モーリーファンタジー・PALO,モーリーファンタジー札幌発寒,札幌市西区発寒8条12-1-1 ｲｵﾝ札幌発寒店3階,43.096446,141.276422,1,北海道札幌市西区発寒8条12-1-1 ｲｵﾝ札幌発寒店3階
1118,北海道,モーリーファンタジー・PALO,モーリーファンタジー札幌元町,札幌市東区北31条東15-1-1 ｲｵﾝ札幌元町店3階,43.101834,141.368545,1,北海道札幌市東区北31条東15-1-1 ｲｵﾝ札幌元町店3階
1117,北海道,モーリーファンタジー・PALO,モーリーファンタジー札幌桑園,札幌市中央区北8条西14-28 ｲｵﾝ札幌桑園店2階,43.069468,141.332927,1,北海道札幌市中央区北8条西14-28 ｲｵﾝ札幌桑園店2階
1116,北海道,モーリーファンタジー・PALO,モーリーファンタジー札幌琴似,札幌市西区琴似2条4-2-2 ｲｵﾝ琴似店3F,43.076716,141.302831,1,北海道札幌市西区琴似2条4-2-2 ｲｵﾝ琴似店3F
1075,北海道,モーリーファンタジー・PALO,モーリーファンタジー釧路昭和,釧路市昭和中央4-18-1 ｲｵﾝ釧路昭和店2階,43.026634,144.359875,1,北海道釧路市昭和中央4-18-1 ｲｵﾝ釧路昭和店2階
1028,北海道,モーリーファンタジー・PALO,モーリーファンタジー旭川西,旭川市緑町23-2161-3 ｲｵﾝ旭川西店2階,43.79373,142.327005,1,北海道旭川市緑町23-2161-3 ｲｵﾝ旭川西店2階
1027,北海道,モーリーファンタジー・PALO,モーリーファンタジー旭川パルプ,旭川市ﾊﾟﾙﾌﾟ町1条2-505-2 ｼｮｯﾋﾟﾝｸﾞCﾊﾟﾙﾌﾟﾀｳﾝ内1F,43.775217,142.384722,1,北海道旭川市ﾊﾟﾙﾌﾟ町1条2-505-2 ｼｮｯﾋﾟﾝｸﾞCﾊﾟﾙﾌﾟﾀｳﾝ内1F
878,北海道,ビックカメラ,ビックカメラ札幌,札幌市中央区北五条西2-1 札幌ESTAJRﾀﾜｰ4F,43.067435,141.352881,1,北海道札幌市中央区北五条西2-1 札幌ESTAJRﾀﾜｰ4F
864,北海道,タイトー,ハロータイトー 釧路貝塚,釧路市貝塚3丁目2-28,42.996244,144.410466,1,北海道釧路市貝塚3丁目2-28
797,北海道,その他,トイザらス帯広音更,河東郡音更町木野大通西17-1ｽｰﾊﾟｰｵｰｹｰｾﾝﾀｰ音更店内,42.976585,143.207482,1,北海道河東郡音更町木野大通西17-1ｽｰﾊﾟｰｵｰｹｰｾﾝﾀｰ音更店内
752,北海道,タイトー,タイトーステーション 千歳,千歳市北栄2-12-5,42.833406,141.645094,1,北海道千歳市北栄2-12-5
738,北海道,タイトー,タイトーステーション 札幌狸小路2丁目,札幌市中央区南三条西2-14,43.057331,141.355471,1,北海道札幌市中央区南三条西2-14
710,北海道,タイトー,タイトーステーション イオンモール札幌平岡,札幌市清田区平岡3条5-3-1 ｲｵﾝﾓｰﾙ札幌平岡店2F,42.997065,141.458557,1,北海道札幌市清田区平岡3条5-3-1 ｲｵﾝﾓｰﾙ札幌平岡店2F
708,北海道,タイトー,タイトーステーション イオンモール釧路昭和,釧路市昭和中央4-18-1 ｲｵﾝﾓｰﾙ釧路昭和2F,43.026634,144.359875,1,北海道釧路市昭和中央4-18-1 ｲｵﾝﾓｰﾙ釧路昭和2F
637,北海道,その他,ソユーゲームフィールド旭川西,旭川市緑町二十三丁目2161番地3ｲｵﾝﾓｰﾙ旭川西3F,43.793996,142.325864,1,北海道旭川市緑町二十三丁目2161番地3ｲｵﾝﾓｰﾙ旭川西3F
635,北海道,その他,ソユーゲームフィールド 発寒,札幌市西区発寒8条12丁目1番1号ｲｵﾝﾓｰﾙ札幌発寒3F,43.096141,141.277211,2,北海道札幌市西区発寒8条12丁目1番1号ｲｵﾝﾓｰﾙ札幌発寒3F
621,北海道,その他,ソユーゲームフィールド 旭川駅前,旭川市宮下通7丁目2番5号ｲｵﾝﾓｰﾙ旭川駅前4F,43.764312,142.357948,2,北海道旭川市宮下通7丁目2番5号ｲｵﾝﾓｰﾙ旭川駅前4F
538,北海道,その他,スガイディノス帯広,帯広市白樺十六条西2丁目ﾄﾞﾘｰﾑﾀｳﾝ白樺内,42.9187,143.173275,1,北海道帯広市白樺十六条西2丁目ﾄﾞﾘｰﾑﾀｳﾝ白樺内
484,北海道,その他,キャッツアイ東苗穂,札幌市東区東苗穂6条2丁目1-25,43.092361,141.406969,1,北海道札幌市東区東苗穂6条2丁目1-25
481,北海道,その他,キャッツアイ新川,札幌市北区新川二条7丁目1-7,43.100749,141.310247,1,北海道札幌市北区新川二条7丁目1-7
480,北海道,その他,キャッツアイ新札幌,札幌市厚別区厚別東五条1-1-10,43.045646,141.474921,1,北海道札幌市厚別区厚別東五条1-1-10
479,北海道,その他,キャッツアイ篠路,札幌市北区篠路1条4丁目6-30,43.140638,141.357187,1,北海道札幌市北区篠路1条4丁目6-30
477,北海道,その他,キャッツアイ宮の沢,札幌市手稲区西宮の沢5条2丁目11-15,43.096417,141.257313,1,北海道札幌市手稲区西宮の沢5条2丁目11-15
472,北海道,その他,キッズパーク イオン帯広,帯広市西4条南20丁目 ｲｵﾝ帯広,42.908698,143.200317,1,北海道帯広市西4条南20丁目 ｲｵﾝ帯広
463,北海道,その他,おもちゃのヨシダ本店,旭川市本町3-437-238吉田ﾋﾞﾙ1F,43.781027,142.355981,1,北海道旭川市本町3-437-238吉田ﾋﾞﾙ1F
447,北海道,イトーヨーカドー,イトーヨーカドー北見,北見市光西町185,43.798189,143.870171,1,北海道北見市光西町185
446,北海道,イトーヨーカドー,イトーヨーカドー福住,札幌市豊平区福住二条1-2-5,43.019872,141.403494,1,北海道札幌市豊平区福住二条1-2-5
438,北海道,イトーヨーカドー,イトーヨーカドー屯田,札幌市北区屯田八条3-5-1,43.140249,141.340839,1,北海道札幌市北区屯田八条3-5-1
401,北海道,イトーヨーカドー,イトーヨーカドー琴似,札幌市西区琴似二条1-4-1,43.080723,141.306157,1,北海道札幌市西区琴似二条1-4-1
374,北海道,イトーヨーカドー,イトーヨーカドーアリオ札幌,札幌市東区北7条東9-2-20,43.069846,141.368544,1,北海道札幌市東区北7条東9-2-20
370,北海道,その他,イオン北見,北見市北進町1-1-1,43.808473,143.875571,1,北海道北見市北進町1-1-1
362,北海道,その他,イオン小樽,小樽市築港11-6,43.184392,141.021713,1,北海道小樽市築港11-6
233,北海道,その他,アドアーズ札幌北42条,札幌市東区北42条東7-1-1 嶋ﾋﾞﾙ2階,43.112038,141.355184,1,北海道札幌市東区北42条東7-1-1 嶋ﾋﾞﾙ2階
208,北海道,その他,SOYU Game Field苗穂,札幌市東区東苗穂2条三丁目1番1号ｲｵﾝﾓｰﾙ札幌苗穂2F,43.079664,141.404,1,北海道札幌市東区東苗穂2条三丁目1番1号ｲｵﾝﾓｰﾙ札幌苗穂2F
202,北海道,モーリーファンタジー・PALO,PALO網走,網走市駒場北5-83- 駒場ｼｮｯﾋﾟﾝｸﾞﾀｳﾝ,44.002114,144.284322,1,北海道網走市駒場北5-83- 駒場ｼｮｯﾋﾟﾝｸﾞﾀｳﾝ
198,北海道,モーリーファンタジー・PALO,PALO苫小牧,苫小牧市糸井135-1 ﾄﾗｲｱﾙG棟ﾄﾗｲｱﾙ苫小牧店,42.61289,141.524736,1,北海道苫小牧市糸井135-1 ﾄﾗｲｱﾙG棟ﾄﾗｲｱﾙ苫小牧店
195,北海道,モーリーファンタジー・PALO,PALO滝川,滝川市東町2-29-1 ｲｵﾝ滝川店1F,43.554168,141.930987,1,北海道滝川市東町2-29-1 ｲｵﾝ滝川店1F
184,北海道,モーリーファンタジー・PALO,PALO江別,江別市幸町35 ｲｵﾝ江別店3階,43.097224,141.53333,1,北海道江別市幸町35 ｲｵﾝ江別店3階
180,北海道,モーリーファンタジー・PALO,PALO釧路,釧路郡釧路町桂木1-1-7 ｲｵﾝ釧路店2階,43.009038,144.404606,1,北海道釧路郡釧路町桂木1-1-7 ｲｵﾝ釧路店2階
147,北海道,namco,namco札幌エスタ店,札幌市中央区北5条西2丁目1番地1ｴｽﾀ9階,43.06752,141.35365,2,北海道札幌市中央区北5条西2丁目1番地1ｴｽﾀ9階
132,北海道,namco,namcoラソラ札幌店,札幌市白石区東札幌3条1丁目1-1ﾗｿﾗ札幌店Aﾀｳﾝ2F,43.055341,141.384662,1,北海道札幌市白石区東札幌3条1丁目1-1ﾗｿﾗ札幌店Aﾀｳﾝ2F
94,北海道,namco,namcoサッポロファクトリー店,札幌市中央区北1条東4丁目1番地1ｻｯﾎﾟﾛﾌｧｸﾄﾘｰ1条館2F,43.064201,141.363354,1,北海道札幌市中央区北1条東4丁目1番地1ｻｯﾎﾟﾛﾌｧｸﾄﾘｰ1条館2F
84,北海道,namco,namcoウイングベイ小樽店,小樽市北海道小樽市築港11番5号ｳｲﾝｸﾞﾍﾞｲ小樽5番街3階,43.183854,141.023126,1,北海道小樽市北海道小樽市築港11番5号ｳｲﾝｸﾞﾍﾞｲ小樽5番街3階
44,北海道,namco,namcoアリオ札幌店,札幌市東区北七条東9丁目2番20ｱﾘｵ札幌ｽﾊﾟ･ﾚｼﾞｬｰ館2F,43.069846,141.368544,1,北海道札幌市東区北七条東9丁目2番20ｱﾘｵ札幌ｽﾊﾟ･ﾚｼﾞｬｰ館2F
27,北海道,その他,MAXIMHERO,札幌市北区北6条西6丁目鉄道高架下,43.067951,141.346007,1,北海道札幌市北区北6条西6丁目鉄道高架下
5,北海道,その他,BIG BANG室蘭,室蘭市中島本町2丁目8-1 BIGBANG室蘭,42.353633,141.014518,1,北海道室蘭市中島本町2丁目8-1 BIGBANG室蘭
1497,青森県,その他,セガ弘前,弘前市末広１−３−３,40.604113,140.499914,1,青森県弘前市末広１−３−３
1409,青森県,その他,ラウンドワン青森,青森市浜田3丁目1番1号,40.79952,140.747697,1,青森県青森市浜田3丁目1番1号
1331,青森県,モーリーファンタジー・PALO,モーリーファンタジー平賀,平川市小和森上松岡193-1 ｲｵﾝﾀｳﾝ平賀店1階,40.590274,140.566136,1,青森県平川市小和森上松岡193-1 ｲｵﾝﾀｳﾝ平賀店1階
1305,青森県,モーリーファンタジー・PALO,モーリーファンタジー八戸田向,八戸市大字田向字毘沙門平27-1 ｲｵﾝ1F,40.49256,141.511572,1,青森県八戸市大字田向字毘沙門平27-1 ｲｵﾝ1F
1281,青森県,モーリーファンタジー・PALO,モーリーファンタジー藤崎,南津軽郡藤崎町大字西豊田1-7-1 ｲｵﾝ藤崎店2階,40.657307,140.501687,1,青森県南津軽郡藤崎町大字西豊田1-7-1 ｲｵﾝ藤崎店2階
1256,青森県,モーリーファンタジー・PALO,モーリーファンタジー鶴田,北津軽郡鶴田町鶴田中泉245-1 鶴田ﾌｯﾄﾘﾊﾞｰﾓｰﾙ店1F,40.764379,140.441586,1,青森県北津軽郡鶴田町鶴田中泉245-1 鶴田ﾌｯﾄﾘﾊﾞｰﾓｰﾙ店1F
1153,青森県,モーリーファンタジー・PALO,モーリーファンタジー十和田,十和田市大字相坂字六日町山166-1 ｲｵﾝSC十和田店1階,40.603141,141.256951,1,青森県十和田市大字相坂字六日町山166-1 ｲｵﾝSC十和田店1階
1130,青森県,モーリーファンタジー・PALO,モーリーファンタジー三沢,三沢市松園町3-10-1 ﾋﾞｰﾄﾞﾙﾌﾟﾗｻﾞ三沢店1F,40.67502,141.362966,1,青森県三沢市松園町3-10-1 ﾋﾞｰﾄﾞﾙﾌﾟﾗｻﾞ三沢店1F
1051,青森県,モーリーファンタジー・PALO,モーリーファンタジー下田,上北郡おいらせ町中野平40-1 ｲｵﾝ下田店2階,40.60165,141.418424,1,青森県上北郡おいらせ町中野平40-1 ｲｵﾝ下田店2階
1002,青森県,モーリーファンタジー・PALO,モーリーファンタジーつがる柏,つがる市柏稲盛幾世41-1 ｲｵﾝつがる柏店1階,40.80297,140.416543,1,青森県つがる市柏稲盛幾世41-1 ｲｵﾝつがる柏店1階
907,青森県,その他,ファンタジードーム八戸,八戸市江陽2-14-1ﾗﾋﾟｱ八戸店別棟,40.5219,141.503367,1,青森県八戸市江陽2-14-1ﾗﾋﾟｱ八戸店別棟
863,青森県,タイトー,ハロータイトー むつ,むつ市小川町2-4-8 前田百貨店内4F,41.292761,141.207525,1,青森県むつ市小川町2-4-8 前田百貨店内4F
862,青森県,タイトー,ハロータイトー イオン七戸十和田駅前,上北郡七戸町字荒熊内67番地990 ｲｵﾝ七戸十和田駅前店内,40.718792,141.155371,1,青森県上北郡七戸町字荒熊内67番地990 ｲｵﾝ七戸十和田駅前店内
792,青森県,その他,トイザらス青森,青森市三好2-3-11ｶﾞｰﾗﾀｳﾝ,40.833394,140.701856,1,青森県青森市三好2-3-11ｶﾞｰﾗﾀｳﾝ
747,青森県,タイトー,タイトーステーション 青森ガーラモール,青森市三好2-3-19,40.833054,140.702433,1,青森県青森市三好2-3-19
746,青森県,タイトー,タイトーステーション 青森アムゼ,青森市緑3丁目9番地の2 ｻﾝﾛｰﾄﾞ青森ｱﾑｾﾞ内,40.806401,140.752776,1,青森県青森市緑3丁目9番地の2 ｻﾝﾛｰﾄﾞ青森ｱﾑｾﾞ内
693,青森県,その他,タイトーFステーション 八戸,八戸市三日町27,40.509242,141.490576,1,青森県八戸市三日町27
634,青森県,その他,ソユーゲームフィールド 八戸,八戸市沼館四丁目7番112号八戸ﾋﾟｱﾄﾞｩB棟2F,40.527732,141.497573,1,青森県八戸市沼館四丁目7番112号八戸ﾋﾟｱﾄﾞｩB棟2F
628,青森県,その他,ソユーゲームフィールド 青森,青森市浜田一丁目14番地1ｲﾄｰﾖｰｶﾄﾞｰ青森店2F,40.800876,140.749049,1,青森県青森市浜田一丁目14番地1ｲﾄｰﾖｰｶﾄﾞｰ青森店2F
541,青森県,その他,スペースファンタジーインフィニ,弘前市城東北三丁目10番地1さくら野百貨店弘前店4F,40.606733,140.496051,1,青森県弘前市城東北三丁目10番地1さくら野百貨店弘前店4F
502,青森県,その他,ゲームフィールド弘前樋の口,弘前市樋の口二丁目9-6ｲｵﾝﾀｳﾝ弘前樋の口店,40.602029,140.445187,1,青森県弘前市樋の口二丁目9-6ｲｵﾝﾀｳﾝ弘前樋の口店
442,青森県,イトーヨーカドー,イトーヨーカドー八戸沼館,八戸市沼館4-7-111,40.52813,141.497437,1,青森県八戸市沼館4-7-111
420,青森県,イトーヨーカドー,イトーヨーカドー青森,青森市浜田1-14-1,40.800958,140.749094,1,青森県青森市浜田1-14-1
403,青森県,イトーヨーカドー,イトーヨーカドー弘前,弘前市大字駅前3-2-1,40.599694,140.481044,1,青森県弘前市大字駅前3-2-1
185,青森県,モーリーファンタジー・PALO,PALO黒石,黒石市富士見103-3 ｱｸﾛｽﾌﾟﾗｻﾞ黒石,40.665959,140.600804,1,青森県黒石市富士見103-3 ｱｸﾛｽﾌﾟﾗｻﾞ黒石
183,青森県,モーリーファンタジー・PALO,PALO五所川原,五所川原市唐笠柳字藤巻641-1 ｱｸﾛｽﾌﾟﾗｻﾞ五所川原,40.800881,140.461454,1,青森県五所川原市唐笠柳字藤巻641-1 ｱｸﾛｽﾌﾟﾗｻﾞ五所川原
175,青森県,モーリーファンタジー・PALO,PALOむつ,むつ市中央2-7-8 1F,41.292799,141.183468,1,青森県むつ市中央2-7-8 1F
86,青森県,namco,namcoエルムの街ショッピングセンター,五所川原市大字唐笠柳字藤巻517-1ｴﾙﾑの街SC本棟2階,40.798609,140.454247,1,青森県五所川原市大字唐笠柳字藤巻517-1ｴﾙﾑの街SC本棟2階
1206,岩手県,モーリーファンタジー・PALO,モーリーファンタジー前沢,奥州市前沢区向田2-85 ｲｵﾝ前沢店2階,39.052365,141.129548,1,岩手県奥州市前沢区向田2-85 ｲｵﾝ前沢店2階
1192,岩手県,モーリーファンタジー・PALO,モーリーファンタジー盛岡渋民,盛岡市玉山区渋民字鶴飼20-1 ｲｵﾝSC盛岡渋民店1階,39.849607,141.171216,1,岩手県盛岡市玉山区渋民字鶴飼20-1 ｲｵﾝSC盛岡渋民店1階
1191,岩手県,モーリーファンタジー・PALO,モーリーファンタジー盛岡,盛岡市前潟4-7-1 ｲｵﾝ盛岡店2階,39.711665,141.100021,1,岩手県盛岡市前潟4-7-1 ｲｵﾝ盛岡店2階
1043,岩手県,モーリーファンタジー・PALO,モーリーファンタジー遠野,遠野市新穀町1-11 遠野SCとぴあ2階,39.331111,141.531925,1,岩手県遠野市新穀町1-11 遠野SCとぴあ2階
1035,岩手県,モーリーファンタジー・PALO,モーリーファンタジー一関,一関市山目字泥田89-1 ｲｵﾝ一関店2階,38.936962,141.112946,1,岩手県一関市山目字泥田89-1 ｲｵﾝ一関店2階
1000,岩手県,モーリーファンタジー・PALO,モーリーファンタジースーパーセンター一関,一関市狐禅寺字石ﾉ瀬11-1 ｲｵﾝSC一関店1階,38.939526,141.153807,1,岩手県一関市狐禅寺字石ﾉ瀬11-1 ｲｵﾝSC一関店1階
998,岩手県,モーリーファンタジー・PALO,モーリーファンタジーサンサ盛岡南,盛岡市津志田西2-17-50 盛岡南ｼｮｯﾋﾟﾝｸﾞCｻﾝｻ店1F,39.661906,141.148934,1,岩手県盛岡市津志田西2-17-50 盛岡南ｼｮｯﾋﾟﾝｸﾞCｻﾝｻ店1F
986,岩手県,モーリーファンタジー・PALO,モーリーファンタジーイオン盛岡南,盛岡市本宮7-1-1 ｲｵﾝ盛岡南店3階,39.683176,141.127384,1,岩手県盛岡市本宮7-1-1 ｲｵﾝ盛岡南店3階
807,岩手県,その他,トイザらス北上,北上市有田町10-3,39.293729,141.104667,1,岩手県北上市有田町10-3
745,岩手県,タイトー,タイトーステーション 盛岡マッハランド,盛岡市上堂1-2-38 ﾏｯﾊﾗﾝﾄﾞ内,39.723894,141.127091,1,岩手県盛岡市上堂1-2-38 ﾏｯﾊﾗﾝﾄﾞ内
689,岩手県,その他,タイトーFステーション 盛岡南,盛岡市津志田町2-1-77,39.666643,141.157173,1,岩手県盛岡市津志田町2-1-77
645,岩手県,その他,ソユーファミリーゲームフィールド 花巻,花巻市高木第16地割68番地6銀河ﾓｰﾙ花巻内,39.386142,141.136994,1,岩手県花巻市高木第16地割68番地6銀河ﾓｰﾙ花巻内
627,岩手県,その他,ソユーゲームフィールド 盛岡南,盛岡市本宮七丁目1番1号ｲｵﾝﾓｰﾙ盛岡南1F,39.683472,141.128516,1,岩手県盛岡市本宮七丁目1番1号ｲｵﾝﾓｰﾙ盛岡南1F
598,岩手県,その他,セガ水沢,奥州市水沢区佐倉河字鐙田4-1,39.15262,141.149429,1,岩手県奥州市水沢区佐倉河字鐙田4-1
506,岩手県,その他,ゲームランド盛岡,盛岡市前潟4丁目7番1号 ｲｵﾝﾓｰﾙ盛岡2F,39.711273,141.09932,1,岩手県盛岡市前潟4丁目7番1号 ｲｵﾝﾓｰﾙ盛岡2F
397,岩手県,イトーヨーカドー,イトーヨーカドー花巻,花巻市下小舟渡118-1,39.393513,141.117825,1,岩手県花巻市下小舟渡118-1
358,岩手県,その他,イオン江釣子,北上市北鬼柳19-68,39.296045,141.095426,1,岩手県北上市北鬼柳19-68
342,岩手県,その他,アミューズメントゾーン 北上,北上市本通り二丁目2-1さくら野百貨店北上店4F,39.288607,141.115966,1,岩手県北上市本通り二丁目2-1さくら野百貨店北上店4F
177,岩手県,モーリーファンタジー・PALO,PALO久慈,久慈市長内町第30 地割32-2久慈ｼｮｯﾋﾟﾝｸﾞｾﾝﾀｰ1F,40.190583,141.784651,1,岩手県久慈市長内町第30 地割32-2久慈ｼｮｯﾋﾟﾝｸﾞｾﾝﾀｰ1F
1579,宮城県,その他,LIFE SELECT仙台アスト長町,仙台市太白区あすと長町3丁目1-2,38.221356,140.8851,1,宮城県仙台市太白区あすと長町3丁目1-2
1390,宮城県,ヨドバシカメラ,ヨドバシカメラ仙台,仙台市宮城野区榴岡1-3-12F玩具売り場,38.258969,140.8827,1,宮城県仙台市宮城野区榴岡1-3-12F玩具売り場
1358,宮城県,モーリーファンタジー・PALO,モーリーファンタジー利府,宮城郡利府町新中道3-1-1　イオンモール新利府　南館3階,38.322728,140.972287,2,宮城県宮城郡利府町新中道3-1-1　イオンモール新利府　南館3階
1354,宮城県,モーリーファンタジー・PALO,モーリーファンタジー涌谷,遠田郡涌谷町字洞ヶ崎5 ｲｵﾝSC涌谷店1階,38.537005,141.147617,1,宮城県遠田郡涌谷町字洞ヶ崎5 ｲｵﾝSC涌谷店1階
1321,宮城県,モーリーファンタジー・PALO,モーリーファンタジー富谷,富谷市大清水1ｰ33-1 ｲｵﾝ富谷店1階,38.364777,140.87525,1,宮城県富谷市大清水1ｰ33-1 ｲｵﾝ富谷店1階
1213,宮城県,モーリーファンタジー・PALO,モーリーファンタジー多賀城,多賀城市町前4-1-1 ｲｵﾝ多賀城店3F,38.282245,141.005273,1,宮城県多賀城市町前4-1-1 ｲｵﾝ多賀城店3F
1200,宮城県,モーリーファンタジー・PALO,モーリーファンタジー仙台中山,仙台市泉区南中山1-35-40 ｲｵﾝ仙台中山店3階,38.297895,140.82718,1,宮城県仙台市泉区南中山1-35-40 ｲｵﾝ仙台中山店3階
1199,宮城県,モーリーファンタジー・PALO,モーリーファンタジー仙台卸町,仙台市若林区卸町1-1 ｲｵﾝｽﾀｲﾙ仙台卸町3F,38.252256,140.91885,1,宮城県仙台市若林区卸町1-1 ｲｵﾝｽﾀｲﾙ仙台卸町3F
1196,宮城県,モーリーファンタジー・PALO,モーリーファンタジー石巻東,石巻市流留字七勺1-1 ｲｵﾝSC石巻東店1階,38.427602,141.375184,1,宮城県石巻市流留字七勺1-1 ｲｵﾝSC石巻東店1階
1195,宮城県,モーリーファンタジー・PALO,モーリーファンタジー石巻,石巻市茜平四-104 ｲｵﾝ石巻店2階,38.44766,141.26558,1,宮城県石巻市茜平四-104 ｲｵﾝ石巻店2階
1180,宮城県,モーリーファンタジー・PALO,モーリーファンタジー新名取,名取市杜せきのした5-3-の1 ｲｵﾝ新名取店3階,38.163759,140.895599,2,宮城県名取市杜せきのした5-3-の1 ｲｵﾝ新名取店3階
1085,宮城県,モーリーファンタジー・PALO,モーリーファンタジー古川,大崎市古川旭二-2-1 ｲｵﾝ古川店2階,38.56694,140.972722,1,宮城県大崎市古川旭二-2-1 ｲｵﾝ古川店2階
1078,宮城県,モーリーファンタジー・PALO,モーリーファンタジー栗原志波姫,栗原市志波姫新熊谷11 ｲｵﾝSC栗原志波姫店1階,38.748725,141.068978,1,宮城県栗原市志波姫新熊谷11 ｲｵﾝSC栗原志波姫店1階
1063,宮城県,モーリーファンタジー・PALO,モーリーファンタジー気仙沼,気仙沼市字赤岩舘下6-1外 ｲｵﾝ気仙沼店2階,38.889022,141.572962,1,宮城県気仙沼市字赤岩舘下6-1外 ｲｵﾝ気仙沼店2階
1053,宮城県,モーリーファンタジー・PALO,モーリーファンタジー鈎取,仙台市太白区鈎取本町1-21-1 ｲｵﾝｽｰﾊﾟｰｾﾝﾀｰ1F,38.21976,140.837661,1,宮城県仙台市太白区鈎取本町1-21-1 ｲｵﾝｽｰﾊﾟｰｾﾝﾀｰ1F
1044,宮城県,モーリーファンタジー・PALO,モーリーファンタジー塩釜,塩竈市海岸通15-100 ﾏｯｸｽﾊﾞﾘｭ塩釜店2階,38.318694,141.024679,1,宮城県塩竈市海岸通15-100 ﾏｯｸｽﾊﾞﾘｭ塩釜店2階
956,宮城県,その他,プレビプレイランド大和吉岡,黒川郡大和町吉岡東1-2-1 ﾖｰｸﾍﾞﾆﾏﾙ大和吉岡店ﾌﾟﾚﾋﾞﾌﾟﾚｲﾗﾝﾄﾞ,38.436703,140.893293,1,宮城県黒川郡大和町吉岡東1-2-1 ﾖｰｸﾍﾞﾆﾏﾙ大和吉岡店ﾌﾟﾚﾋﾞﾌﾟﾚｲﾗﾝﾄﾞ
936,宮城県,その他,プラサカプコン石巻,石巻市茜平4丁目104番地 ｲｵﾝﾓｰﾙ石巻ｼｮｯﾋﾟﾝｸﾞｾﾝﾀｰ2F,38.44784,141.266116,1,宮城県石巻市茜平4丁目104番地 ｲｵﾝﾓｰﾙ石巻ｼｮｯﾋﾟﾝｸﾞｾﾝﾀｰ2F
870,宮城県,その他,ビーカム松森,仙台市泉区松森字斉兵衛58-1,38.304489,140.909977,1,宮城県仙台市泉区松森字斉兵衛58-1
795,宮城県,その他,トイザらス仙台泉大沢,仙台市泉区大沢1-5-1ｲｵﾝﾀｳﾝ仙台泉大沢2F,38.350076,140.880937,1,宮城県仙台市泉区大沢1-5-1ｲｵﾝﾀｳﾝ仙台泉大沢2F
794,宮城県,その他,トイザらス石巻矢本,東松島市小松字上浮足43,38.425195,141.202975,1,宮城県東松島市小松字上浮足43
751,宮城県,タイトー,タイトーステーション 仙台名掛丁,仙台市青葉区中央1-7-13,38.262038,140.879125,2,宮城県仙台市青葉区中央1-7-13
750,宮城県,タイトー,タイトーステーション 仙台ベガロポリス,仙台市太白区西多賀5-24-1,38.219414,140.848952,1,宮城県仙台市太白区西多賀5-24-1
749,宮城県,タイトー,タイトーステーション 仙台クリスロード,仙台市青葉区中央2-3-25,38.260987,140.875646,2,宮城県仙台市青葉区中央2-3-25
638,宮城県,その他,ソユーゲームフィールド古川,大崎市古川沢田字筒場浦15番地ｲｵﾝﾀｳﾝ古川内,38.599023,140.974156,1,宮城県大崎市古川沢田字筒場浦15番地ｲｵﾝﾀｳﾝ古川内
622,宮城県,その他,ソユーゲームフィールド 釜石,釜石市港町二丁目1番1号ｲｵﾝﾀｳﾝ釜石店3F,39.2714,141.881872,1,宮城県釜石市港町二丁目1番1号ｲｵﾝﾀｳﾝ釜石店3F
616,宮城県,その他,セガ名取セッツウイングス,名取市飯野坂字土城堀57-1,38.156903,140.887893,1,宮城県名取市飯野坂字土城堀57-1
602,宮城県,その他,セガ仙台コロナワールド,仙台市宮城野区福室字田中前一番53-1,38.260169,140.969126,1,宮城県仙台市宮城野区福室字田中前一番53-1
537,宮城県,その他,スイーツハート仙台泉大沢,仙台市泉区大沢1-5-1ｲｵﾝ泉大沢店2F,38.350076,140.880937,1,宮城県仙台市泉区大沢1-5-1ｲｵﾝ泉大沢店2F
518,宮城県,その他,サニーランド フォルテ,柴田郡大河原町字小島2-1 ﾌｫﾙﾃ1F,38.065159,140.737634,1,宮城県柴田郡大河原町字小島2-1 ﾌｫﾙﾃ1F
501,宮城県,その他,ゲームフィールド 仙台長町,仙台市太白区長町7丁目20番3号ｻﾞ･ﾓｰﾙ仙台長町店3F,38.225644,140.876877,2,宮城県仙台市太白区長町7丁目20番3号ｻﾞ･ﾓｰﾙ仙台長町店3F
421,宮城県,イトーヨーカドー,イトーヨーカドー石巻あけぼの,石巻市あけぼの1-1-2,38.448382,141.273382,1,宮城県石巻市あけぼの1-1-2
379,宮城県,イトーヨーカドー,イトーヨーカドーアリオ仙台泉,仙台市泉区泉中央1-5-1,38.324466,140.882206,1,宮城県仙台市泉区泉中央1-5-1
366,宮城県,その他,イオン仙台幸町,仙台市宮城野区幸町5-10-1,38.273436,140.902383,1,宮城県仙台市宮城野区幸町5-10-1
354,宮城県,その他,イオンスーパーセンター佐沼,登米市南方町新島前46-1,38.683447,141.183878,1,宮城県登米市南方町新島前46-1
293,宮城県,その他,アピナ新利府 北館,宮城郡利府町利府字新屋田前22 ｲｵﾝﾓｰﾙ新利府北館2F,38.326746,140.9713,1,宮城県宮城郡利府町利府字新屋田前22 ｲｵﾝﾓｰﾙ新利府北館2F
240,宮城県,その他,アニメガ×ソフマップ仙台駅前店,仙台市青葉区中央4-1-1 EBeanS1F,38.258636,140.879848,2,宮城県仙台市青葉区中央4-1-1 EBeanS1F
228,宮城県,その他,あそびのひろば船岡,柴田郡柴田町西船迫2-1-15ｲｵﾝ船岡2F,38.063108,140.762317,1,宮城県柴田郡柴田町西船迫2-1-15ｲｵﾝ船岡2F
75,宮城県,namco,namcoイオンモール名取店,名取市杜せきのした5-3-1ｲｵﾝﾓｰﾙ名取2F,38.163759,140.895599,1,宮城県名取市杜せきのした5-3-1ｲｵﾝﾓｰﾙ名取2F
72,宮城県,namco,namcoイオンモール富谷店,富谷市大清水1-33-1ｲｵﾝﾓｰﾙ富谷店2階,38.363762,140.873513,1,宮城県富谷市大清水1-33-1ｲｵﾝﾓｰﾙ富谷店2階
61,宮城県,namco,namcoイオンモール新利府 南館店,宮城郡利府町新中道3-1-1ｲｵﾝﾓｰﾙ新利府南館3階3028区画,38.322623,140.972317,1,宮城県宮城郡利府町新中道3-1-1ｲｵﾝﾓｰﾙ新利府南館3階3028区画
46,宮城県,namco,namcoアリオ仙台泉店,仙台市泉区泉中央一丁目五番地一ｱﾘｵ仙台泉店内,38.324585,140.882188,2,宮城県仙台市泉区泉中央一丁目五番地一ｱﾘｵ仙台泉店内
22,宮城県,その他,LABI仙台,仙台市青葉区中央3-6-1,38.259889,140.878675,1,宮城県仙台市青葉区中央3-6-1
1580,秋田県,モーリーファンタジー・PALO,モーリーファンタジー本荘,由利本荘市石脇田中138番地,39.391634,140.027504,1,秋田県由利本荘市石脇田中138番地
1534,秋田県,その他,ソユーゲームフィールド大館,大館市御成町3丁目7-58 いとく大館ショッピングセンター3階,40.280847,140.560379,1,秋田県大館市御成町3丁目7-58 いとく大館ショッピングセンター3階
1507,秋田県,その他,SOYU Game Field能代,能代市鰄渕字古屋布１番 イオンタウン能代内,40.188204,140.082125,1,秋田県能代市鰄渕字古屋布１番 イオンタウン能代内
1475,秋田県,その他,リスチャイルド本荘店,由利本荘市石脇字田中138 イオンスーパーセンター本荘店内,39.391502,140.027493,1,秋田県由利本荘市石脇字田中138 イオンスーパーセンター本荘店内
1474,秋田県,その他,AN.KIN.TAN五城目店,南秋田郡五城目町大字大川西野字田屋前138 イオンスーパーセンター五城目店内,39.943897,140.111535,1,秋田県南秋田郡五城目町大字大川西野字田屋前138 イオンスーパーセンター五城目店内
1434,秋田県,その他,秋田OPAアミューズパーク,秋田市秋田県秋田市千秋久保田町4ｰ2秋田OPA内,39.717841,140.128159,1,秋田県秋田市秋田県秋田市千秋久保田町4ｰ2秋田OPA内
1300,秋田県,モーリーファンタジー・PALO,モーリーファンタジー能代,能代市柳町11-1 ｲｵﾝ能代店3階,40.209033,140.02465,1,秋田県能代市柳町11-1 ｲｵﾝ能代店3階
1238,秋田県,モーリーファンタジー・PALO,モーリーファンタジー中仙,大仙市北長野字袴田188 ｲｵﾝ中仙店1階,39.551307,140.551439,1,秋田県大仙市北長野字袴田188 ｲｵﾝ中仙店1階
1222,秋田県,モーリーファンタジー・PALO,モーリーファンタジー大曲,大仙市和合字坪立177 ｲｵﾝ大曲店2階,39.437695,140.509273,1,秋田県大仙市和合字坪立177 ｲｵﾝ大曲店2階
1220,秋田県,モーリーファンタジー・PALO,モーリーファンタジー大館,大館市大田面238 ｲｵﾝSC大館店1階,40.286259,140.577167,1,秋田県大館市大田面238 ｲｵﾝSC大館店1階
1151,秋田県,モーリーファンタジー・PALO,モーリーファンタジー秋田中央,秋田市楢山川口境5-11 ｲｵﾝ秋田中央店3階,39.704121,140.109522,1,秋田県秋田市楢山川口境5-11 ｲｵﾝ秋田中央店3階
1086,秋田県,モーリーファンタジー・PALO,モーリーファンタジー御所野,秋田市御所野地蔵田1-1-1 ｲｵﾝ御所野3F,39.662746,140.161974,1,秋田県秋田市御所野地蔵田1-1-1 ｲｵﾝ御所野3F
1045,秋田県,モーリーファンタジー・PALO,モーリーファンタジー横手,横手市安田字向田147 ｲｵﾝ横手店2階,39.298556,140.55373,1,秋田県横手市安田字向田147 ｲｵﾝ横手店2階
974,秋田県,その他,メルヘンランド大館,大館市御成町3丁目7-58 いとく大館ｼｮｯﾋﾟﾝｸﾞｾﾝﾀｰ3階,40.280803,140.560375,1,秋田県大館市御成町3丁目7-58 いとく大館ｼｮｯﾋﾟﾝｸﾞｾﾝﾀｰ3階
908,秋田県,その他,ファンタジープラザ秋田,秋田市旭北錦町4-58ﾄﾞﾝ･ｷﾎｰﾃ秋田2F,39.714795,140.109377,1,秋田県秋田市旭北錦町4-58ﾄﾞﾝ･ｷﾎｰﾃ秋田2F
653,秋田県,その他,ソユープレイランドソピアいとくアクロス能代,能代市字寺向70番地いとくｱｸﾛｽ能代店内,40.182367,140.053527,1,秋田県能代市字寺向70番地いとくｱｸﾛｽ能代店内
648,秋田県,その他,ソユープレイランドソピア いとく鹿角,鹿角市花輪字下夕町164-1いとく鹿角ｼｮｯﾋﾟﾝｸﾞｾﾝﾀｰ内,40.199597,140.792974,1,秋田県鹿角市花輪字下夕町164-1いとく鹿角ｼｮｯﾋﾟﾝｸﾞｾﾝﾀｰ内
639,秋田県,その他,ソユーゲームフィールド御所野,秋田市御所野地蔵田一丁目1番地1号ｲｵﾝﾓｰﾙ秋田2F,39.663041,140.160869,2,秋田県秋田市御所野地蔵田一丁目1番地1号ｲｵﾝﾓｰﾙ秋田2F
586,秋田県,その他,セガ秋田,秋田市茨島1-1-16,39.704216,140.104605,1,秋田県秋田市茨島1-1-16
503,秋田県,その他,ゲームフィールド十文字,横手市十文字町仁井田字東22-1ｽｰﾊﾟｰﾓｰﾙﾗｯｷｰ内,39.215976,140.520702,1,秋田県横手市十文字町仁井田字東22-1ｽｰﾊﾟｰﾓｰﾙﾗｯｷｰ内
367,秋田県,その他,イオン土崎港,秋田市土崎港南2-3-41,39.746974,140.07287,1,秋田県秋田市土崎港南2-3-41
11,秋田県,その他,Game Field 鷹巣,北秋田市栄字前網76いとく鷹巣ｼｮｯﾋﾟﾝｸﾞｾﾝﾀｰ内,40.232517,140.380233,1,秋田県北秋田市栄字前網76いとく鷹巣ｼｮｯﾋﾟﾝｸﾞｾﾝﾀｰ内
1529,山形県,namco,namcoイオンモール山形南店,山形市若宮3-7-8 イオンモール山形南２Ｆ,38.226902,140.305284,1,山形県山形市若宮3-7-8 イオンモール山形南２Ｆ
1333,山形県,モーリーファンタジー・PALO,モーリーファンタジー米沢,米沢市春日2-13-4 ｲｵﾝ米沢店2階,37.923389,140.108829,1,山形県米沢市春日2-13-4 ｲｵﾝ米沢店2階
1275,山形県,モーリーファンタジー・PALO,モーリーファンタジー東根,東根市さくらんぼ駅前3-7-15 ｲｵﾝ東根店2階,38.426729,140.387446,1,山形県東根市さくらんぼ駅前3-7-15 ｲｵﾝ東根店2階
1258,山形県,モーリーファンタジー・PALO,モーリーファンタジー天童,天童市芳賀ﾀｳﾝ北4-1-1 ｲｵﾝ2F,38.343932,140.363498,1,山形県天童市芳賀ﾀｳﾝ北4-1-1 ｲｵﾝ2F
1149,山形県,モーリーファンタジー・PALO,モーリーファンタジー酒田南,酒田市あきほ町120-1 ｲｵﾝ酒田南店1階,38.891923,139.852658,1,山形県酒田市あきほ町120-1 ｲｵﾝ酒田南店1階
1134,山形県,モーリーファンタジー・PALO,モーリーファンタジー山形北,山形市馬見ｹ崎2-12-19 ｲｵﾝ山形北店2階,38.28286,140.330834,1,山形県山形市馬見ｹ崎2-12-19 ｲｵﾝ山形北店2階
1133,山形県,モーリーファンタジー・PALO,モーリーファンタジー山形南,山形市若宮3-7-8 ｲｵﾝ山形南店2階,38.226456,140.306248,1,山形県山形市若宮3-7-8 ｲｵﾝ山形南店2階
1129,山形県,モーリーファンタジー・PALO,モーリーファンタジー三川,東田川郡三川町大字猪子字和田庫128-1 ｲｵﾝ三川店2階,38.816116,139.83432,1,山形県東田川郡三川町大字猪子字和田庫128-1 ｲｵﾝ三川店2階
871,山形県,その他,ビーカム成沢,山形市成沢西5-3-27,38.208559,140.31775,1,山形県山形市成沢西5-3-27
817,山形県,その他,ナムコランドS-MALL店,鶴岡市錦町2-21S-MALL2階,38.739144,139.829833,1,山形県鶴岡市錦町2-21S-MALL2階
632,山形県,その他,ソユーゲームフィールド 天童,天童市芳賀ﾀｳﾝ北四丁目1番1号ｲｵﾝﾓｰﾙ天童2F,38.343932,140.363498,1,山形県天童市芳賀ﾀｳﾝ北四丁目1番1号ｲｵﾝﾓｰﾙ天童2F
625,山形県,その他,ソユーゲームフィールド 三川,東田川郡三川町大字猪子字和田庫128番地1ｲｵﾝﾓｰﾙ三川1F,38.815857,139.835748,1,山形県東田川郡三川町大字猪子字和田庫128番地1ｲｵﾝﾓｰﾙ三川1F
540,山形県,その他,スタジオプリモ山形,山形市城南町1-1-1 霞城ｾﾝﾄﾗﾙ2F,38.24983,140.326406,1,山形県山形市城南町1-1-1 霞城ｾﾝﾄﾗﾙ2F
300,山形県,その他,アピナ鶴岡,鶴岡市文下字広野1-1,38.758448,139.843986,1,山形県鶴岡市文下字広野1-1
1535,福島県,モーリーファンタジー・PALO,モーリーファンタジー南相馬,南相馬市原町区字大木戸金場77,37.637188,140.943419,1,福島県南相馬市原町区字大木戸金場77
1492,福島県,その他,セガワールド福島,福島市本内字中井１−２,37.785235,140.487567,1,福島県福島市本内字中井１−２
1486,福島県,その他,セガ日和田,郡山市日和田町字西中島7-10,37.448214,140.380429,1,福島県郡山市日和田町字西中島7-10
1388,福島県,ヨドバシカメラ,ヨドバシカメラ郡山駅前,郡山市駅前1-16-7,37.39691,140.387481,1,福島県郡山市駅前1-16-7
1330,福島県,モーリーファンタジー・PALO,モーリーファンタジー福島,福島市南矢野目字西荒田50-の17 ｲｵﾝ福島店3階,37.788198,140.457624,1,福島県福島市南矢野目字西荒田50-の17 ｲｵﾝ福島店3階
1302,福島県,モーリーファンタジー・PALO,モーリーファンタジー白河西郷,西白河郡西郷村大字小田倉字岩下11-1 ｲｵﾝ白河西郷店2階,37.121064,140.177622,1,福島県西白河郡西郷村大字小田倉字岩下11-1 ｲｵﾝ白河西郷店2階
1209,福島県,モーリーファンタジー・PALO,モーリーファンタジー相馬,相馬市馬場野字雨田51 ｲｵﾝ相馬店2階,37.787727,140.930426,1,福島県相馬市馬場野字雨田51 ｲｵﾝ相馬店2階
1080,福島県,モーリーファンタジー・PALO,モーリーファンタジー郡山フェスタ,郡山市日和田町字小原1 ｲｵﾝ郡山ﾌｪｽﾀ店1階,37.444696,140.376535,1,福島県郡山市日和田町字小原1 ｲｵﾝ郡山ﾌｪｽﾀ店1階
1070,福島県,モーリーファンタジー・PALO,モーリーファンタジー鏡石,岩瀬郡鏡石町桜岡375-9 ｲｵﾝSC鏡石店1階,37.242639,140.333815,1,福島県岩瀬郡鏡石町桜岡375-9 ｲｵﾝSC鏡石店1階
990,福島県,モーリーファンタジー・PALO,モーリーファンタジーいわき小名浜,いわき市小名浜港背後地土地区画整理事業地内 ｲｵﾝ4F,36.943439,140.905227,2,福島県いわき市小名浜港背後地土地区画整理事業地内 ｲｵﾝ4F
989,福島県,モーリーファンタジー・PALO,モーリーファンタジーいわき,いわき市平字三倉68-1 ｲｵﾝいわき店3階,37.050562,140.898491,2,福島県いわき市平字三倉68-1 ｲｵﾝいわき店3階
806,福島県,その他,トイザらス福島,福島市森合字清水7ｺｰﾌﾟﾏｰﾄいずみ2F,37.772103,140.44145,1,福島県福島市森合字清水7ｺｰﾌﾟﾏｰﾄいずみ2F
699,福島県,その他,タイトーFステーション郡山オリエントパーク,郡山市安積町荒井字大久保35-1,37.374482,140.348763,1,福島県郡山市安積町荒井字大久保35-1
681,福島県,その他,タイトーFステーション 郡山アティ,郡山市駅前1-16-7,37.39691,140.387481,1,福島県郡山市駅前1-16-7
640,福島県,その他,ソユーゲームフィールド小名浜,いわき市小名浜字辰巳町79番地ｲｵﾝﾓｰﾙいわき小名浜3階,36.94675,140.903736,1,福島県いわき市小名浜字辰巳町79番地ｲｵﾝﾓｰﾙいわき小名浜3階
618,福島県,その他,GiGO勿来,いわき市勿来町四沢字鍵田13,36.889192,140.784575,1,福島県いわき市勿来町四沢字鍵田13
591,福島県,その他,セガ小名浜,いわき市小名浜林城字塚前18-1,36.985935,140.897165,1,福島県いわき市小名浜林城字塚前18-1
402,福島県,イトーヨーカドー,イトーヨーカドー郡山,郡山市西ﾉ内2-11-40,37.407629,140.36411,1,福島県郡山市西ﾉ内2-11-40
213,福島県,その他,THE 3RD PLANET ピボット福島,福島市栄町1-1 ﾊﾟﾜｰｼﾃｨﾋﾟﾎﾞｯﾄ,37.754528,140.458769,2,福島県福島市栄町1-1 ﾊﾟﾜｰｼﾃｨﾋﾟﾎﾞｯﾄ
206,福島県,その他,SOYU ENTERTAINMENT STUDIO須賀川,須賀川市古河105番地ｲｵﾝﾀｳﾝ須賀川B棟内,37.298302,140.385774,2,福島県須賀川市古河105番地ｲｵﾝﾀｳﾝ須賀川B棟内
176,福島県,モーリーファンタジー・PALO,PALO喜多方,喜多方市字押切南2-42-1 1F,37.6468,139.859584,1,福島県喜多方市字押切南2-42-1 1F
145,福島県,namco,namco郡山西部プラザ店,郡山市西ﾉ内2丁目11-35西部ﾌﾟﾗｻﾞ内 西部ﾌﾟﾗｻﾞ内,37.407322,140.362808,1,福島県郡山市西ﾉ内2丁目11-35西部ﾌﾟﾗｻﾞ内 西部ﾌﾟﾗｻﾞ内
51,福島県,namco,namcoイオンタウン郡山店,郡山市松木町2-88ｲｵﾝﾀｳﾝ郡山,37.389948,140.388889,1,福島県郡山市松木町2-88ｲｵﾝﾀｳﾝ郡山
1509,茨城県,その他,タイトーFステーション トナリエクレオ つくば店,つくば市吾妻1-7-1トナリエつくばスクエア　クレオ棟3階,36.081865,140.111505,1,茨城県つくば市吾妻1-7-1トナリエつくばスクエア　クレオ棟3階
1459,茨城県,その他,宝島勝田,ひたちなか市石川町1-1MEGAﾄﾞﾝ･ｷﾎｰﾃ勝田店2階,36.393121,140.527489,1,茨城県ひたちなか市石川町1-1MEGAﾄﾞﾝ･ｷﾎｰﾃ勝田店2階
1458,茨城県,その他,あそびのひろば鹿嶋,鹿嶋市宮中290-1 ショッピングセンターチェリオ1F,35.959893,140.643967,1,茨城県鹿嶋市宮中290-1 ショッピングセンターチェリオ1F
1272,茨城県,モーリーファンタジー・PALO,モーリーファンタジー東海,那珂郡東海村舟石川駅東四-1-1 ｲｵﾝ東海店2階,36.463253,140.566927,1,茨城県那珂郡東海村舟石川駅東四-1-1 ｲｵﾝ東海店2階
1267,茨城県,モーリーファンタジー・PALO,モーリーファンタジー土浦,土浦市上高津367 ｲｵﾝ土浦店3階,36.080775,140.179658,1,茨城県土浦市上高津367 ｲｵﾝ土浦店3階
1185,茨城県,モーリーファンタジー・PALO,モーリーファンタジー水戸内原,水戸市内原2-1 ｲｵﾝ3F,36.374927,140.360015,2,茨城県水戸市内原2-1 ｲｵﾝ3F
1109,茨城県,モーリーファンタジー・PALO,モーリーファンタジー佐原東,稲敷市西代1495 ﾊﾟﾙﾅ佐原東店2階,35.918548,140.488175,1,茨城県稲敷市西代1495 ﾊﾟﾙﾅ佐原東店2階
1104,茨城県,モーリーファンタジー・PALO,モーリーファンタジー高萩,高萩市安良川231 ｲｵﾝ高萩店2F,36.706027,140.708096,1,茨城県高萩市安良川231 ｲｵﾝ高萩店2F
1084,茨城県,モーリーファンタジー・PALO,モーリーファンタジー古河,古河市旭町1-2-17 ｲｵﾝ古河店2階,36.197113,139.720001,1,茨城県古河市旭町1-2-17 ｲｵﾝ古河店2階
1050,茨城県,モーリーファンタジー・PALO,モーリーファンタジー下妻,下妻市堀籠972-1 ｲｵﾝ下妻店2階,36.190036,139.990152,1,茨城県下妻市堀籠972-1 ｲｵﾝ下妻店2階
1003,茨城県,モーリーファンタジー・PALO,モーリーファンタジーつくば,つくば市稲岡66-1 ｲｵﾝ3F,36.036297,140.136563,1,茨城県つくば市稲岡66-1 ｲｵﾝ3F
902,茨城県,その他,ピンクパンサー日立,日立市東多賀町5-10-10,36.548234,140.630508,1,茨城県日立市東多賀町5-10-10
901,茨城県,その他,ピンクパンサー土浦,土浦市木田余4585-3,36.106563,140.215309,1,茨城県土浦市木田余4585-3
900,茨城県,その他,ピンクパンサー水戸けやき台,水戸市酒門町3276-1,36.338082,140.483112,1,茨城県水戸市酒門町3276-1
884,茨城県,ビックカメラ,ビックカメラ水戸駅前,水戸市宮町1-7-31 ｴｸｾﾙみなみ4F,36.370064,140.47664,1,茨城県水戸市宮町1-7-31 ｴｸｾﾙみなみ4F
844,茨城県,その他,ハローズガーデン江戸崎,稲敷市江戸崎甲4836 ﾊﾟﾝﾌﾟ江戸崎SC1F,35.956716,140.321393,1,茨城県稲敷市江戸崎甲4836 ﾊﾟﾝﾌﾟ江戸崎SC1F
737,茨城県,タイトー,タイトーステーション 佐原東,稲敷市西代1495 ｼｮｯﾋﾟﾝｸﾞｾﾝﾀｰﾊﾟﾙﾅ2F,35.918605,140.488015,1,茨城県稲敷市西代1495 ｼｮｯﾋﾟﾝｸﾞｾﾝﾀｰﾊﾟﾙﾅ2F
707,茨城県,タイトー,タイトーステーション イオンタウン水戸南,東茨城郡茨城町長岡3480-101,36.311299,140.44297,1,茨城県東茨城郡茨城町長岡3480-101
644,茨城県,その他,ソユートイズニューヨーク 守谷,守谷市百合ヶ丘三丁目249番1ｲｵﾝﾀｳﾝ守谷2F,35.944816,139.990594,2,茨城県守谷市百合ヶ丘三丁目249番1ｲｵﾝﾀｳﾝ守谷2F
620,茨城県,その他,GiGO龍ヶ崎,龍ケ崎市藤ｹ丘4-2-8,35.938539,140.195859,1,茨城県龍ケ崎市藤ｹ丘4-2-8
600,茨城県,その他,セガ石岡,石岡市東大橋中峯1976-1,36.240203,140.390052,1,茨城県石岡市東大橋中峯1976-1
597,茨城県,その他,セガ水戸南,水戸市千波町2017-1 1F,36.350322,140.44301,1,茨城県水戸市千波町2017-1 1F
574,茨城県,その他,セガワールド日立,日立市田尻町3-26-1,36.627007,140.667702,1,茨城県日立市田尻町3-26-1
524,茨城県,その他,ジョイフル本田ニューポートひたちなかアミューズパーク,ひたちなか市新光町34-1ｼﾞｮｲﾌﾙ本田ﾆｭｰﾎﾟｰﾄひたちなか1F,36.408018,140.586277,2,茨城県ひたちなか市新光町34-1ｼﾞｮｲﾌﾙ本田ﾆｭｰﾎﾟｰﾄひたちなか1F
523,茨城県,その他,ジャングルパーク笠間,笠間市赤坂8 笠間SCﾎﾟﾚﾎﾟﾚｼﾃｨ1F,36.391239,140.251591,1,茨城県笠間市赤坂8 笠間SCﾎﾟﾚﾎﾟﾚｼﾃｨ1F
498,茨城県,その他,ゲームパニックつくば,土浦市中村東1-1-1 ｻﾝﾀｽﾜｰﾙﾄﾞ内,36.046552,140.168214,1,茨城県土浦市中村東1-1-1 ｻﾝﾀｽﾜｰﾙﾄﾞ内
451,茨城県,イトーヨーカドー,イトーヨーカドー竜ヶ崎,龍ケ崎市小柴5-1-2,35.932833,140.160255,1,茨城県龍ケ崎市小柴5-1-2
280,茨城県,その他,アピナ下館,筑西市玉戸1012-3,36.29537,139.945461,1,茨城県筑西市玉戸1012-3
55,茨城県,namco,namcoイオンモールつくば店,つくば市稲岡66-1ｲｵﾝﾓｰﾙつくば店3F,36.034595,140.13288,1,茨城県つくば市稲岡66-1ｲｵﾝﾓｰﾙつくば店3F
48,茨城県,namco,namcoアルプラザ鹿島店,鹿島郡中能登町井田と1-1ｱﾙﾌﾟﾗｻﾞ鹿島店2F,36.219357,140.183252,1,茨城県鹿島郡中能登町井田と1-1ｱﾙﾌﾟﾗｻﾞ鹿島店2F
34,茨城県,namco,namco iiasつくば店,つくば市研究学園5丁目19番地iiasつくば店2F2190,36.086883,140.08435,2,茨城県つくば市研究学園5丁目19番地iiasつくば店2F2190
9,茨城県,その他,FESTA古河,古河市松並2-18-10ﾏｰｹｯﾄｼﾃｨ古河内,36.209407,139.708567,1,茨城県古河市松並2-18-10ﾏｰｹｯﾄｼﾃｨ古河内
3,茨城県,その他,AMジャムジャムひたちなか本店,ひたちなか市田中後40-2,36.347451,140.5801,1,茨城県ひたちなか市田中後40-2
2,茨城県,その他,AMジャムジャムつくば,つくば市竹園1-9-2 ﾃﾞｲｽﾞﾀｳﾝつくば地下1階,36.077986,140.114789,1,茨城県つくば市竹園1-9-2 ﾃﾞｲｽﾞﾀｳﾝつくば地下1階
1478,栃木県,その他,スコナランドトライアル宇都宮,宇都宮市睦町5-5ｽｰﾊﾟｰｾﾝﾀｰﾄﾗｲｱﾙ宇都宮店2Ｆ,36.561868,139.862886,1,栃木県宇都宮市睦町5-5ｽｰﾊﾟｰｾﾝﾀｰﾄﾗｲｱﾙ宇都宮店2Ｆ
1374,栃木県,ヨドバシカメラ,ヨドバシカメラマルチメディア宇都宮,宇都宮市駅前通り1-4-6 宇都宮西口ﾋﾞﾙ,36.560507,139.897055,1,栃木県宇都宮市駅前通り1-4-6 宇都宮西口ﾋﾞﾙ
1284,栃木県,モーリーファンタジー・PALO,モーリーファンタジー那須塩原,那須塩原市島方455 ｲｵﾝSC那須塩原店1階,36.929791,140.005152,2,栃木県那須塩原市島方455 ｲｵﾝSC那須塩原店1階
1181,栃木県,モーリーファンタジー・PALO,モーリーファンタジー真岡,真岡市台町2668 ｲｵﾝSC真岡店1階,36.430794,140.000231,1,栃木県真岡市台町2668 ｲｵﾝSC真岡店1階
1157,栃木県,モーリーファンタジー・PALO,モーリーファンタジー小山,小山市中久喜1467-1 ｲｵﾝ小山店2階,36.321766,139.840902,1,栃木県小山市中久喜1467-1 ｲｵﾝ小山店2階
1110,栃木県,モーリーファンタジー・PALO,モーリーファンタジー佐野新都市,佐野市高萩町1324-1 ｲｵﾝ佐野新都市店2階,36.298622,139.605978,1,栃木県佐野市高萩町1324-1 ｲｵﾝ佐野新都市店2階
1105,栃木県,モーリーファンタジー・PALO,モーリーファンタジー今市,日光市豊田字若林79-1 ｲｵﾝ今市店2階,36.730527,139.703946,1,栃木県日光市豊田字若林79-1 ｲｵﾝ今市店2階
996,栃木県,モーリーファンタジー・PALO,モーリーファンタジーさくら,さくら市桜野1555-1 ｲｵﾝSCさくら店1階,36.688097,139.980374,1,栃木県さくら市桜野1555-1 ｲｵﾝSCさくら店1階
943,栃木県,その他,プラボ宇都宮店,宇都宮市簗瀬町1606番地1P&Dﾋﾞﾙ,36.543944,139.891517,2,栃木県宇都宮市簗瀬町1606番地1P&Dﾋﾞﾙ
813,栃木県,その他,ドラマ足利,足利市栃木県足利市朝倉町244-1,36.322037,139.450652,1,栃木県足利市栃木県足利市朝倉町244-1
810,栃木県,その他,トイセルタウンおもちゃのまち本店,下都賀郡壬生町おもちゃのまち1-2-20,36.463468,139.836692,1,栃木県下都賀郡壬生町おもちゃのまち1-2-20
774,栃木県,その他,テクモピアロックダムインターパーク,宇都宮市ｲﾝﾀｰﾊﾟｰｸ6-1-1 FKDｼｮﾋﾟﾝｸﾞﾓｰﾙｲﾝﾀｰﾊﾟｰｸ店2階,36.490532,139.9067,1,栃木県宇都宮市ｲﾝﾀｰﾊﾟｰｸ6-1-1 FKDｼｮﾋﾟﾝｸﾞﾓｰﾙｲﾝﾀｰﾊﾟｰｸ店2階
773,栃木県,その他,テクモピアパルテロン宇都宮,宇都宮市今泉町237 福田屋ｼｮｯﾋﾟﾝｸﾞﾌﾟﾗｻﾞ宇都宮店2F,36.573626,139.900708,1,栃木県宇都宮市今泉町237 福田屋ｼｮｯﾋﾟﾝｸﾞﾌﾟﾗｻﾞ宇都宮店2F
727,栃木県,タイトー,タイトーステーション 宇都宮ベルモール,宇都宮市陽東6丁目2-1,36.555058,139.928244,1,栃木県宇都宮市陽東6丁目2-1
709,栃木県,タイトー,タイトーステーション イオンモール佐野新都市,佐野市高萩町1324-1,36.299642,139.606642,1,栃木県佐野市高萩町1324-1
688,栃木県,その他,タイトーFステーション 小山,小山市喜沢1475番地,36.333259,139.808644,1,栃木県小山市喜沢1475番地
670,栃木県,その他,タイトーFステーション トナリエ宇都宮,宇都宮市駅前通り1-4-6 ﾄﾅﾘｴ宇都宮B1階,36.560214,139.896968,1,栃木県宇都宮市駅前通り1-4-6 ﾄﾅﾘｴ宇都宮B1階
599,栃木県,その他,セガ西那須野,那須塩原市南郷屋2-106-27,36.895073,139.982323,1,栃木県那須塩原市南郷屋2-106-27
567,栃木県,その他,GiGO宇都宮,宇都宮市東宿郷5-1-7,36.558227,139.908884,1,栃木県宇都宮市東宿郷5-1-7
393,栃木県,イトーヨーカドー,イトーヨーカドー宇都宮,宇都宮市陽東6-2-1,36.555058,139.928244,1,栃木県宇都宮市陽東6-2-1
288,栃木県,その他,アピナ小山,小山市駅南町4-27-18,36.300375,139.809231,2,栃木県小山市駅南町4-27-18
262,栃木県,その他,アピタ足利,足利市朝倉町245,36.31992,139.450334,1,栃木県足利市朝倉町245
231,栃木県,その他,アドアーズアシコタウンあしかが,足利市大月町3番地2 ｱｼｺﾀｳﾝあしかが1階,36.335963,139.476992,1,栃木県足利市大月町3番地2 ｱｼｺﾀｳﾝあしかが1階
194,栃木県,モーリーファンタジー・PALO,PALO足利,足利市朝倉町2-21-16 ﾖｰｸﾀｳﾝ足利店1F,36.316329,139.445507,1,栃木県足利市朝倉町2-21-16 ﾖｰｸﾀｳﾝ足利店1F
193,栃木県,モーリーファンタジー・PALO,PALO石橋,下野市下古山3362-1 ﾖｰｸﾀｳﾝ,36.468504,139.868326,1,栃木県下野市下古山3362-1 ﾖｰｸﾀｳﾝ
138,栃木県,namco,namcoロブレ小山店,小山市中央町3-7-1ﾛﾌﾞﾚ小山店4階,36.31255,139.804928,1,栃木県小山市中央町3-7-1ﾛﾌﾞﾚ小山店4階
107,栃木県,namco,namcoフェドラP&D佐野店,佐野市高萩町1340,36.297342,139.605529,1,栃木県佐野市高萩町1340
81,栃木県,namco,namcoイオン栃木店,栃木市箱森町37-9ｲｵﾝ栃木店2F,36.394951,139.723957,1,栃木県栃木市箱森町37-9ｲｵﾝ栃木店2F
1462,群馬県,その他,宝島大間々,みどり市大間々町大間々40さくらもｰる2F,36.4139,139.2814,1,群馬県みどり市大間々町大間々40さくらもｰる2F
1456,群馬県,その他,宝島桐生,桐生市永楽町5-10MEGAﾄﾞﾝｷﾎｰﾃ桐生3階,36.412476,139.335905,1,群馬県桐生市永楽町5-10MEGAﾄﾞﾝｷﾎｰﾃ桐生3階
1422,群馬県,その他,レジャーランド藤岡,藤岡市中2002-1,36.274437,139.071767,1,群馬県藤岡市中2002-1
1421,群馬県,その他,レジャーランド太田,太田市西矢島町1622,36.270556,139.3742,1,群馬県太田市西矢島町1622
1417,群馬県,その他,レジャーランド高崎駅東口,高崎市江木町333-1ACTﾋﾞﾙ2F,36.329653,139.014389,1,群馬県高崎市江木町333-1ACTﾋﾞﾙ2F
1415,群馬県,その他,レジャーランド伊勢崎,伊勢崎市連取町3066-1,36.318183,139.172415,1,群馬県伊勢崎市連取町3066-1
1216,群馬県,モーリーファンタジー・PALO,モーリーファンタジー太田,太田市石原町81 ｲｵﾝ太田店2階,36.295487,139.400463,1,群馬県太田市石原町81 ｲｵﾝ太田店2階
1207,群馬県,モーリーファンタジー・PALO,モーリーファンタジー倉賀野,高崎市倉賀野町4691-1 ﾐｽﾀｰﾏｯｸｽ倉賀野店1F,36.300421,139.055677,1,群馬県高崎市倉賀野町4691-1 ﾐｽﾀｰﾏｯｸｽ倉賀野店1F
1099,群馬県,モーリーファンタジー・PALO,モーリーファンタジー高崎,高崎市棟高町1400 ｲｵﾝ高崎店3階,36.389384,139.006997,1,群馬県高崎市棟高町1400 ｲｵﾝ高崎店3階
1017,群馬県,モーリーファンタジー・PALO,モーリーファンタジーミスタマックス伊勢崎,伊勢崎市宮子町3556-1 ﾐｽﾀｰﾏｯｸｽ伊勢崎店1階,36.329295,139.151167,1,群馬県伊勢崎市宮子町3556-1 ﾐｽﾀｰﾏｯｸｽ伊勢崎店1階
992,群馬県,モーリーファンタジー・PALO,モーリーファンタジーガーデン前橋,前橋市小屋原町472-1 ｶﾞｰﾃﾞﾝ前橋1F,36.355895,139.129841,1,群馬県前橋市小屋原町472-1 ｶﾞｰﾃﾞﾝ前橋1F
853,群馬県,その他,ハローズガーデン前橋,前橋市文京町2-1-1 ｱﾋﾟﾀけやきｳｫｰｸ前橋店2F,36.379697,139.078625,1,群馬県前橋市文京町2-1-1 ｱﾋﾟﾀけやきｳｫｰｸ前橋店2F
845,群馬県,その他,ハローズガーデン高崎,高崎市矢中町字渕ﾉ内668-1 ｱﾋﾟﾀ高崎店2F,36.309821,139.054213,1,群馬県高崎市矢中町字渕ﾉ内668-1 ｱﾋﾟﾀ高崎店2F
839,群馬県,その他,ハローズガーデン伊勢崎東,伊勢崎市三室町5330 MEGAﾄﾞﾝ･ｷﾎｰﾃUNY伊勢崎東店2F,36.329329,139.233896,1,群馬県伊勢崎市三室町5330 MEGAﾄﾞﾝ･ｷﾎｰﾃUNY伊勢崎東店2F
691,群馬県,その他,タイトーFステーション 前橋リリカ,前橋市国領町2-14-1 前橋ﾘﾘｶ2F,36.404695,139.067979,1,群馬県前橋市国領町2-14-1 前橋ﾘﾘｶ2F
573,群馬県,その他,セガワールド沼田,沼田市下久屋町1100-1,36.656781,139.078042,1,群馬県沼田市下久屋町1100-1
569,群馬県,その他,セガワールド館林,館林市小桑原町949-1,36.235177,139.520251,1,群馬県館林市小桑原町949-1
557,群馬県,その他,セガスマーク伊勢崎,伊勢崎市西小保方町368 ｽﾏｰｸ伊勢崎3F302区画,36.339699,139.232946,1,群馬県伊勢崎市西小保方町368 ｽﾏｰｸ伊勢崎3F302区画
514,群馬県,その他,こころっこ新田,太田市新田市野井町592-13 ﾆｺﾓｰﾙ新田店内ﾌﾟﾚﾋﾞﾌﾟﾚｲﾗﾝﾄﾞ,36.303808,139.301729,1,群馬県太田市新田市野井町592-13 ﾆｺﾓｰﾙ新田店内ﾌﾟﾚﾋﾞﾌﾟﾚｲﾗﾝﾄﾞ
295,群馬県,その他,アピナ太田,太田市内ヶ島町907-1,36.282871,139.398348,1,群馬県太田市内ヶ島町907-1
218,群馬県,その他,THE 3RD PLANET 高崎,高崎市下和田町5-3-8 ﾒﾃﾞｨｱﾒｶﾞ高崎,36.319027,139.014053,1,群馬県高崎市下和田町5-3-8 ﾒﾃﾞｨｱﾒｶﾞ高崎
140,群馬県,namco,namco伊勢崎店,伊勢崎市宮子町3402-6,36.33029,139.164532,1,群馬県伊勢崎市宮子町3402-6
91,群馬県,namco,namcoけやきウォーク前橋店,前橋市文京町2-1-1けやきｳｫｰｸ前橋2F,36.379167,139.078056,2,群馬県前橋市文京町2-1-1けやきｳｫｰｸ前橋2F
39,群馬県,namco,namcoアカマル店,高崎市中尾町字鳥羽前44-1ｱｶﾏﾙ2F,36.370223,139.027431,1,群馬県高崎市中尾町字鳥羽前44-1ｱｶﾏﾙ2F
29,群馬県,その他,MEGAドン・キホーテ桐生,桐生市永楽町5-10,36.412457,139.335972,1,群馬県桐生市永楽町5-10
14,群馬県,その他,LABI 1 LIFE SELECT高崎,高崎市栄町1-1,36.323184,139.013948,1,群馬県高崎市栄町1-1
1572,埼玉県,その他,GiGOイオンモール与野,さいたま市中央区本町西５−２−９ イオン与野ショッピングセンター３Ｆ,35.890858,139.615056,1,埼玉県さいたま市中央区本町西５−２−９ イオン与野ショッピングセンター３Ｆ
1570,埼玉県,その他,GiGOララポート富士見,富士見市山室1-1313 ららぽーと富士見3F 3520区画,35.85977,139.548425,1,埼玉県富士見市山室1-1313 ららぽーと富士見3F 3520区画
1562,埼玉県,その他,パシオス秩父,永田町10-27 ﾊﾟｼｵｽ秩父店,35.996513,139.088804,1,埼玉県永田町10-27 ﾊﾟｼｵｽ秩父店
1555,埼玉県,その他,GiGO籠原,熊谷市美土里町1-169,36.171004,139.318334,1,埼玉県熊谷市美土里町1-169
1546,埼玉県,イトーヨーカドー,イトーヨーカドー和光,和光市丸山台1-9-3,35.7866,139.612231,1,埼玉県和光市丸山台1-9-3
1545,埼玉県,イトーヨーカドー,イトーヨーカドー上尾駅前,上尾市谷津2-1-1,35.972153,139.588559,1,埼玉県上尾市谷津2-1-1
1538,埼玉県,その他,MEGAドン･キホーテ蓮田,蓮田市東4-5-13,35.980247,139.657772,1,埼玉県蓮田市東4-5-13
1527,埼玉県,その他,GiGO南越谷ラクーン,越谷市南越谷1-15-1　南越谷ラクーン2Ｆ,35.875196,139.793104,2,埼玉県越谷市南越谷1-15-1　南越谷ラクーン2Ｆ
1521,埼玉県,その他,テクモピア川越,川越市脇田町4-2 ドン・キホーテ川越東口店 3階,35.909226,139.48299,1,埼玉県川越市脇田町4-2 ドン・キホーテ川越東口店 3階
1495,埼玉県,その他,GiGO 花園,深谷市荒川３５９,36.120392,139.233112,1,埼玉県深谷市荒川３５９
1473,埼玉県,モーリーファンタジー・PALO,モーリーファンタジー上尾,上尾市愛宕三−８−１イオンモール上尾２階,35.964562,139.599903,1,埼玉県上尾市愛宕三−８−１イオンモール上尾２階
1464,埼玉県,その他,宝島蓮田,蓮田市東4-5-13MEGAﾄﾞﾝｷﾎｰﾃ蓮田2階,35.980123,139.657581,1,埼玉県蓮田市東4-5-13MEGAﾄﾞﾝｷﾎｰﾃ蓮田2階
1455,埼玉県,その他,宝島浦和美園,さいたま市緑区美園5-50-1ｲｵﾝﾓｰﾙ浦和美園2F,35.890875,139.731249,2,埼玉県さいたま市緑区美園5-50-1ｲｵﾝﾓｰﾙ浦和美園2F
1435,埼玉県,その他,西友小手指,所沢市小手指町1-25-8,35.802805,139.439754,1,埼玉県所沢市小手指町1-25-8
1420,埼玉県,その他,レジャーランド春日部,春日部市大字増富字谷際163-1,35.959297,139.729141,1,埼玉県春日部市大字増富字谷際163-1
1410,埼玉県,その他,ラクガキ王国 三郷,三郷市天神2丁目22番地 ｲﾄｰﾖｰｶﾄﾞｰ三郷店2F,35.843157,139.854343,1,埼玉県三郷市天神2丁目22番地 ｲﾄｰﾖｰｶﾄﾞｰ三郷店2F
1404,埼玉県,その他,ラウンドワンスタジアム朝霞,朝霞市膝折町2丁目16-10,35.790278,139.579596,1,埼玉県朝霞市膝折町2丁目16-10
1402,埼玉県,その他,ラウンドワンスタジアム上尾,上尾市大字平塚917番地1,35.985917,139.607952,1,埼玉県上尾市大字平塚917番地1
1399,埼玉県,その他,ラウンドワンスタジアムららぽーと新三郷,三郷市新三郷ららｼﾃｨ3丁目1-1 ららぽｰと新三郷2階,35.859219,139.865667,1,埼玉県三郷市新三郷ららｼﾃｨ3丁目1-1 ららぽｰと新三郷2階
1373,埼玉県,ヨドバシカメラ,ヨドバシカメラマルチメディアさいたま新都心駅前,さいたま市大宮区吉敷町4-263-6 ｺｸｰﾝ3B1,35.896229,139.63474,1,埼玉県さいたま市大宮区吉敷町4-263-6 ｺｸｰﾝ3B1
1355,埼玉県,モーリーファンタジー・PALO,モーリーファンタジー与野,さいたま市中央区本町西5-2-9 ｲｵﾝ与野店3階,35.890174,139.615128,1,埼玉県さいたま市中央区本町西5-2-9 ｲｵﾝ与野店3階
1340,埼玉県,モーリーファンタジー・PALO,モーリーファンタジー本庄中央,本庄市中央2-4 ﾋﾞﾊﾞﾓｰﾙ本庄中央店2F,36.243342,139.186736,1,埼玉県本庄市中央2-4 ﾋﾞﾊﾞﾓｰﾙ本庄中央店2F
1338,埼玉県,モーリーファンタジー・PALO,モーリーファンタジー北戸田,戸田市美女木東1-3-1 ｲｵﾝ北戸田店2階,35.826854,139.652054,1,埼玉県戸田市美女木東1-3-1 ｲｵﾝ北戸田店2階
1298,埼玉県,モーリーファンタジー・PALO,モーリーファンタジー入間,入間市上藤沢462-1 ｲｵﾝ入間店2階,35.821876,139.394848,1,埼玉県入間市上藤沢462-1 ｲｵﾝ入間店2階
1221,埼玉県,モーリーファンタジー・PALO,モーリーファンタジー大宮,さいたま市北区櫛引町2-574-1 ｲｵﾝ大宮店3階,35.923252,139.609671,1,埼玉県さいたま市北区櫛引町2-574-1 ｲｵﾝ大宮店3階
1218,埼玉県,モーリーファンタジー・PALO,モーリーファンタジー大井,ふじみ野市ふじみ野1-2-1 ｲｵﾝ大井店3階,35.859853,139.514379,1,埼玉県ふじみ野市ふじみ野1-2-1 ｲｵﾝ大井店3階
1211,埼玉県,モーリーファンタジー・PALO,モーリーファンタジー草加マルイ,草加市高砂2-9-1 草加ﾏﾙｲ,35.828728,139.804736,1,埼玉県草加市高砂2-9-1 草加ﾏﾙｲ
1203,埼玉県,モーリーファンタジー・PALO,モーリーファンタジー川口前川,川口市前川1-1-11 ｲｵﾝ川口前川店3階,35.834167,139.707222,1,埼玉県川口市前川1-1-11 ｲｵﾝ川口前川店3階
1202,埼玉県,モーリーファンタジー・PALO,モーリーファンタジー川口,川口市安行領根岸3180 ｲｵﾝﾓｰﾙ川口,35.837702,139.723339,1,埼玉県川口市安行領根岸3180 ｲｵﾝﾓｰﾙ川口
1170,埼玉県,モーリーファンタジー・PALO,モーリーファンタジー上里,児玉郡上里町大字金久保字蓮山359-1 ﾍﾞﾙｸ上里SC2階,36.261602,139.135558,1,埼玉県児玉郡上里町大字金久保字蓮山359-1 ﾍﾞﾙｸ上里SC2階
1156,埼玉県,モーリーファンタジー・PALO,モーリーファンタジー春日部,春日部市下柳420-1 ｲｵﾝ3F,35.988009,139.788773,2,埼玉県春日部市下柳420-1 ｲｵﾝ3F
1069,埼玉県,モーリーファンタジー・PALO,モーリーファンタジー狭山,狭山市上奥富1126-1 ｲｵﾝ狭山店2階,35.867979,139.410428,1,埼玉県狭山市上奥富1126-1 ｲｵﾝ狭山店2階
1041,埼玉県,モーリーファンタジー・PALO,モーリーファンタジー浦和美園,さいたま市緑区美園5-50-1 ｲｵﾝ浦和美園店3階,35.890875,139.731249,1,埼玉県さいたま市緑区美園5-50-1 ｲｵﾝ浦和美園店3階
1039,埼玉県,モーリーファンタジー・PALO,モーリーファンタジー羽生,羽生市川崎2-281-3 ｲｵﾝ羽生店3階,36.142677,139.542133,1,埼玉県羽生市川崎2-281-3 ｲｵﾝ羽生店3階
1023,埼玉県,モーリーファンタジー・PALO,モーリーファンタジーレイクタウン,越谷市ﾚｲｸﾀｳﾝ3-1-1 ｲｵﾝﾚｲｸﾀｳﾝmori3F,35.882039,139.828022,2,埼玉県越谷市ﾚｲｸﾀｳﾝ3-1-1 ｲｵﾝﾚｲｸﾀｳﾝmori3F
1013,埼玉県,モーリーファンタジー・PALO,モーリーファンタジーふじみ野,ふじみ野市福岡二-1-6 ｲｵﾝﾀｳﾝふじみ野3階,35.880606,139.521839,1,埼玉県ふじみ野市福岡二-1-6 ｲｵﾝﾀｳﾝふじみ野3階
1012,埼玉県,モーリーファンタジー・PALO,モーリーファンタジービバモール蕨錦町,蕨市錦町1-12-1 ﾋﾞﾊﾞﾓｰﾙ蕨錦町,35.821684,139.678042,1,埼玉県蕨市錦町1-12-1 ﾋﾞﾊﾞﾓｰﾙ蕨錦町
1011,埼玉県,モーリーファンタジー・PALO,モーリーファンタジービバモール東松山,東松山市神明町2-11-6 ﾋﾞﾊﾞﾓｰﾙ東松山店2F,36.030487,139.404386,1,埼玉県東松山市神明町2-11-6 ﾋﾞﾊﾞﾓｰﾙ東松山店2F
954,埼玉県,その他,プレビALCo越谷ショッピングスクエア,越谷市越谷1-16-6 ALCo越谷ｼｮｯﾋﾟﾝｸﾞｽｸｴｱ内B1Fﾌﾟﾚﾋﾞﾌﾟﾚｲﾗﾝﾄﾞ,35.887039,139.788026,1,埼玉県越谷市越谷1-16-6 ALCo越谷ｼｮｯﾋﾟﾝｸﾞｽｸｴｱ内B1Fﾌﾟﾚﾋﾞﾌﾟﾚｲﾗﾝﾄﾞ
951,埼玉県,その他,ソユーゲームフィールド 菖蒲,久喜市菖蒲町菖蒲6005番地1ﾓﾗｰｼﾞｭ菖蒲3F,36.075266,139.61122,2,埼玉県久喜市菖蒲町菖蒲6005番地1ﾓﾗｰｼﾞｭ菖蒲3F
948,埼玉県,その他,プレイランド イオン北浦和,さいたま市浦和区常盤10-20-29 ｲｵﾝ北浦和店3階,35.871522,139.639102,1,埼玉県さいたま市浦和区常盤10-20-29 ｲｵﾝ北浦和店3階
947,埼玉県,その他,プリモピア 鴻巣,鴻巣市北新宿225-1 ｳﾆｸｽ鴻巣,36.112575,139.439636,1,埼玉県鴻巣市北新宿225-1 ｳﾆｸｽ鴻巣
930,埼玉県,その他,プラサカプコン羽生,羽生市川崎2-281-3 ｲｵﾝﾓｰﾙ羽生2F,36.142677,139.542133,2,埼玉県羽生市川崎2-281-3 ｲｵﾝﾓｰﾙ羽生2F
887,埼玉県,ビックカメラ,ビックカメラ大宮西口そごう,さいたま市大宮区桜木町1-8-4 そごう大宮店ﾊﾟｰｷﾝｸﾞ館2F,35.904402,139.620983,1,埼玉県さいたま市大宮区桜木町1-8-4 そごう大宮店ﾊﾟｰｷﾝｸﾞ館2F
859,埼玉県,その他,ハローズガーデン本庄,本庄市南1-2-10 ｱﾋﾟﾀ本庄店1F,36.237065,139.182563,1,埼玉県本庄市南1-2-10 ｱﾋﾟﾀ本庄店1F
851,埼玉県,その他,ハローズガーデン吹上,鴻巣市袋字道上90-1 FUJIMALL吹上店2F,36.096409,139.465939,1,埼玉県鴻巣市袋字道上90-1 FUJIMALL吹上店2F
834,埼玉県,その他,ハローズガーデン ワカバウォーク,鶴ヶ島市富士見1-2-1 ﾜｶﾊﾞｳｫｰｸ2F,35.949398,139.411195,1,埼玉県鶴ヶ島市富士見1-2-1 ﾜｶﾊﾞｳｫｰｸ2F
791,埼玉県,その他,トイザらス新座,新座市野火止5-2-60ﾗ･ｳﾞｨﾆｭ2F,35.803148,139.558002,1,埼玉県新座市野火止5-2-60ﾗ･ｳﾞｨﾆｭ2F
788,埼玉県,その他,トイザらス所沢,所沢市北原町1404,35.809482,139.48039,1,埼玉県所沢市北原町1404
783,埼玉県,その他,トイザらス熊谷,熊谷市代1067,36.17434,139.369328,1,埼玉県熊谷市代1067
781,埼玉県,その他,トイザらス岩槻,さいたま市岩槻区城町2-6-28,35.948046,139.714085,1,埼玉県さいたま市岩槻区城町2-6-28
769,埼玉県,タイトー,タイトーステーション 和光,和光市丸山台1-4-5,35.786645,139.613824,2,埼玉県和光市丸山台1-4-5
756,埼玉県,タイトー,タイトーステーション 大宮,さいたま市大宮区大門町一丁目1番地,35.905797,139.625244,2,埼玉県さいたま市大宮区大門町一丁目1番地
740,埼玉県,タイトー,タイトーステーション 所沢,所沢市日吉町3番7号,35.788089,139.472427,1,埼玉県所沢市日吉町3番7号
697,埼玉県,その他,タイトーFステーションクレアモール川越,川越市新富町2-1-13ｶｼｰﾗ川越1F-4F,35.913826,139.482922,1,埼玉県川越市新富町2-1-13ｶｼｰﾗ川越1F-4F
668,埼玉県,その他,タイトーFステーション ダイエー大宮,さいたま市大宮区桜木町2-3 大宮西口共同ﾋﾞﾙ(ﾀﾞｲｴｰ内6F),35.906997,139.62178,1,埼玉県さいたま市大宮区桜木町2-3 大宮西口共同ﾋﾞﾙ(ﾀﾞｲｴｰ内6F)
657,埼玉県,その他,ダイエー南浦和東口,さいたま市南区南浦和3-2-1,35.846331,139.671853,1,埼玉県さいたま市南区南浦和3-2-1
629,埼玉県,その他,ソユーゲームフィールド 川口,川口市並木元町1番79号ｱﾘｵ川口3F,35.807313,139.713812,1,埼玉県川口市並木元町1番79号ｱﾘｵ川口3F
623,埼玉県,その他,ソユーゲームフィールド 熊谷,熊谷市銀座二丁目245番地ｼｮｯﾋﾟﾝｸﾞｾﾝﾀｰﾆｯﾄｰﾓｰﾙ4F,36.138841,139.393779,2,埼玉県熊谷市銀座二丁目245番地ｼｮｯﾋﾟﾝｸﾞｾﾝﾀｰﾆｯﾄｰﾓｰﾙ4F
619,埼玉県,その他,GiGO イオンモール与野,さいたま市中央区本町西5-2-9 ｲｵﾝ与野ｼｮｯﾋﾟﾝｸﾞｾﾝﾀｰ3F,35.890676,139.614978,1,埼玉県さいたま市中央区本町西5-2-9 ｲｵﾝ与野ｼｮｯﾋﾟﾝｸﾞｾﾝﾀｰ3F
611,埼玉県,その他,GiGO 入間,入間市東藤沢2-18,35.818984,139.418328,1,埼玉県入間市東藤沢2-18
603,埼玉県,その他,GiGO 川口,川口市東領家2-2-10,35.794596,139.74766,1,埼玉県川口市東領家2-2-10
531,埼玉県,その他,シルクハット川口,川口市栄町3-1-16ｲｰﾄ川口ﾋﾞﾙ4階,35.802888,139.717546,1,埼玉県川口市栄町3-1-16ｲｰﾄ川口ﾋﾞﾙ4階
515,埼玉県,その他,こころっこ東鷲宮,久喜市桜田3-2-1 ｲｵﾝ東鷲宮店内3Fﾌﾟﾚﾋﾞﾌﾟﾚｲﾗﾝﾄﾞ,36.089592,139.681407,1,埼玉県久喜市桜田3-2-1 ｲｵﾝ東鷲宮店内3Fﾌﾟﾚﾋﾞﾌﾟﾚｲﾗﾝﾄﾞ
499,埼玉県,その他,ゲームパニック三郷,三郷市ﾋﾟｱﾗｼﾃｨ1-1-200,35.84211,139.854826,1,埼玉県三郷市ﾋﾟｱﾗｼﾃｨ1-1-200
496,埼玉県,その他,ゲームスクエア三芳,入間郡三芳町大字藤久保字北新埜855-403,35.8386,139.523732,1,埼玉県入間郡三芳町大字藤久保字北新埜855-403
495,埼玉県,その他,ゲームシティ川口,川口市栄町1-10-5,35.802497,139.725593,1,埼玉県川口市栄町1-10-5
455,埼玉県,その他,ウェアハウス草加,八潮市南後谷507番地,35.829809,139.820683,1,埼玉県八潮市南後谷507番地
454,埼玉県,その他,ウェアハウス三橋,さいたま市西区三橋6丁目955番地1,35.915881,139.595834,1,埼玉県さいたま市西区三橋6丁目955番地1
453,埼玉県,その他,ウェアハウス岩槻,さいたま市岩槻区加倉3丁目3番63号,35.941118,139.686082,1,埼玉県さいたま市岩槻区加倉3丁目3番63号
452,埼玉県,その他,ウェアハウス越谷,越谷市南荻島841番地1,35.911989,139.763734,1,埼玉県越谷市南荻島841番地1
427,埼玉県,イトーヨーカドー,イトーヨーカドー大宮宮原,さいたま市北区宮原町1-854-1,35.932099,139.622458,1,埼玉県さいたま市北区宮原町1-854-1
412,埼玉県,イトーヨーカドー,イトーヨーカドー春日部,春日部市中央1-13-1,35.979635,139.749636,1,埼玉県春日部市中央1-13-1
400,埼玉県,イトーヨーカドー,イトーヨーカドー久喜,久喜市久喜中央4-9-11,36.070943,139.674921,1,埼玉県久喜市久喜中央4-9-11
394,埼玉県,イトーヨーカドー,イトーヨーカドー浦和,さいたま市浦和区仲町1-7-1,35.86034,139.655492,1,埼玉県さいたま市浦和区仲町1-7-1
385,埼玉県,イトーヨーカドー,イトーヨーカドーアリオ鷲宮,久喜市久本寺谷田7-1,36.082599,139.656688,1,埼玉県久喜市久本寺谷田7-1
380,埼玉県,イトーヨーカドー,イトーヨーカドーアリオ川口,川口市並木元町1-79,35.806943,139.714274,1,埼玉県川口市並木元町1-79
377,埼玉県,イトーヨーカドー,イトーヨーカドーアリオ深谷,深谷市上柴町西4-2-14,36.18135,139.298879,1,埼玉県深谷市上柴町西4-2-14
376,埼玉県,イトーヨーカドー,イトーヨーカドーアリオ上尾,上尾市壱丁目367,35.961737,139.566036,1,埼玉県上尾市壱丁目367
332,埼玉県,その他,アミュージアム川口,川口市本町2-7-25ﾐｴﾙかわぐち3F,35.800963,139.727607,1,埼玉県川口市本町2-7-25ﾐｴﾙかわぐち3F
330,埼玉県,その他,アミュージアム新所沢パルコ,所沢市緑町1-2-1新所沢ﾊﾟﾙｺLet's館3F,35.804933,139.454942,1,埼玉県所沢市緑町1-2-1新所沢ﾊﾟﾙｺLet's館3F
329,埼玉県,その他,アミュージアム新座,新座市東北2-32-12ｲｵﾝ新座店3F,35.82019,139.574802,1,埼玉県新座市東北2-32-12ｲｵﾝ新座店3F
294,埼玉県,その他,アピナ川越,川越市泉町1-1 ｳﾆｸｽ南古谷ｼﾈﾏ棟1F,35.903088,139.513158,1,埼玉県川越市泉町1-1 ｳﾆｸｽ南古谷ｼﾈﾏ棟1F
292,埼玉県,その他,アピナ上尾,上尾市緑丘3-3-11-2 PAPA上尾ｼｮｯﾋﾟﾝｸﾞｱﾍﾞﾆｭｰﾌﾟﾘﾝｾｽ棟別棟,35.987412,139.579697,2,埼玉県上尾市緑丘3-3-11-2 PAPA上尾ｼｮｯﾋﾟﾝｸﾞｱﾍﾞﾆｭｰﾌﾟﾘﾝｾｽ棟別棟
282,埼玉県,その他,アピナ吉川美南,吉川市美南3-25-1ｲｵﾝﾀｳﾝ吉川美南,35.865925,139.859105,1,埼玉県吉川市美南3-25-1ｲｵﾝﾀｳﾝ吉川美南
268,埼玉県,その他,アピタ東松山,東松山市あずま町4-3,36.00544,139.41056,1,埼玉県東松山市あずま町4-3
230,埼玉県,その他,あそびライブラリー川口,川口市宮町18-9 ﾗﾗｶﾞｰﾃﾞﾝ川口店2F,35.804868,139.698217,1,埼玉県川口市宮町18-9 ﾗﾗｶﾞｰﾃﾞﾝ川口店2F
215,埼玉県,その他,THE 3RD PLANET フレスポ八潮,八潮市大瀬1-1-3 ﾌﾚｽﾎﾟ八潮3F,35.808564,139.844145,2,埼玉県八潮市大瀬1-1-3 ﾌﾚｽﾎﾟ八潮3F
186,埼玉県,モーリーファンタジー・PALO,PALO埼玉大井,ふじみ野市西鶴ｹ岡1-3-15 ﾋﾞﾊﾞﾓｰﾙ埼玉大井2F,35.8639,139.502232,1,埼玉県ふじみ野市西鶴ｹ岡1-3-15 ﾋﾞﾊﾞﾓｰﾙ埼玉大井2F
181,埼玉県,モーリーファンタジー・PALO,PALO熊谷,熊谷市本石2-135 ｲｵﾝ熊谷店3階,36.145491,139.378825,1,埼玉県熊谷市本石2-135 ｲｵﾝ熊谷店3階
170,埼玉県,その他,NICOPA幸手,幸手市上高野764ｴﾑｽﾞﾀｳﾝ幸手,36.068292,139.714913,1,埼玉県幸手市上高野764ｴﾑｽﾞﾀｳﾝ幸手
144,埼玉県,namco,namco熊谷店,熊谷市銀座2丁目97番地,36.139103,139.395005,1,埼玉県熊谷市銀座2丁目97番地
97,埼玉県,namco,namcoステラタウン店,さいたま市北区宮原町一丁目854-1ｽﾃﾗﾓｰﾙ3F,35.932925,139.62194,1,埼玉県さいたま市北区宮原町一丁目854-1ｽﾃﾗﾓｰﾙ3F
77,埼玉県,namco,namcoイオンレイクタウン店,越谷市ﾚｲｸﾀｳﾝ3丁目1番地1ｲｵﾝﾚｲｸﾀｳﾝmori3F3133区画,35.879884,139.827341,2,埼玉県越谷市ﾚｲｸﾀｳﾝ3丁目1番地1ｲｵﾝﾚｲｸﾀｳﾝmori3F3133区画
73,埼玉県,namco,namcoイオンモール北戸田店,戸田市美女木東1-3-1ｲｵﾝﾓｰﾙ北戸田,35.826337,139.652851,2,埼玉県戸田市美女木東1-3-1ｲｵﾝﾓｰﾙ北戸田
50,埼玉県,namco,namcoイオンタウンふじみ野店,ふじみ野市福岡2-1-6ｲｵﾝﾀｳﾝふじみ野3F,35.880606,139.521839,1,埼玉県ふじみ野市福岡2-1-6ｲｵﾝﾀｳﾝふじみ野3F
1558,千葉県,その他,GiGO八柱,松戸市日暮1-1-1 八柱駅第2ﾋﾞﾙ2F,35.791515,139.937743,1,千葉県松戸市日暮1-1-1 八柱駅第2ﾋﾞﾙ2F
1539,千葉県,その他,アミューズメントエース市川,市川市市川1-19-11 ｻﾝ市川ﾊｲﾂ1F,35.730972,139.906991,1,千葉県市川市市川1-19-11 ｻﾝ市川ﾊｲﾂ1F
1528,千葉県,その他,テクモピア船橋南口店,船橋市本町１−７−６ ドリーム船橋ビル３Ｆ,35.699056,139.98579,1,千葉県船橋市本町１−７−６ ドリーム船橋ビル３Ｆ
1520,千葉県,その他,テクモピア公津の杜,成田市公津の杜4-5-3 成田ユアエルム3F,35.760036,140.296736,1,千葉県成田市公津の杜4-5-3 成田ユアエルム3F
1513,千葉県,その他,アミュージアムフルルガーデン八千代,八千代市村上南1-3-1 フルルガーデン八千代３Ｆ,35.722321,140.117556,1,千葉県八千代市村上南1-3-1 フルルガーデン八千代３Ｆ
1479,千葉県,その他,スコナランド酒々井,印旛郡酒々井町本佐倉457-2トライアル酒々井店２Ｆ,35.72128,140.256849,1,千葉県印旛郡酒々井町本佐倉457-2トライアル酒々井店２Ｆ
1463,千葉県,その他,あそびのひろば柏の葉,柏市若柴175 ららぽｰと柏の葉店3F,35.893845,139.950808,1,千葉県柏市若柴175 ららぽｰと柏の葉店3F
1460,千葉県,その他,GiGOイオン新浦安ショッピングセンター,浦安市入船1-4-1 イオンスタイル新浦安4F,35.649228,139.914703,2,千葉県浦安市入船1-4-1 イオンスタイル新浦安4F
1397,千葉県,その他,ラウンドワンスタジアムアリオ柏,柏市大島田950-1 ｱﾘｵ柏,35.833467,140.012764,1,千葉県柏市大島田950-1 ｱﾘｵ柏
1391,千葉県,ヨドバシカメラ,ヨドバシカメラ千葉,千葉市中央区富士見2-3-1 B1,35.611646,140.116511,1,千葉県千葉市中央区富士見2-3-1 B1
1350,千葉県,モーリーファンタジー・PALO,モーリーファンタジー木更津,木更津市築地1-4 ｲｵﾝ2階,35.358435,139.902743,2,千葉県木更津市築地1-4 ｲｵﾝ2階
1342,千葉県,モーリーファンタジー・PALO,モーリーファンタジー幕張新都心,千葉市美浜区豊砂1-5 幕張新都心店ﾌｧﾐﾘｰﾓｰﾙ2階,35.657001,140.025889,2,千葉県千葉市美浜区豊砂1-5 幕張新都心店ﾌｧﾐﾘｰﾓｰﾙ2階
1306,千葉県,モーリーファンタジー・PALO,モーリーファンタジー八千代緑が丘,八千代市緑が丘2-1-3 ｲｵﾝ八千代緑が丘店4階,35.728066,140.073295,1,千葉県八千代市緑が丘2-1-3 ｲｵﾝ八千代緑が丘店4階
1304,千葉県,モーリーファンタジー・PALO,モーリーファンタジー八街,八街市文違301 ｲｵﾝ八街店1階,35.681183,140.312261,1,千葉県八街市文違301 ｲｵﾝ八街店1階
1301,千葉県,モーリーファンタジー・PALO,モーリーファンタジー柏,柏市豊町2-5-25 ｲｵﾝ柏店2階,35.851876,139.961928,1,千葉県柏市豊町2-5-25 ｲｵﾝ柏店2階
1287,千葉県,モーリーファンタジー・PALO,モーリーファンタジー南行徳,市川市南行徳2-20-25 SOCOLA南行徳店,35.668566,139.905274,1,千葉県市川市南行徳2-20-25 SOCOLA南行徳店
1277,千葉県,モーリーファンタジー・PALO,モーリーファンタジー東習志野,習志野市東習志野6-7-8 ﾏｯｸｽﾊﾞﾘｭ東習志野店1階,35.699309,140.066823,1,千葉県習志野市東習志野6-7-8 ﾏｯｸｽﾊﾞﾘｭ東習志野店1階
1253,千葉県,モーリーファンタジー・PALO,モーリーファンタジー津田沼,習志野市津田沼1-23-1 ｲｵﾝ津田沼店3階,35.690303,140.025027,2,千葉県習志野市津田沼1-23-1 ｲｵﾝ津田沼店3階
1243,千葉県,モーリーファンタジー・PALO,モーリーファンタジー長浦,袖ケ浦市長浦駅前1-7 ｲｵﾝ長浦店2F,35.450269,139.997657,1,千葉県袖ケ浦市長浦駅前1-7 ｲｵﾝ長浦店2F
1242,千葉県,モーリーファンタジー・PALO,モーリーファンタジー銚子,銚子市三崎町2-2660-1 ｲｵﾝ銚子店2階,35.710517,140.788025,1,千葉県銚子市三崎町2-2660-1 ｲｵﾝ銚子店2階
1205,千葉県,モーリーファンタジー・PALO,モーリーファンタジー船橋,船橋市山手1-1-8 ｲｵﾝ3階,35.712585,139.978117,1,千葉県船橋市山手1-1-8 ｲｵﾝ3階
1201,千葉県,モーリーファンタジー・PALO,モーリーファンタジー千葉ニュータウン,印西市中央北3-1-1 ｲｵﾝ千葉ﾆｭ-ﾀｳﾝ店3階,35.802935,140.113733,1,千葉県印西市中央北3-1-1 ｲｵﾝ千葉ﾆｭ-ﾀｳﾝ店3階
1189,千葉県,モーリーファンタジー・PALO,モーリーファンタジー成田,成田市ｳｲﾝｸﾞ土屋24 ｲｵﾝ成田店2階,35.795575,140.318706,1,千葉県成田市ｳｲﾝｸﾞ土屋24 ｲｵﾝ成田店2階
1140,千葉県,モーリーファンタジー・PALO,モーリーファンタジー市川妙典,市川市妙典5-3-1 ｲｵﾝ市川妙典店3階,35.692695,139.927549,1,千葉県市川市妙典5-3-1 ｲｵﾝ市川妙典店3階
1060,千葉県,モーリーファンタジー・PALO,モーリーファンタジー館山,館山市八幡545-1 ｲｵﾝ館山店1階,35.006061,139.861684,1,千葉県館山市八幡545-1 ｲｵﾝ館山店1階
1057,千葉県,モーリーファンタジー・PALO,モーリーファンタジー鎌取,千葉市緑区おゆみ野3-16 ｲｵﾝ鎌取店3階,35.561407,140.177586,1,千葉県千葉市緑区おゆみ野3-16 ｲｵﾝ鎌取店3階
1056,千葉県,モーリーファンタジー・PALO,モーリーファンタジー鎌ヶ谷,鎌ケ谷市新鎌ヶ谷2-7-1 ｲｵﾝ鎌ヶ谷店2階,35.778477,140.001074,1,千葉県鎌ケ谷市新鎌ヶ谷2-7-1 ｲｵﾝ鎌ヶ谷店2階
1020,千葉県,モーリーファンタジー・PALO,モーリーファンタジーユーカリが丘,佐倉市西ﾕｰｶﾘが丘6-12-3 ｲｵﾝﾀｳﾝ3F,35.726388,140.150575,1,千葉県佐倉市西ﾕｰｶﾘが丘6-12-3 ｲｵﾝﾀｳﾝ3F
1006,千葉県,モーリーファンタジー・PALO,モーリーファンタジーノア,野田市中根36-1 ｲｵﾝﾉｱ店1階,35.947649,139.875992,1,千葉県野田市中根36-1 ｲｵﾝﾉｱ店1階
991,千葉県,モーリーファンタジー・PALO,モーリーファンタジーおゆみ野,千葉市緑区おゆみ野南5-37-1 MAXﾊﾞﾘｭおゆみ野店2階,35.543822,140.172783,1,千葉県千葉市緑区おゆみ野南5-37-1 MAXﾊﾞﾘｭおゆみ野店2階
984,千葉県,モーリーファンタジー・PALO,モーリーファンタジーあすみが丘,千葉市緑区あすみが丘7-1 あすみが丘ﾌﾞﾗﾝﾆｭｰﾓｰﾙ2F,35.520848,140.267644,1,千葉県千葉市緑区あすみが丘7-1 あすみが丘ﾌﾞﾗﾝﾆｭｰﾓｰﾙ2F
971,千葉県,その他,マリンガーデンららぽーと船橋,船橋市浜町2丁目1番1号 ららぽｰとTOKYO-BAY西館3階ﾌﾟﾚﾋﾞﾏﾘﾝｶﾞｰﾃﾞﾝ,35.686139,139.990115,1,千葉県船橋市浜町2丁目1番1号 ららぽｰとTOKYO-BAY西館3階ﾌﾟﾚﾋﾞﾏﾘﾝｶﾞｰﾃﾞﾝ
957,千葉県,その他,プレビ南ASOBI諸島ワンズモール,千葉市稲毛区長沼町330番地50 ﾜﾝｽﾞﾓｰﾙ2F南ASOBI諸島,35.65663,140.117821,1,千葉県千葉市稲毛区長沼町330番地50 ﾜﾝｽﾞﾓｰﾙ2F南ASOBI諸島
955,千葉県,その他,プレビキテミテマツド,松戸市松戸1307-1 ｷﾃﾐﾃﾏﾂﾄﾞ店内6F南ASOBI諸島,35.782272,139.898692,1,千葉県松戸市松戸1307-1 ｷﾃﾐﾃﾏﾂﾄﾞ店内6F南ASOBI諸島
941,千葉県,その他,プラサカプコン富津,富津市青木一丁目5番地1 ｲｵﾝﾓｰﾙ富津2F,35.330455,139.845609,1,千葉県富津市青木一丁目5番地1 ｲｵﾝﾓｰﾙ富津2F
935,千葉県,その他,プラサカプコン成田,成田市ｳｲﾝｸﾞ土屋24 ｲｵﾝﾓｰﾙ成田2F,35.795575,140.318706,1,千葉県成田市ｳｲﾝｸﾞ土屋24 ｲｵﾝﾓｰﾙ成田2F
891,千葉県,ビックカメラ,ビックカメラ柏,柏市柏1-1-20 ｽｶｲﾌﾟﾗｻﾞ柏7F,35.8623,139.972171,1,千葉県柏市柏1-1-20 ｽｶｲﾌﾟﾗｻﾞ柏7F
865,千葉県,タイトー,ハロータイトー 流山,流山市流山9丁目8002号 ｲﾄｰﾖｰｶﾄﾞｰ流山店3F,35.850053,139.899697,1,千葉県流山市流山9丁目8002号 ｲﾄｰﾖｰｶﾄﾞｰ流山店3F
860,千葉県,その他,ハローズガーデン木更津,木更津市ほたる野4-2-48 ｱﾋﾟﾀ木更津店2F,35.375869,139.962807,1,千葉県木更津市ほたる野4-2-48 ｱﾋﾟﾀ木更津店2F
846,千葉県,その他,ハローズガーデン市原,市原市青柳北1-1 MEGAﾄﾞﾝ･ｷﾎｰﾃUNY市原店2F,35.51444,140.0661,1,千葉県市原市青柳北1-1 MEGAﾄﾞﾝ･ｷﾎｰﾃUNY市原店2F
831,千葉県,その他,パレパレ稲毛長沼,千葉市稲毛区長沼原町731-17 ﾌﾚｽﾎﾟ稲毛A2棟-4,35.656956,140.12833,1,千葉県千葉市稲毛区長沼原町731-17 ﾌﾚｽﾎﾟ稲毛A2棟-4
829,千葉県,その他,パラボランド東金,東金市東岩崎8-10ｻﾝﾍﾋﾟｱ3F,35.558602,140.364798,1,千葉県東金市東岩崎8-10ｻﾝﾍﾋﾟｱ3F
811,千葉県,その他,トムソーヤの仲間たちアリオ市原,市原市更級4丁目3番2ｲﾄｰﾖｰｶﾄﾞｰｱﾘｵ市原2F,35.508066,140.101435,1,千葉県市原市更級4丁目3番2ｲﾄｰﾖｰｶﾄﾞｰｱﾘｵ市原2F
789,千葉県,その他,トイザらス松戸,松戸市二ﾂ木1781-2ﾌﾟﾁﾓｰﾙ二ﾂ木2F,35.817373,139.925825,1,千葉県松戸市二ﾂ木1781-2ﾌﾟﾁﾓｰﾙ二ﾂ木2F
787,千葉県,その他,トイザらス市川,市川市鬼高1-1-1ﾆｯｹｺﾙﾄﾝﾌﾟﾗｻﾞｲｰｽﾄ館2F,35.716312,139.933386,1,千葉県市川市鬼高1-1-1ﾆｯｹｺﾙﾄﾝﾌﾟﾗｻﾞｲｰｽﾄ館2F
766,千葉県,タイトー,タイトーステーション 茂原アスモ,茂原市高師1735 茂原ｼｮｯﾋﾟﾝｸﾞﾌﾟﾗｻﾞｱｽﾓ2F,35.435081,140.288007,1,千葉県茂原市高師1735 茂原ｼｮｯﾋﾟﾝｸﾞﾌﾟﾗｻﾞｱｽﾓ2F
764,千葉県,タイトー,タイトーステーション 柏,柏市柏2-3-1,35.861517,139.972686,2,千葉県柏市柏2-3-1
754,千葉県,タイトー,タイトーステーション 船橋,船橋市本町1丁目6-1,35.699881,139.986003,2,千葉県船橋市本町1丁目6-1
725,千葉県,タイトー,タイトーステーション 旭サンモール,旭市ｲ-2676-1 ｻﾝﾓｰﾙ3F,35.724784,140.659382,1,千葉県旭市ｲ-2676-1 ｻﾝﾓｰﾙ3F
715,千葉県,タイトー,タイトーステーション セブンパークアリオ柏2号,柏市大島田1-6-1 ｾﾌﾞﾝﾊﾟｰｸｱﾘｵ柏3F,35.833449,140.012913,1,千葉県柏市大島田1-6-1 ｾﾌﾞﾝﾊﾟｰｸｱﾘｵ柏3F
705,千葉県,タイトー,タイトーステーション アリオ蘇我,千葉市中央区川崎町52-7 ｱﾘｵ蘇我2F,35.588237,140.122471,1,千葉県千葉市中央区川崎町52-7 ｱﾘｵ蘇我2F
700,千葉県,その他,タイトーFステーション市川妙典,市川市妙典4-1-1 ｲｵﾝ市川妙典店2番街2F,35.692538,139.926679,1,千葉県市川市妙典4-1-1 ｲｵﾝ市川妙典店2番街2F
672,千葉県,その他,タイトーFステーション ボンベルタ成田,成田市赤坂2-1-10 ﾎﾞﾝﾍﾞﾙﾀ成田3階,35.777965,140.290276,1,千葉県成田市赤坂2-1-10 ﾎﾞﾝﾍﾞﾙﾀ成田3階
664,千葉県,その他,タイトーFステーションイオン新松戸,松戸市新松戸3-2-21 ｲｵﾝ新松戸店4階,35.825093,139.915631,1,千葉県松戸市新松戸3-2-21 ｲｵﾝ新松戸店4階
652,千葉県,その他,ソユープレイランドソピア 幕張,千葉市花見川区幕張町四丁目417-25ｲﾄｰﾖｰｶﾄﾞｰ幕張店2F,35.656315,140.051039,1,千葉県千葉市花見川区幕張町四丁目417-25ｲﾄｰﾖｰｶﾄﾞｰ幕張店2F
636,千葉県,その他,ソユーゲームフィールド 木更津,木更津市築地1番4ｲｵﾝﾓｰﾙ木更津2F,35.358435,139.902743,1,千葉県木更津市築地1番4ｲｵﾝﾓｰﾙ木更津2F
615,千葉県,その他,GiGO幕張,千葉市美浜区ひび野1-8 ﾒｯｾ･ｱﾐｭｰｽﾞ･ﾓｰﾙ1F,35.64978,140.042342,1,千葉県千葉市美浜区ひび野1-8 ﾒｯｾ･ｱﾐｭｰｽﾞ･ﾓｰﾙ1F
592,千葉県,その他,セガ松戸,松戸市日暮1-1-1 八柱駅第2ﾋﾞﾙ2F,35.791344,139.937771,1,千葉県松戸市日暮1-1-1 八柱駅第2ﾋﾞﾙ2F
581,千葉県,その他,セガ旭,旭市二3150-1,35.723546,140.639541,1,千葉県旭市二3150-1
563,千葉県,その他,セガららぽーとTOKYO-BAY,船橋市浜町2-1-1 北館1FE122区画,35.679301,139.989818,1,千葉県船橋市浜町2-1-1 北館1FE122区画
552,千葉県,その他,セガイオンモール銚子,銚子市三崎町2-2660-1 ｲｵﾝﾓｰﾙ銚子2F,35.710517,140.788025,1,千葉県銚子市三崎町2-2660-1 ｲｵﾝﾓｰﾙ銚子2F
545,千葉県,その他,GiGOフェスティバルウォーク蘇我,千葉市中央区川崎町51-1 ﾊｰﾊﾞｰｼﾃｨ蘇我ﾌｪｽﾃｨﾊﾞﾙｳｫｰｸｱﾐｭｰｽﾞﾒﾝﾄ棟1F,35.591962,140.118384,1,千葉県千葉市中央区川崎町51-1 ﾊｰﾊﾞｰｼﾃｨ蘇我ﾌｪｽﾃｨﾊﾞﾙｳｫｰｸｱﾐｭｰｽﾞﾒﾝﾄ棟1F
535,千葉県,その他,シルクハット津田沼,習志野市津田沼1-2-1十三ﾋﾞﾙ地下1階,35.690343,140.022195,1,千葉県習志野市津田沼1-2-1十三ﾋﾞﾙ地下1階
526,千葉県,その他,ジョーシン市川大野,市川市大野町1-19-1,35.74729,139.941465,1,千葉県市川市大野町1-19-1
509,千葉県,その他,ゲームランド津田沼,習志野市津田沼1-23-1 ｲｵﾝﾓｰﾙ津田沼2F,35.690266,140.024906,1,千葉県習志野市津田沼1-23-1 ｲｵﾝﾓｰﾙ津田沼2F
507,千葉県,その他,ゲームランド千葉NT,印西市中央北3丁目2番 ｲｵﾝﾓｰﾙ千葉ﾆｭｰﾀｳﾝﾓｰﾙ棟3階,35.802211,140.112095,1,千葉県印西市中央北3丁目2番 ｲｵﾝﾓｰﾙ千葉ﾆｭｰﾀｳﾝﾓｰﾙ棟3階
497,千葉県,その他,ゲームスクエア茂原,茂原市六ﾂ野2785-1 ﾗｲﾌｶﾞｰﾃﾞﾝ茂原内,35.430919,140.309896,2,千葉県茂原市六ﾂ野2785-1 ﾗｲﾌｶﾞｰﾃﾞﾝ茂原内
487,千葉県,その他,クラブセガ稲毛オーツーパーク,千葉市稲毛区園生町380-1,35.650942,140.118513,1,千葉県千葉市稲毛区園生町380-1
485,千葉県,その他,キャッツアイ八千代,八千代市吉橋1851 ism緑が丘,35.733528,140.072505,1,千葉県八千代市吉橋1851 ism緑が丘
483,千葉県,その他,キャッツアイ東千葉,千葉市中央区祐光3丁目2番1号,35.619579,140.127054,1,千葉県千葉市中央区祐光3丁目2番1号
423,千葉県,イトーヨーカドー,イトーヨーカドー船橋,船橋市本町7-6-1,35.703253,139.985046,1,千葉県船橋市本町7-6-1
416,千葉県,イトーヨーカドー,イトーヨーカドー松戸,松戸市松戸1149,35.783792,139.902381,1,千葉県松戸市松戸1149
411,千葉県,イトーヨーカドー,イトーヨーカドー四街道,四街道市中央5,35.667589,140.165561,1,千葉県四街道市中央5
398,千葉県,イトーヨーカドー,イトーヨーカドー我孫子,我孫子市我孫子4-11-1,35.876737,140.008981,1,千葉県我孫子市我孫子4-11-1
387,千葉県,イトーヨーカドー,イトーヨーカドーセブンパークアリオ柏,柏市大島田950-1,35.833467,140.012764,1,千葉県柏市大島田950-1
381,千葉県,イトーヨーカドー,イトーヨーカドーアリオ蘇我,千葉市中央区川崎町52-7,35.587746,140.122481,1,千葉県千葉市中央区川崎町52-7
359,千葉県,その他,イオン高根木戸,船橋市習志野台1-1-3,35.727111,140.035206,1,千葉県船橋市習志野台1-1-3
356,千葉県,その他,イオンタウンユーカリが丘ゲームコーナー,佐倉市西ﾕｰｶﾘが丘6丁目12番地の3,35.726388,140.150575,1,千葉県佐倉市西ﾕｰｶﾘが丘6丁目12番地の3
338,千葉県,その他,アミュージアム茂原,茂原市高師1619-1,35.436831,140.284429,1,千葉県茂原市高師1619-1
320,千葉県,その他,アミュージアム稲毛,千葉市稲毛区小仲台1-4-20ｲｵﾝ稲毛店2F,35.636656,140.09501,1,千葉県千葉市稲毛区小仲台1-4-20ｲｵﾝ稲毛店2F
310,千葉県,その他,アピナ野田七光台,野田市七光台4-2 ｲｵﾝﾀｳﾝ野田七光台内,35.981808,139.851648,1,千葉県野田市七光台4-2 ｲｵﾝﾀｳﾝ野田七光台内
287,千葉県,その他,アピナ市原,市原市更級4丁目2番1号 ｱｸﾛｽﾌﾟﾗｻﾞ市原更級F棟1階,35.51037,140.101655,1,千葉県市原市更級4丁目2番1号 ｱｸﾛｽﾌﾟﾗｻﾞ市原更級F棟1階
199,千葉県,モーリーファンタジー・PALO,PALO柏,柏市豊町2-5-25 ｲｵﾝ3F,35.851876,139.961928,1,千葉県柏市豊町2-5-25 ｲｵﾝ3F
187,千葉県,モーリーファンタジー・PALO,PALO市川,市川市鬼高1-1-1 ﾆｯｹｺﾙﾄﾝﾌﾟﾗｻﾞ2F,35.716312,139.933386,1,千葉県市川市鬼高1-1-1 ﾆｯｹｺﾙﾄﾝﾌﾟﾗｻﾞ2F
168,千葉県,その他,NICOPAマリンピア,千葉市美浜区高洲3-13-1 ﾏﾘﾝﾋﾟｱ4階,35.627375,140.072126,1,千葉県千葉市美浜区高洲3-13-1 ﾏﾘﾝﾋﾟｱ4階
162,千葉県,その他,NICOPAアクロスモール新鎌ヶ谷,鎌ケ谷市新鎌ヶ谷2-12-1 ｱｸﾛｽﾓｰﾙ新鎌ヶ谷2F,35.780987,140.001294,1,千葉県鎌ケ谷市新鎌ヶ谷2-12-1 ｱｸﾛｽﾓｰﾙ新鎌ヶ谷2F
161,千葉県,namco,namco流山おおたかの森S・C店,流山市おおたかの森南一丁目5番地の1流山おおたかの森S･C3F,35.870266,139.926599,1,千葉県流山市おおたかの森南一丁目5番地の1流山おおたかの森S･C3F
148,千葉県,namco,namco松戸店,松戸市松戸1230番地1ﾋﾟｱｻﾞ松戸1F,35.78362,139.900897,2,千葉県松戸市松戸1230番地1ﾋﾟｱｻﾞ松戸1F
99,千葉県,namco,namcoテラスモール松戸店,松戸市八ヶ崎2-8-1ﾃﾗｽﾓｰﾙ松戸店3F,35.817824,139.934019,2,千葉県松戸市八ヶ崎2-8-1ﾃﾗｽﾓｰﾙ松戸店3F
96,千葉県,namco,namcoシェラトントーキョーベイ店,浦安市舞浜1-9,35.62569,139.876887,1,千葉県浦安市舞浜1-9
74,千葉県,namco,namcoイオンモール幕張新都心店,千葉市美浜区豊砂1-1ｲｵﾝﾓｰﾙ幕張新都心ｸﾞﾗﾝﾄﾞﾓｰﾙ3階,35.653865,140.03158,1,千葉県千葉市美浜区豊砂1-1ｲｵﾝﾓｰﾙ幕張新都心ｸﾞﾗﾝﾄﾞﾓｰﾙ3階
70,千葉県,namco,namcoイオンモール八千代緑が丘店,八千代市緑ヶ丘2-1-3ｲｵﾝﾓｰﾙ八千代緑ヶ丘4F,35.727868,140.07317,1,千葉県八千代市緑ヶ丘2-1-3ｲｵﾝﾓｰﾙ八千代緑ヶ丘4F
63,千葉県,namco,namcoイオンモール船橋店,船橋市山手1丁目1番8号,35.712585,139.978117,1,千葉県船橋市山手1丁目1番8号
33,千葉県,その他,Morisia AMUSE PARK(モリシア),習志野市谷津1-16-1ﾓﾘｼｱ津田沼2F,35.689533,140.019094,2,千葉県習志野市谷津1-16-1ﾓﾘｼｱ津田沼2F
23,千葉県,その他,LABI津田沼,習志野市谷津1-16-1ﾓﾘｼｱ津田沼3F,35.689533,140.019094,1,千葉県習志野市谷津1-16-1ﾓﾘｼｱ津田沼3F
10,千葉県,その他,Game Field 千城台,千葉市若葉区千城台北3丁目21-1ｲｺｱｽ千城台3F,35.622976,140.189036,1,千葉県千葉市若葉区千城台北3丁目21-1ｲｺｱｽ千城台3F
1585,東京都,モーリーファンタジー・PALO,モーリーファンタジー東雲,江東区東雲１丁目９?１０,35.648608,139.802095,1,東京都江東区東雲１丁目９?１０
1581,東京都,その他,SoLaDo竹下通りプリマジスポット,渋谷区神宮前1-8-2　SoLaDo竹下通り1階,35.67057,139.706095,2,東京都渋谷区神宮前1-8-2　SoLaDo竹下通り1階
1568,東京都,その他,西友清瀬,清瀬市元町1-4-5,35.77332,139.520491,1,東京都清瀬市元町1-4-5
1567,東京都,その他,西友荻窪,杉並区荻1-9-1 ﾀｳﾝｾﾌﾞﾝ,35.705241,139.619674,1,東京都杉並区荻1-9-1 ﾀｳﾝｾﾌﾞﾝ
1560,東京都,その他,トイザラス昭島,昭島市田中町573-1-4 ﾓﾘﾀｳﾝ内,35.713851,139.363616,1,東京都昭島市田中町573-1-4 ﾓﾘﾀｳﾝ内
1544,東京都,イトーヨーカドー,イトーヨーカドー高砂,葛飾区高砂3-12-5,35.750945,139.868132,1,東京都葛飾区高砂3-12-5
1542,東京都,その他,イオン練馬,練馬区光が丘5-1-1,35.759118,139.628844,1,東京都練馬区光が丘5-1-1
1533,東京都,namco,namco池袋店,豊島区東池袋1-22-10 ヒューマックスパビリオン池袋サンシャイン60通り 1F,35.729808,139.715782,1,東京都豊島区東池袋1-22-10 ヒューマックスパビリオン池袋サンシャイン60通り 1F
1511,東京都,その他,GiGO 高田馬場,新宿区高田馬場4-7-5 ,35.713602,139.703722,1,東京都新宿区高田馬場4-7-5 
1499,東京都,その他,GiGO 船堀,江戸川区船堀１−６−１１,35.68488,139.863931,1,東京都江戸川区船堀１−６−１１
1461,東京都,その他,宝島瑞江,江戸川区瑞江2-1-2ﾄﾞﾝ･ｷﾎｰﾃﾗﾊﾟｰｸ瑞江店4F,35.692796,139.89673,1,東京都江戸川区瑞江2-1-2ﾄﾞﾝ･ｷﾎｰﾃﾗﾊﾟｰｸ瑞江店4F
1452,東京都,その他,博品館TOYPARK銀座本館,中央区銀座8-8-11,35.667834,139.761037,1,東京都中央区銀座8-8-11
1451,東京都,その他,東京レジャーランドお台場,港区台場1-7-1ｱｸｱｼﾃｨお台場4F4A区画,35.627948,139.773834,1,東京都港区台場1-7-1ｱｸｱｼﾃｨお台場4F4A区画
1446,東京都,その他,西友練馬Part2,練馬区練馬1-3-10,35.737754,139.653866,1,東京都練馬区練馬1-3-10
1444,東京都,その他,西友調布,調布市小島町1-10-1,35.653619,139.543939,1,東京都調布市小島町1-10-1
1443,東京都,その他,西友青井,足立区青井3-1-1,35.77008,139.81723,1,東京都足立区青井3-1-1
1442,東京都,その他,西友三軒茶屋,世田谷区太子堂4-24-8,35.644599,139.670322,1,東京都世田谷区太子堂4-24-8
1440,東京都,その他,西友阿佐ヶ谷,杉並区阿佐谷北1-5-6,35.705632,139.636872,1,東京都杉並区阿佐谷北1-5-6
1419,東京都,その他,レジャーランド秋葉原2号,千代田区外神田4-3-3ﾐﾅﾐﾋﾞﾙ6･7F,35.700741,139.771949,1,東京都千代田区外神田4-3-3ﾐﾅﾐﾋﾞﾙ6･7F
1418,東京都,その他,レジャーランド秋葉原1号,千代田区外神田1-9-5,35.698821,139.770153,1,東京都千代田区外神田1-9-5
1398,東京都,その他,ラウンドワンスタジアムダイバーシティ東京プラザ,江東区青海一丁目1番10号 ﾀﾞｲﾊﾞｰｼﾃｨ東京ﾌﾟﾗｻﾞ6階,35.625186,139.775631,1,東京都江東区青海一丁目1番10号 ﾀﾞｲﾊﾞｰｼﾃｨ東京ﾌﾟﾗｻﾞ6階
1395,東京都,その他,ライフ篠崎,江戸川区篠崎町7-27-1,35.706026,139.903766,1,東京都江戸川区篠崎町7-27-1
1394,東京都,その他,ライフ経堂,世田谷区経堂5-32-6,35.648167,139.632169,1,東京都世田谷区経堂5-32-6
1392,東京都,ヨドバシカメラ,ヨドバシカメラ八王子,八王子市東町7-4玩具売場,35.657971,139.339658,1,東京都八王子市東町7-4玩具売場
1389,東京都,ヨドバシカメラ,ヨドバシカメラ新宿西口,新宿区西新宿1-11-1 ﾎﾋﾞｰおもちゃ館,35.689517,139.697619,2,東京都新宿区西新宿1-11-1 ﾎﾋﾞｰおもちゃ館
1387,東京都,ヨドバシカメラ,ヨドバシカメラマルチメディア新宿東口,新宿区新宿3-26-7 別館4F,35.691689,139.701823,1,東京都新宿区新宿3-26-7 別館4F
1384,東京都,ヨドバシカメラ,ヨドバシカメラマルチメディア町田駅前,町田市原町田1-1-11玩具売場,35.542357,139.444351,1,東京都町田市原町田1-1-11玩具売場
1381,東京都,ヨドバシカメラ,ヨドバシカメラマルチメディア上野,台東区上野4丁目10-10 2号館3F,35.711164,139.774465,1,東京都台東区上野4丁目10-10 2号館3F
1378,東京都,ヨドバシカメラ,ヨドバシカメラマルチメディア錦糸町,墨田区江東橋3丁目14-5ﾃﾙﾐﾅ1F-3F,35.696439,139.814223,1,東京都墨田区江東橋3丁目14-5ﾃﾙﾐﾅ1F-3F
1372,東京都,ヨドバシカメラ,ヨドバシカメラマルチメディアAkiba,千代田区神田花岡町1番地1 6F,35.698971,139.774683,2,東京都千代田区神田花岡町1番地1 6F
1371,東京都,ヨドバシカメラ,ヨドバシカメラ マルチメディア吉祥寺,武蔵野市吉祥寺本町1-19-1 5F,35.704697,139.58151,1,東京都武蔵野市吉祥寺本町1-19-1 5F
1316,東京都,モーリーファンタジー・PALO,モーリーファンタジー品川シーサイド,品川区東品川4-12-5 ｲｵﾝ品川ｼｰｻｲﾄﾞ店2階,35.610994,139.749077,1,東京都品川区東品川4-12-5 ｲｵﾝ品川ｼｰｻｲﾄﾞ店2階
1311,東京都,モーリーファンタジー・PALO,モーリーファンタジー板橋,板橋区徳丸2-6-1 ｲｵﾝ板橋店3階,35.770091,139.661078,1,東京都板橋区徳丸2-6-1 ｲｵﾝ板橋店3階
1294,東京都,モーリーファンタジー・PALO,モーリーファンタジー日の出,西多摩郡日の出町大字平井字三吉野桜木237-3 ｲｵﾝ日の出3階,35.741322,139.277211,1,東京都西多摩郡日の出町大字平井字三吉野桜木237-3 ｲｵﾝ日の出3階
1288,東京都,モーリーファンタジー・PALO,モーリーファンタジー南砂,江東区南砂6-7-15 ｲｵﾝ南砂店3階,35.671711,139.835723,1,東京都江東区南砂6-7-15 ｲｵﾝ南砂店3階
1273,東京都,モーリーファンタジー・PALO,モーリーファンタジー東久留米,東久留米市南沢5-17 ｲｵﾝﾓｰﾙ3F,35.745067,139.527522,1,東京都東久留米市南沢5-17 ｲｵﾝﾓｰﾙ3F
1215,東京都,モーリーファンタジー・PALO,モーリーファンタジー多摩平の森,日野市多摩平2-4-1 ｲｵﾝﾓｰﾙ3階,35.661167,139.381045,1,東京都日野市多摩平2-4-1 ｲｵﾝﾓｰﾙ3階
1160,東京都,モーリーファンタジー・PALO,モーリーファンタジー小平,小平市小川東町2-12-1 ﾀﾞｲｴｰ小平店2F,35.74293,139.467089,1,東京都小平市小川東町2-12-1 ﾀﾞｲｴｰ小平店2F
1018,東京都,モーリーファンタジー・PALO,モーリーファンタジーむさし村山,武蔵村山市榎1-1-3 ｲｵﾝむさし村山店3階,35.746352,139.384813,1,東京都武蔵村山市榎1-1-3 ｲｵﾝむさし村山店3階
994,東京都,モーリーファンタジー・PALO,モーリーファンタジークルネ,東久留米市野火止1-3-3 ｸﾙﾈ店1F,35.759503,139.51148,1,東京都東久留米市野火止1-3-3 ｸﾙﾈ店1F
946,東京都,プリズムストーン,プリズムストーン東京駅店,千代田区丸の内1-9-1 東京駅一番街B1F東京ｷｬﾗｸﾀｰｽﾄﾘｰﾄ内,35.682289,139.76849,2,東京都千代田区丸の内1-9-1 東京駅一番街B1F東京ｷｬﾗｸﾀｰｽﾄﾘｰﾄ内
942,東京都,その他,プラサカプコン府中,府中市宮町1-41-2 ﾐｯﾃﾝ府中7階,35.670801,139.479886,1,東京都府中市宮町1-41-2 ﾐｯﾃﾝ府中7階
938,東京都,その他,プラサカプコン池袋,東京都豊島区東池袋1-30-1 ｸﾞﾗﾝﾄﾞｽｹｰﾌﾟ池袋3F,35.730945,139.716429,2,東京都東京都豊島区東池袋1-30-1 ｸﾞﾗﾝﾄﾞｽｹｰﾌﾟ池袋3F
932,東京都,その他,プラサカプコン吉祥寺,武蔵野市吉祥寺本町1丁目10-1 いなりやﾋﾞﾙB1F,35.705361,139.579098,2,東京都武蔵野市吉祥寺本町1丁目10-1 いなりやﾋﾞﾙB1F
897,東京都,ビックカメラ,ビックロビックカメラ新宿東口,新宿区新宿3-29-1 6F,35.69138,139.702996,1,東京都新宿区新宿3-29-1 6F
896,東京都,ビックカメラ,ビックカメラ立川,立川市曙町2-12-2 5F,35.699298,139.414853,1,東京都立川市曙町2-12-2 5F
895,東京都,ビックカメラ,ビックカメラ有楽町,千代田区有楽町1-11-1 4F,35.67536,139.762897,2,東京都千代田区有楽町1-11-1 4F
889,東京都,ビックカメラ,ビックカメラ池袋本店,豊島区東池袋1-41-5 7F,35.731693,139.712907,1,東京都豊島区東池袋1-41-5 7F
888,東京都,ビックカメラ,ビックカメラ池袋西口,豊島区西池袋1-16-3 7F,35.730832,139.708954,1,東京都豊島区西池袋1-16-3 7F
885,東京都,ビックカメラ,ビックカメラ赤坂見附駅,港区赤坂3-1-6 8F,35.677038,139.736768,1,東京都港区赤坂3-1-6 8F
883,東京都,ビックカメラ,ビックカメラ新宿西口,新宿区西新宿1-5-1 西新宿ﾊﾙｸ5F,35.692513,139.698556,1,東京都新宿区西新宿1-5-1 西新宿ﾊﾙｸ5F
880,東京都,ビックカメラ,ビックカメラ渋谷東口,渋谷区渋谷1-24-12 5F,35.659985,139.701951,1,東京都渋谷区渋谷1-24-12 5F
876,東京都,ビックカメラ,ビックカメラ京王調布,調布市小島町2-48-6 ﾄﾘｴ京王調布3F,35.652114,139.543202,1,東京都調布市小島町2-48-6 ﾄﾘｴ京王調布3F
873,東京都,ビックカメラ,ビックカメラJR八王子,八王子市旭町1-17 ｾﾚｵ八王子南館5F,35.654604,139.338906,1,東京都八王子市旭町1-17 ｾﾚｵ八王子南館5F
850,東京都,その他,ハローズガーデン新糀谷,大田区萩中2-12-5 ﾏﾙｴﾂ新糀谷店2F,35.551004,139.73287,1,東京都大田区萩中2-12-5 ﾏﾙｴﾂ新糀谷店2F
836,東京都,その他,ハローズガーデンあきる野とうきゅう,あきる野市秋川1-17-1 あきる野東急4F,35.730736,139.287337,1,東京都あきる野市秋川1-17-1 あきる野東急4F
833,東京都,その他,ハローズガーデン モラモラ墨田文花,墨田区文花1-31-9 ｵﾘﾝﾋﾟｯｸ墨田文花店1F,35.706948,139.82362,1,東京都墨田区文花1-31-9 ｵﾘﾝﾋﾟｯｸ墨田文花店1F
821,東京都,その他,GiGO渋谷宮益坂,渋谷区渋谷1-14-14 EST1F,35.65992,139.702605,1,東京都渋谷区渋谷1-14-14 EST1F
815,東京都,その他,ドラマ八王子高倉,八王子市東京都八王子市高倉町55-4,35.665081,139.36649,1,東京都八王子市東京都八王子市高倉町55-4
778,東京都,その他,トイザらスお台場,港区台場1-7-1ｱｸｱｼﾃｨお台場1F,35.627948,139.773834,1,東京都港区台場1-7-1ｱｸｱｼﾃｨお台場1F
772,東京都,その他,タワーレコード新宿,新宿区新宿3-37-1ﾌﾗｯｸﾞｽ7-10F,35.68986,139.701588,1,東京都新宿区新宿3-37-1ﾌﾗｯｸﾞｽ7-10F
768,東京都,タイトー,タイトーステーション 立川北口,立川市曙町2-4-5 OSJTACHIKAWA,35.69919,139.412117,2,東京都立川市曙町2-4-5 OSJTACHIKAWA
760,東京都,タイトー,タイトーステーション 町田,町田市原町田6-21-23 松山ﾋﾞﾙ1階,35.542744,139.448467,2,東京都町田市原町田6-21-23 松山ﾋﾞﾙ1階
759,東京都,タイトー,タイトーステーション 池袋西口,豊島区西池袋1-15-9,35.730522,139.709724,2,東京都豊島区西池袋1-15-9
755,東京都,タイトー,タイトーステーション 多摩センター,多摩市落合1-45-1 丘の上ﾊﾟﾃｨｵ内,35.623228,139.426388,1,東京都多摩市落合1-45-1 丘の上ﾊﾟﾃｨｵ内
753,東京都,タイトー,タイトーステーション 浅草,台東区浅草1-27-5 ROXDOME1F,35.712608,139.793914,1,東京都台東区浅草1-27-5 ROXDOME1F
743,東京都,タイトー,タイトーステーション 新宿南口ゲームワールド,新宿区新宿3-35-8,35.689855,139.702264,2,東京都新宿区新宿3-35-8
742,東京都,タイトー,タイトーステーション 新宿東口,新宿区新宿3-22-7 指田ﾋﾞﾙ,35.693217,139.701468,2,東京都新宿区新宿3-22-7 指田ﾋﾞﾙ
739,東京都,タイトー,タイトーステーション 渋谷,渋谷区渋谷1-24-12 渋谷東映ﾌﾟﾗｻﾞ,35.659985,139.701951,2,東京都渋谷区渋谷1-24-12 渋谷東映ﾌﾟﾗｻﾞ
736,東京都,タイトー,タイトーステーション 国分寺,国分寺市本町三丁目5番11号,35.70146,139.480053,2,東京都国分寺市本町三丁目5番11号
730,東京都,タイトー,タイトーステーション 錦糸町楽天地,墨田区江東橋4-27-14 楽天地ﾋﾞﾙ地下1階,35.69631,139.815865,1,東京都墨田区江東橋4-27-14 楽天地ﾋﾞﾙ地下1階
702,東京都,タイトー,タイトーステーション BIGFUN平和島,大田区平和島1-1-1 BIGFUN平和島3F,35.584341,139.740798,1,東京都大田区平和島1-1-1 BIGFUN平和島3F
701,東京都,タイトー,タイトーステーション BIGBOX高田馬場,新宿区高田馬場1-35-3 BIGBOX6F,35.712595,139.704288,2,東京都新宿区高田馬場1-35-3 BIGBOX6F
696,東京都,その他,タイトーFステーションオリナス錦糸町,墨田区太平4-1-2 ｵﾘﾅｽﾓｰﾙ地下1F,35.700727,139.81594,1,東京都墨田区太平4-1-2 ｵﾘﾅｽﾓｰﾙ地下1F
692,東京都,その他,タイトーFステーション 南大沢,八王子市南大沢2-3 FAB南大沢2F,35.614657,139.380309,1,東京都八王子市南大沢2-3 FAB南大沢2F
669,東京都,その他,タイトーFステーション ダイエー武蔵村山,武蔵村山市伊奈平3-36-1 ﾀﾞｲｴｰ武蔵村山店2階,35.735703,139.3789,1,東京都武蔵村山市伊奈平3-36-1 ﾀﾞｲｴｰ武蔵村山店2階
655,東京都,その他,ダイエー西台,板橋区蓮根3-8-12,35.786403,139.674788,1,東京都板橋区蓮根3-8-12
651,東京都,その他,ソユープレイランドソピア 八王子,八王子市狭間町1462-1ｲﾄｰﾖｰｶﾄﾞｰ八王子店3F,35.637843,139.293554,1,東京都八王子市狭間町1462-1ｲﾄｰﾖｰｶﾄﾞｰ八王子店3F
650,東京都,その他,ソユープレイランドソピア 南大沢,八王子市南大沢二丁目28-1ｲﾄｰﾖｰｶﾄﾞｰ南大沢店3F,35.613166,139.379419,1,東京都八王子市南大沢二丁目28-1ｲﾄｰﾖｰｶﾄﾞｰ南大沢店3F
643,東京都,その他,ソユーザウルスワールド 大森,大田区大森北二丁目13-1ｲﾄｰﾖｰｶﾄﾞｰ大森店3F,35.586558,139.732924,2,東京都大田区大森北二丁目13-1ｲﾄｰﾖｰｶﾄﾞｰ大森店3F
610,東京都,その他,GiGO南町田グランベリーパークキッズディスカバリー,町田市鶴間3丁目4-1 キッズディスカバリー2階E201区画,35.508779,139.470088,1,東京都町田市鶴間3丁目4-1 キッズディスカバリー2階E201区画
608,東京都,その他,GiGO東京ドームシティ,文京区後楽1-3-61,35.703983,139.753688,2,東京都文京区後楽1-3-61
607,東京都,その他,セガ竹の塚,足立区竹の塚6丁目8番6号 ﾋﾟｰくんPlaza-B,35.794743,139.792389,1,東京都足立区竹の塚6丁目8番6号 ﾋﾟｰくんPlaza-B
601,東京都,その他,セガ赤羽駅前,北区赤羽1-2-4,35.778305,139.721487,1,東京都北区赤羽1-2-4
587,東京都,その他,GiGO秋葉原3号館,千代田区外神田1-11-11 外神田1丁目ﾋﾞﾙﾃﾞｨﾝｸﾞ,35.699246,139.770939,2,東京都千代田区外神田1-11-11 外神田1丁目ﾋﾞﾙﾃﾞｨﾝｸﾞ
576,東京都,その他,GiGO府中,府中市西原町1-6-2 ﾌﾚｽﾎﾟ府中2F,35.682397,139.460386,1,東京都府中市西原町1-6-2 ﾌﾚｽﾎﾟ府中2F
568,東京都,その他,セガワールド葛西,江戸川区東葛西9-3-3 イトーヨーカドー3F,35.651932,139.883049,1,東京都江戸川区東葛西9-3-3 イトーヨーカドー3F
550,東京都,その他,GiGO イオンモールむさし村山,武蔵村山市榎1-1-3　イオンモールむさし村山2F,35.746352,139.384813,1,東京都武蔵村山市榎1-1-3　イオンモールむさし村山2F
536,東京都,その他,シルクハット八王子,八王子市旭町2-5八王子ﾂｲﾝﾀﾜｰﾋﾞﾙ3階,35.656412,139.33843,1,東京都八王子市旭町2-5八王子ﾂｲﾝﾀﾜｰﾋﾞﾙ3階
530,東京都,その他,シルクハット蒲田西口,大田区西蒲田7-2-3第二醍醐ﾋﾞﾙ地下1階~2階,35.563082,139.715928,1,東京都大田区西蒲田7-2-3第二醍醐ﾋﾞﾙ地下1階~2階
521,東京都,その他,サンポップマチヤ,荒川区荒川7-50-9,35.742439,139.780784,1,東京都荒川区荒川7-50-9
516,東京都,その他,ザ・ビッグ昭島アミューズパーク,昭島市宮沢町500-1ｻﾞ･ﾋﾞｯｸﾞ昭島店3階,35.71643,139.372926,1,東京都昭島市宮沢町500-1ｻﾞ･ﾋﾞｯｸﾞ昭島店3階
494,東京都,その他,ゲームグース武蔵小山,品川区小山3-22-19,35.619042,139.705381,1,東京都品川区小山3-22-19
493,東京都,その他,GiGO 立川,立川市柴崎町3-2-1 ｻｻﾞﾝﾋﾞﾙ1F,35.697268,139.414737,1,東京都立川市柴崎町3-2-1 ｻｻﾞﾝﾋﾞﾙ1F
490,東京都,その他,GiGO 新宿西口,新宿区西新宿1-12-5,35.689552,139.697378,1,東京都新宿区西新宿1-12-5
489,東京都,その他,クラブセガ自由ヶ丘,目黒区自由ヶ丘2-10-9,35.60821,139.667491,1,東京都目黒区自由ヶ丘2-10-9
482,東京都,その他,キャッツアイ西葛西,江戸川区西葛西4-2-28 ｻﾆｰﾓｰﾙ西葛西店3F,35.668172,139.861661,1,東京都江戸川区西葛西4-2-28 ｻﾆｰﾓｰﾙ西葛西店3F
474,東京都,その他,キデイランド吉祥寺,武蔵野市吉祥寺本町1-11-5,35.705077,139.579677,1,東京都武蔵野市吉祥寺本町1-11-5
470,東京都,その他,キッズトレイン永山,多摩市永山1-4ｸﾞﾘﾅｰﾄﾞ永山3階,35.628974,139.44811,1,東京都多摩市永山1-4ｸﾞﾘﾅｰﾄﾞ永山3階
449,東京都,イトーヨーカドー,イトーヨーカドー木場,江東区木場1-5-30,35.665535,139.804847,1,東京都江東区木場1-5-30
445,東京都,イトーヨーカドー,イトーヨーカドー武蔵小金井,小金井市本町6-14-9,35.700445,139.504936,1,東京都小金井市本町6-14-9
444,東京都,イトーヨーカドー,イトーヨーカドー武蔵境,武蔵野市境南町2-2-20,35.70117,139.545662,1,東京都武蔵野市境南町2-2-20
441,東京都,イトーヨーカドー,イトーヨーカドー八王子,八王子市狭間町1462-1,35.638045,139.293491,1,東京都八王子市狭間町1462-1
436,東京都,イトーヨーカドー,イトーヨーカドー東大和,東大和市桜が丘2-142-1,35.735798,139.424204,1,東京都東大和市桜が丘2-142-1
435,東京都,イトーヨーカドー,イトーヨーカドー東村山,東村山市本町2-2-19,35.758765,139.466542,1,東京都東村山市本町2-2-19
434,東京都,イトーヨーカドー,イトーヨーカドー東久留米,東久留米市本町3-8-1,35.759028,139.528795,1,東京都東久留米市本町3-8-1
428,東京都,イトーヨーカドー,イトーヨーカドー大森,大田区大森北2-13-1,35.586503,139.73311,1,東京都大田区大森北2-13-1
426,東京都,イトーヨーカドー,イトーヨーカドー大井町,品川区大井1-3-6,35.607171,139.733988,1,東京都品川区大井1-3-6
425,東京都,イトーヨーカドー,イトーヨーカドー多摩センター,多摩市落合1-44,35.623634,139.425713,1,東京都多摩市落合1-44
422,東京都,イトーヨーカドー,イトーヨーカドー赤羽,北区赤羽西1-7-1,35.777174,139.719142,1,東京都北区赤羽西1-7-1
418,東京都,イトーヨーカドー,イトーヨーカドー上板橋,板橋区常盤台4-26-1,35.763975,139.678137,1,東京都板橋区常盤台4-26-1
415,東京都,イトーヨーカドー,イトーヨーカドー昭島,昭島市田中町562-1,35.714869,139.36242,1,東京都昭島市田中町562-1
413,東京都,イトーヨーカドー,イトーヨーカドー小岩,江戸川区西小岩1-24-1,35.733625,139.881368,1,東京都江戸川区西小岩1-24-1
410,東京都,イトーヨーカドー,イトーヨーカドー四つ木,葛飾区四つ木2-21-1,35.737254,139.838571,1,東京都葛飾区四つ木2-21-1
408,東京都,イトーヨーカドー,イトーヨーカドー国領,調布市国領町8-2-64,35.646759,139.564125,1,東京都調布市国領町8-2-64
399,東京都,イトーヨーカドー,イトーヨーカドー葛西,江戸川区東葛西9-3-3,35.651932,139.883049,1,東京都江戸川区東葛西9-3-3
395,東京都,イトーヨーカドー,イトーヨーカドー曳舟,墨田区京島1-2-1,35.717455,139.817784,1,東京都墨田区京島1-2-1
388,東京都,イトーヨーカドー,イトーヨーカドーセブンホームセンター金町,葛飾区東金町1-10-8,35.770292,139.867366,1,東京都葛飾区東金町1-10-8
384,東京都,イトーヨーカドー,イトーヨーカドーアリオ北砂,江東区北砂2-17,35.684262,139.82586,1,東京都江東区北砂2-17
378,東京都,イトーヨーカドー,イトーヨーカドーアリオ西新井,足立区西新井栄町1-20-1,35.774558,139.785977,1,東京都足立区西新井栄町1-20-1
372,東京都,イトーヨーカドー,イトーヨーカドーアリオ亀有,葛飾区亀有3-49-3,35.765946,139.854167,1,東京都葛飾区亀有3-49-3
368,東京都,その他,イオン東雲,江東区東雲1-9-10,35.64871,139.802146,1,東京都江東区東雲1-9-10
355,東京都,その他,イオンスタイル板橋前野町,板橋区前野町4-21-22,35.771099,139.691809,1,東京都板橋区前野町4-21-22
341,東京都,その他,アミューズメントカフェプレビ稲城,稲城市矢野口2284-1 ｱﾒﾘｱ稲城ｼｮｯﾋﾟﾝｸﾞｾﾝﾀｰ2Fﾌﾟﾚﾋﾞﾌﾟﾚｲﾗﾝﾄﾞ,35.635688,139.515433,1,東京都稲城市矢野口2284-1 ｱﾒﾘｱ稲城ｼｮｯﾋﾟﾝｸﾞｾﾝﾀｰ2Fﾌﾟﾚﾋﾞﾌﾟﾚｲﾗﾝﾄﾞ
337,東京都,その他,アミュージアム豊洲,江東区豊洲2-4-9ｱｰﾊﾞﾝﾄﾞｯｸららぽｰと豊洲3F,35.655735,139.792662,1,東京都江東区豊洲2-4-9ｱｰﾊﾞﾝﾄﾞｯｸららぽｰと豊洲3F
333,東京都,その他,アミュージアム大泉,練馬区東大泉2-10-11LIVINｵｽﾞ大泉5F,35.752436,139.595335,1,東京都練馬区東大泉2-10-11LIVINｵｽﾞ大泉5F
319,東京都,その他,アミュージアムモリタウン昭島,昭島市田中町562-1ﾓﾘﾀｳﾝ東館2F,35.713704,139.363647,1,東京都昭島市田中町562-1ﾓﾘﾀｳﾝ東館2F
318,東京都,その他,アミュージアムOSC,練馬区東大泉2-34-1ｵｽﾞ･ｽﾀｼﾞｵ･ｼﾃｨ2F,35.75306,139.595257,1,東京都練馬区東大泉2-34-1ｵｽﾞ･ｽﾀｼﾞｵ･ｼﾃｨ2F
301,東京都,その他,アピナ八王子みなみ野,八王子市みなみ野1-2-1 ｱｸﾛｽﾓｰﾙ3F,35.630654,139.329233,1,東京都八王子市みなみ野1-2-1 ｱｸﾛｽﾓｰﾙ3F
279,東京都,その他,アピナ荻窪,杉並区上荻1-13-10 ﾊｸｻﾝﾋﾞﾙ,35.705006,139.618235,2,東京都杉並区上荻1-13-10 ﾊｸｻﾝﾋﾞﾙ
235,東京都,その他,アドアーズ南砂町SUNAMO,江東区新砂3-4-31 南砂町ｼｮｯﾋﾟﾝｸﾞｾﾝﾀｰSUNAMO4階,35.665144,139.835213,1,東京都江東区新砂3-4-31 南砂町ｼｮｯﾋﾟﾝｸﾞｾﾝﾀｰSUNAMO4階
234,東京都,その他,アドアーズ中野,中野区中野5-52-15 ﾌﾞﾛｰﾄﾞｳｪｲ1階,35.70893,139.665777,1,東京都中野区中野5-52-15 ﾌﾞﾛｰﾄﾞｳｪｲ1階
220,東京都,その他,THE 3RD PLANET 多摩センター,多摩市落合1-41-1 ﾏｸﾞﾚﾌﾞWEST1階･2階,35.624039,139.423428,2,東京都多摩市落合1-41-1 ﾏｸﾞﾚﾌﾞWEST1階･2階
192,東京都,モーリーファンタジー・PALO,PALO聖蹟桜ヶ丘,多摩市関戸4-72 聖蹟桜ヶ丘ｵｰﾊﾟ店6F,35.649679,139.447102,1,東京都多摩市関戸4-72 聖蹟桜ヶ丘ｵｰﾊﾟ店6F
174,東京都,その他,NOSICA葛西,江戸川区西葛西3-9-19 ｲｵﾝ葛西店3階,35.669417,139.858606,1,東京都江戸川区西葛西3-9-19 ｲｵﾝ葛西店3階
154,東京都,namco,namco東急プラザ蒲田店,大田区西蒲田7丁目69番1号東急ﾌﾟﾗｻﾞ蒲田7階,35.561868,139.715352,2,東京都大田区西蒲田7丁目69番1号東急ﾌﾟﾗｻﾞ蒲田7階
151,東京都,namco,namco中野店,中野区中野5-52-15中野ﾌﾞﾛｰﾄﾞｳｪｲ別館,35.70893,139.665777,2,東京都中野区中野5-52-15中野ﾌﾞﾛｰﾄﾞｳｪｲ別館
142,東京都,namco,namco王子サンスクエア店,北区王子1-4-1ｻﾝｽｸｴｱ2階 ｻﾝｽｸｴｱ2階,35.752926,139.738858,2,東京都北区王子1-4-1ｻﾝｽｸｴｱ2階 ｻﾝｽｸｴｱ2階
136,東京都,namco,namcoららぽーと立川立飛店,立川市泉町935番1ららぽｰと立川立飛店3F,35.712776,139.417875,1,東京都立川市泉町935番1ららぽｰと立川立飛店3F
83,東京都,namco,namcoイトーヨーカドー木場店,江東区木場1-5-30ｲﾄｰﾖｰｶﾄﾞｰ木場店2･3F,35.665584,139.804659,2,東京都江東区木場1-5-30ｲﾄｰﾖｰｶﾄﾞｰ木場店2･3F
82,東京都,namco,namcoイオン練馬店,練馬区光が丘5-1-1ｲｵﾝ練馬店3F,35.759298,139.627993,1,東京都練馬区光が丘5-1-1ｲｵﾝ練馬店3F
26,東京都,その他,LIVIN田無,西東京市田無町2-1-1,35.728175,139.540369,1,東京都西東京市田無町2-1-1
20,東京都,その他,LABI渋谷,渋谷区道玄坂2-29-20,35.659781,139.698099,1,東京都渋谷区道玄坂2-29-20
16,東京都,その他,LABI 品川大井町 住まいる家電館,品川区東大井5-20-1,35.605672,139.73525,1,東京都品川区東大井5-20-1
13,東京都,タイトー,Hey,千代田区外神田1-10-5 広瀬本社ﾋﾞﾙ2F,35.699074,139.770752,2,東京都千代田区外神田1-10-5 広瀬本社ﾋﾞﾙ2F
1,東京都,その他,○×△□(ラくトス),葛飾区新小岩1-44-6,35.716094,139.858241,1,東京都葛飾区新小岩1-44-6
1576,神奈川県,モーリーファンタジー・PALO,モーリーファンタジー天王町,横浜市保土ヶ谷区川辺町3-5 イオン天王町ショッピングセンター3F,35.458467,139.599813,1,神奈川県横浜市保土ヶ谷区川辺町3-5 イオン天王町ショッピングセンター3F
1574,神奈川県,その他,LABI茅ヶ崎,茅ヶ崎市新栄町１２?３,35.332653,139.405114,1,神奈川県茅ヶ崎市新栄町１２?３
1548,神奈川県,その他,キッズトレイン小田原,小田原市中里208 ﾀﾞｲﾅｼﾃｨｰｳｪｽﾄ4F,35.28411,139.185235,1,神奈川県小田原市中里208 ﾀﾞｲﾅｼﾃｨｰｳｪｽﾄ4F
1543,神奈川県,イトーヨーカドー,イトーヨーカドー横浜別所,横浜市南区別所1-14-1,35.41622,139.594665,1,神奈川県横浜市南区別所1-14-1
1477,神奈川県,その他,キッズトレインなっつべりぃ,川崎市川崎区港町１２−１イトーヨーカドー川崎港町店2F,35.534198,139.718931,1,神奈川県川崎市川崎区港町１２−１イトーヨーカドー川崎港町店2F
1439,神奈川県,その他,西友LIVINよこすか,横須賀市平成町3-21-4,35.274866,139.683814,1,神奈川県横須賀市平成町3-21-4
1437,神奈川県,その他,小田原メトロポリス,小田原市前川219番地4,35.278693,139.194209,1,神奈川県小田原市前川219番地4
1416,神奈川県,その他,レジャーランド厚木,厚木市戸室5-31-1,35.447726,139.343118,1,神奈川県厚木市戸室5-31-1
1407,神奈川県,その他,ラウンドワンららぽーと湘南平塚,平塚市天沼10-1 ららぽｰと湘南平塚3階,35.336457,139.35505,1,神奈川県平塚市天沼10-1 ららぽｰと湘南平塚3階
1383,神奈川県,ヨドバシカメラ,ヨドバシカメラマルチメディア川崎ルフロン,川崎市川崎区日進町1-11 ﾙﾌﾛﾝ,35.529759,139.695705,1,神奈川県川崎市川崎区日進町1-11 ﾙﾌﾛﾝ
1376,神奈川県,ヨドバシカメラ,ヨドバシカメラマルチメディア京急上大岡,横浜市港南区上大岡西1-6-1,35.409068,139.596581,1,神奈川県横浜市港南区上大岡西1-6-1
1375,神奈川県,ヨドバシカメラ,ヨドバシカメラマルチメディア横浜,横浜市西区北幸1-2-7,35.46768,139.620381,1,神奈川県横浜市西区北幸1-2-7
1341,神奈川県,モーリーファンタジー・PALO,モーリーファンタジー本牧,横浜市中区本牧原7-1 ｲｵﾝ本牧店5階,35.42543,139.666973,1,神奈川県横浜市中区本牧原7-1 ｲｵﾝ本牧店5階
1274,神奈川県,モーリーファンタジー・PALO,モーリーファンタジー東戸塚,横浜市戸塚区品濃町535-1 ｲｵﾝ東戸塚店4F,35.430294,139.56148,1,神奈川県横浜市戸塚区品濃町535-1 ｲｵﾝ東戸塚店4F
1235,神奈川県,モーリーファンタジー・PALO,モーリーファンタジー大和鶴間,大和市下鶴間一-2-1 ｲｵﾝ大和鶴間店3階,35.489233,139.457991,1,神奈川県大和市下鶴間一-2-1 ｲｵﾝ大和鶴間店3階
1233,神奈川県,モーリーファンタジー・PALO,モーリーファンタジー大和,大和市都市計画事業渋谷(南部地区)整理地内74 ｲｵﾝ3F,35.487515,139.457998,1,神奈川県大和市都市計画事業渋谷(南部地区)整理地内74 ｲｵﾝ3F
1210,神奈川県,モーリーファンタジー・PALO,モーリーファンタジー相模原小山,相模原市中央区小山3-37-1 相模原ﾓｰﾙ2F,35.582684,139.356537,1,神奈川県相模原市中央区小山3-37-1 相模原ﾓｰﾙ2F
1204,神奈川県,モーリーファンタジー・PALO,モーリーファンタジー川崎小田栄,川崎市川崎区小田栄2-3-1 ｺｰﾅﾝ川崎小田栄2階,35.514924,139.706682,1,神奈川県川崎市川崎区小田栄2-3-1 ｺｰﾅﾝ川崎小田栄2階
1183,神奈川県,モーリーファンタジー・PALO,モーリーファンタジー秦野,秦野市入船町12-1 ｲｵﾝ秦野店2階,35.378122,139.227929,1,神奈川県秦野市入船町12-1 ｲｵﾝ秦野店2階
1165,神奈川県,モーリーファンタジー・PALO,モーリーファンタジー湘南茅ヶ崎,茅ヶ崎市茅ヶ崎2-7-71 ｲｵﾝｽﾀｲﾙ湘南茅ヶ崎店3階,35.33483,139.40896,1,神奈川県茅ヶ崎市茅ヶ崎2-7-71 ｲｵﾝｽﾀｲﾙ湘南茅ヶ崎店3階
1124,神奈川県,モーリーファンタジー・PALO,モーリーファンタジー三ツ境,横浜市瀬谷区三ﾂ境7-1 ﾀﾞｲｴｰ三ﾂ境店2F,35.465924,139.503981,1,神奈川県横浜市瀬谷区三ﾂ境7-1 ﾀﾞｲｴｰ三ﾂ境店2F
1111,神奈川県,モーリーファンタジー・PALO,モーリーファンタジー座間,座間市広野台2-10-4 ｲｵﾝﾓｰﾙ座間店3階,35.501227,139.425641,1,神奈川県座間市広野台2-10-4 ｲｵﾝﾓｰﾙ座間店3階
1092,神奈川県,モーリーファンタジー・PALO,モーリーファンタジー港北,横浜市都筑区中川中央1-31-1-5083 ﾓｻﾞｲｸ5F,35.554736,139.578265,1,神奈川県横浜市都筑区中川中央1-31-1-5083 ﾓｻﾞｲｸ5F
1091,神奈川県,モーリーファンタジー・PALO,モーリーファンタジー港南台,横浜市港南区港南台3-1-2 ﾀﾞｲｴｰ港南台店4F,35.375832,139.577304,1,神奈川県横浜市港南区港南台3-1-2 ﾀﾞｲｴｰ港南台店4F
1073,神奈川県,モーリーファンタジー・PALO,モーリーファンタジー金沢八景,横浜市金沢区泥亀1-27-1 ｲｵﾝ2階,35.333905,139.622746,1,神奈川県横浜市金沢区泥亀1-27-1 ｲｵﾝ2階
1065,神奈川県,モーリーファンタジー・PALO,モーリーファンタジー久里浜,横須賀市久里浜5-13-1 ｲｵﾝ久里浜店2階,35.229064,139.704001,1,神奈川県横須賀市久里浜5-13-1 ｲｵﾝ久里浜店2階
1058,神奈川県,モーリーファンタジー・PALO,モーリーファンタジー茅ヶ崎中央,茅ヶ崎市茅ｹ崎3-5-16 ｲｵﾝ茅ヶ崎中央店3階,35.336041,139.402697,1,神奈川県茅ヶ崎市茅ｹ崎3-5-16 ｲｵﾝ茅ヶ崎中央店3階
1046,神奈川県,モーリーファンタジー・PALO,モーリーファンタジー横浜新吉田,横浜市港北区新吉田東八-49-1 ｲｵﾝ横浜新吉田店2階,35.532467,139.612858,1,神奈川県横浜市港北区新吉田東八-49-1 ｲｵﾝ横浜新吉田店2階
997,神奈川県,モーリーファンタジー・PALO,モーリーファンタジーサクラス戸塚,横浜市戸塚区戸塚町4253-1 ｻｸﾗｽ戸塚店2F,35.401077,139.530634,1,神奈川県横浜市戸塚区戸塚町4253-1 ｻｸﾗｽ戸塚店2F
995,神奈川県,モーリーファンタジー・PALO,モーリーファンタジークロスガーデン川崎,川崎市幸区小倉5-19-23 ｸﾛｽｶﾞｰﾃﾞﾝ川崎1階,35.535855,139.667067,1,神奈川県川崎市幸区小倉5-19-23 ｸﾛｽｶﾞｰﾃﾞﾝ川崎1階
987,神奈川県,モーリーファンタジー・PALO,モーリーファンタジーイオン相模原,相模原市南区古淵2-10-1 ｲｵﾝ3階,35.55371,139.417027,1,神奈川県相模原市南区古淵2-10-1 ｲｵﾝ3階
953,神奈川県,その他,プレイランド 大和鶴間,大和市下鶴間一丁目3-1ｲﾄｰﾖｰｶﾄﾞｰ大和鶴間店3F,35.490689,139.457156,2,神奈川県大和市下鶴間一丁目3-1ｲﾄｰﾖｰｶﾄﾞｰ大和鶴間店3F
952,神奈川県,その他,プレイランド 川崎,川崎市川崎区小田栄二丁目2-1ｲﾄｰﾖｰｶﾄﾞｰ川崎店3F,35.514614,139.708878,1,神奈川県川崎市川崎区小田栄二丁目2-1ｲﾄｰﾖｰｶﾄﾞｰ川崎店3F
949,神奈川県,その他,プレイランド ダイエー海老名,海老名市中央3-2-5 ﾀﾞｲｴｰ海老名店3F,35.451059,139.390923,1,神奈川県海老名市中央3-2-5 ﾀﾞｲｴｰ海老名店3F
931,神奈川県,その他,プラサカプコン横須賀,横須賀市若松町2-30 ﾓｱｰｽﾞｼﾃｨ4F,35.278189,139.670249,2,神奈川県横須賀市若松町2-30 ﾓｱｰｽﾞｼﾃｨ4F
928,神奈川県,その他,プラサカプコン磯子,横須賀市磯子区磯子1-2-1 ﾏﾘｺﾑ磯子ｼｮｯﾋﾟﾝｸﾞｾﾝﾀｰ2F,35.407324,139.61224,1,神奈川県横須賀市磯子区磯子1-2-1 ﾏﾘｺﾑ磯子ｼｮｯﾋﾟﾝｸﾞｾﾝﾀｰ2F
909,神奈川県,その他,ファンタスティックジャーニー横浜,横浜市都筑区池辺町4035-1 ｲﾄｰﾖｰｶﾄﾞｰららぽｰと横浜店2F,35.518219,139.567043,1,神奈川県横浜市都筑区池辺町4035-1 ｲﾄｰﾖｰｶﾄﾞｰららぽｰと横浜店2F
890,神奈川県,ビックカメラ,ビックカメラ藤沢,藤沢市藤沢559 6F,35.339864,139.488617,1,神奈川県藤沢市藤沢559 6F
886,神奈川県,ビックカメラ,ビックカメラ相模大野,相模原市南区相模大野3-8-1 相模大野ｽﾃｰｼｮﾝｽｸｴｱB館,35.531512,139.437237,1,神奈川県相模原市南区相模大野3-8-1 相模大野ｽﾃｰｼｮﾝｽｸｴｱB館
881,神奈川県,ビックカメラ,ビックカメラ新横浜,横浜市港北区新横浜2-100-45 ｷｭｰﾋﾞｯｸﾌﾟﾗｻﾞ新横浜9F,35.508009,139.617544,1,神奈川県横浜市港北区新横浜2-100-45 ｷｭｰﾋﾞｯｸﾌﾟﾗｻﾞ新横浜9F
875,神奈川県,ビックカメラ,ビックカメララゾーナ川崎,川崎市幸区堀川町72-1 ﾗｿﾞｰﾅ川崎ﾌﾟﾗｻﾞ1F,35.53252,139.695871,2,神奈川県川崎市幸区堀川町72-1 ﾗｿﾞｰﾅ川崎ﾌﾟﾗｻﾞ1F
857,神奈川県,その他,ハローズガーデン東神奈川,横浜市神奈川区富家町1 ｲｵﾝ東神奈川店4F,35.479928,139.632946,1,神奈川県横浜市神奈川区富家町1 ｲｵﾝ東神奈川店4F
847,神奈川県,その他,ハローズガーデン湘南,藤沢市遠藤字滝ﾉ沢698-10 湘南とうきゅう2F,35.371491,139.442166,1,神奈川県藤沢市遠藤字滝ﾉ沢698-10 湘南とうきゅう2F
842,神奈川県,その他,ハローズガーデン厚木,厚木市中町1-5-10 厚木ｶﾞｰﾃﾞﾝｼﾃｨﾋﾞﾙ5F,35.442136,139.36667,1,神奈川県厚木市中町1-5-10 厚木ｶﾞｰﾃﾞﾝｼﾃｨﾋﾞﾙ5F
841,神奈川県,その他,ハローズガーデン海老名,海老名市中央2-4-1 ｲｵﾝ海老名店2F,35.450226,139.392892,1,神奈川県海老名市中央2-4-1 ｲｵﾝ海老名店2F
837,神奈川県,その他,ハローズガーデン綾瀬,綾瀬市深谷中1-1-1 綾瀬ﾀｳﾝﾋﾙｽﾞSC2F,35.43674,139.42895,1,神奈川県綾瀬市深谷中1-1-1 綾瀬ﾀｳﾝﾋﾙｽﾞSC2F
814,神奈川県,その他,ドラマ藤沢,藤沢市神奈川県藤沢市本藤沢5-6-8,35.357548,139.468052,1,神奈川県藤沢市神奈川県藤沢市本藤沢5-6-8
812,神奈川県,その他,ドラマ港北インター,横浜市都筑区東方町321-6,35.51915,139.584585,1,神奈川県横浜市都筑区東方町321-6
761,神奈川県,タイトー,タイトーステーション 藤沢,藤沢市南藤沢21-1,35.33753,139.487683,2,神奈川県藤沢市南藤沢21-1
741,神奈川県,タイトー,タイトーステーション 小田原シティーモール,小田原市前川120 ﾌﾚｽﾎﾟ小田原ｼﾃｨｰﾓｰﾙ2F,35.28164,139.193896,2,神奈川県小田原市前川120 ﾌﾚｽﾎﾟ小田原ｼﾃｨｰﾓｰﾙ2F
735,神奈川県,タイトー,タイトーステーション 溝の口,川崎市高津区溝口1-11-8 OKKA634ﾋﾞﾙ3階,35.600093,139.612459,2,神奈川県川崎市高津区溝口1-11-8 OKKA634ﾋﾞﾙ3階
732,神奈川県,タイトー,タイトーステーション 戸塚西口,横浜市戸塚区戸塚町4023番地,35.399552,139.531812,1,神奈川県横浜市戸塚区戸塚町4023番地
729,神奈川県,タイトー,タイトーステーション 海老名ビナウォーク,海老名市中央1ｰ18-1 ﾋﾞﾅｳｫｰｸ六番館2F,35.452684,139.395603,2,神奈川県海老名市中央1ｰ18-1 ﾋﾞﾅｳｫｰｸ六番館2F
728,神奈川県,タイトー,タイトーステーション 横浜西口五番街,横浜市西区南幸1-12-97階,35.464701,139.61947,2,神奈川県横浜市西区南幸1-12-97階
712,神奈川県,タイトー,タイトーステーション イトーヨーカドー横浜別所,横浜市南区別所1-14-1 ｲﾄｰﾖｰｶﾄﾞｰ横浜別所店2F,35.415908,139.594784,1,神奈川県横浜市南区別所1-14-1 ｲﾄｰﾖｰｶﾄﾞｰ横浜別所店2F
660,神奈川県,その他,タイトーFステーション イオン伊勢原,伊勢原市白根630-1 ｲｵﾝ伊勢原店3F,35.397337,139.295559,1,神奈川県伊勢原市白根630-1 ｲｵﾝ伊勢原店3F
641,神奈川県,その他,ソユーゲームフィールド上大岡,横浜市港南区上大岡西一丁目18番3号ﾐｵｶﾘｽﾄ館6F,35.40778,139.595299,1,神奈川県横浜市港南区上大岡西一丁目18番3号ﾐｵｶﾘｽﾄ館6F
626,神奈川県,その他,ソユーゲームフィールド 湘南,藤沢市辻堂新町四丁目1番1号湘南ﾓｰﾙFILL2F,35.338928,139.464537,1,神奈川県藤沢市辻堂新町四丁目1番1号湘南ﾓｰﾙFILL2F
590,神奈川県,その他,GiGOダイナシティ小田原,小田原市中里296-1 ﾀﾞｲﾅｼﾃｨｲｰｽﾄﾓｰﾙｲﾄｰﾖｰｶ堂3F,35.281716,139.188598,1,神奈川県小田原市中里296-1 ﾀﾞｲﾅｼﾃｨｲｰｽﾄﾓｰﾙｲﾄｰﾖｰｶ堂3F
554,神奈川県,その他,セガイトーヨーカドー古淵,相模原市古淵3-13-33 ｲﾄｰﾖｰｶﾄﾞｰ3F,35.553068,139.418659,1,神奈川県相模原市古淵3-13-33 ｲﾄｰﾖｰｶﾄﾞｰ3F
539,神奈川県,その他,スコナランド金沢シーサイド,横浜市金沢区並木2-13-13F,35.362172,139.641427,1,神奈川県横浜市金沢区並木2-13-13F
534,神奈川県,その他,シルクハット大船,鎌倉市大船1-24大船駅前ﾋﾞﾙ1~3階,35.35328,139.532574,1,神奈川県鎌倉市大船1-24大船駅前ﾋﾞﾙ1~3階
533,神奈川県,その他,シルクハット川崎モアーズ,川崎市川崎区駅前本町7番地岡田屋ﾓｱｰｽﾞ1，2階,35.530407,139.699749,1,神奈川県川崎市川崎区駅前本町7番地岡田屋ﾓｱｰｽﾞ1，2階
532,神奈川県,その他,シルクハット川崎ダイス,川崎市川崎区駅前本町8番地ﾀﾞｲｽﾋﾞﾙ地下2階,35.531165,139.700135,1,神奈川県川崎市川崎区駅前本町8番地ﾀﾞｲｽﾋﾞﾙ地下2階
529,神奈川県,その他,シルクハット横須賀中央,横須賀市若松町1-5横須賀ﾌﾟﾗｲﾑ2階,35.280092,139.670062,1,神奈川県横須賀市若松町1-5横須賀ﾌﾟﾗｲﾑ2階
522,神奈川県,その他,ジアス上大岡,横浜市港南区上大岡2-1-28 赤い風船ﾋﾞﾙ1F,35.406506,139.596211,1,神奈川県横浜市港南区上大岡2-1-28 赤い風船ﾋﾞﾙ1F
491,神奈川県,その他,GiGO新杉田,横浜市磯子区杉田1-1-1 らびすた新杉田2F,35.385778,139.619152,1,神奈川県横浜市磯子区杉田1-1-1 らびすた新杉田2F
488,神奈川県,その他,GiGO綱島,横浜市港北区綱島西2-6-29 城田ﾋﾞﾙ3F,35.536422,139.632853,1,神奈川県横浜市港北区綱島西2-6-29 城田ﾋﾞﾙ3F
475,神奈川県,その他,キデイランド港北ニュータウン,横浜市都筑区茅ｹ崎中央5-1港北東急ｼｮｯﾋﾟﾝｸﾞｾﾝﾀｰ2F,35.544222,139.572239,1,神奈川県横浜市都筑区茅ｹ崎中央5-1港北東急ｼｮｯﾋﾟﾝｸﾞｾﾝﾀｰ2F
471,神奈川県,その他,キッズトレイン相模原,相模原市相模原市南区松ヶ枝町17-1,35.515367,139.42499,1,神奈川県相模原市相模原市南区松ヶ枝町17-1
462,神奈川県,その他,プレビアリオ橋本,相模原市緑区大山町1-22 ｱﾘｵ橋本店内2階ｴﾌﾞﾘﾃﾞｨFUNﾊｳｽ,35.591149,139.349718,1,神奈川県相模原市緑区大山町1-22 ｱﾘｵ橋本店内2階ｴﾌﾞﾘﾃﾞｨFUNﾊｳｽ
450,神奈川県,イトーヨーカドー,イトーヨーカドー立場,横浜市泉区中田西1-1-15,35.413133,139.500483,1,神奈川県横浜市泉区中田西1-1-15
439,神奈川県,イトーヨーカドー,イトーヨーカドー能見台,横浜市金沢区能見台東3-1,35.358486,139.627243,1,神奈川県横浜市金沢区能見台東3-1
437,神奈川県,イトーヨーカドー,イトーヨーカドー藤沢,藤沢市鵠沼石上1-10-1,35.334986,139.489035,1,神奈川県藤沢市鵠沼石上1-10-1
430,神奈川県,イトーヨーカドー,イトーヨーカドー大和鶴間,大和市下鶴間1-3-1,35.489985,139.458001,1,神奈川県大和市下鶴間1-3-1
429,神奈川県,イトーヨーカドー,イトーヨーカドー大船,鎌倉市大船6-1-1,35.353117,139.538282,1,神奈川県鎌倉市大船6-1-1
419,神奈川県,イトーヨーカドー,イトーヨーカドー新百合ヶ丘,川崎市麻生区上麻生1-4-1,35.603164,139.509389,1,神奈川県川崎市麻生区上麻生1-4-1
417,神奈川県,イトーヨーカドー,イトーヨーカドー湘南台,藤沢市石川6-2-1,35.392307,139.446759,1,神奈川県藤沢市石川6-2-1
414,神奈川県,イトーヨーカドー,イトーヨーカドー小田原,小田原市中里296-1,35.281615,139.18869,1,神奈川県小田原市中里296-1
407,神奈川県,イトーヨーカドー,イトーヨーカドー綱島,横浜市港北区綱島西2-8-1,35.535404,139.631837,1,神奈川県横浜市港北区綱島西2-8-1
404,神奈川県,イトーヨーカドー,イトーヨーカドー溝ノ口,川崎市高津区久本3-6-20,35.599042,139.615726,1,神奈川県川崎市高津区久本3-6-20
392,神奈川県,イトーヨーカドー,イトーヨーカドー伊勢原,伊勢原市桜台1-8-1,35.394945,139.314965,1,神奈川県伊勢原市桜台1-8-1
390,神奈川県,イトーヨーカドー,イトーヨーカドーららぽーと横浜,横浜市都筑区池辺町4035-1,35.516675,139.56508,1,神奈川県横浜市都筑区池辺町4035-1
389,神奈川県,イトーヨーカドー,イトーヨーカドーたまプラーザ,横浜市青葉区美しが丘1-6-1,35.583053,139.554037,1,神奈川県横浜市青葉区美しが丘1-6-1
386,神奈川県,イトーヨーカドー,イトーヨーカドーグランツリー武蔵小杉,川崎市中原区新丸子東3-1135,35.573825,139.660319,1,神奈川県川崎市中原区新丸子東3-1135
373,神奈川県,イトーヨーカドー,イトーヨーカドーアリオ橋本,相模原市緑区大山町1-22,35.59102,139.349769,1,神奈川県相模原市緑区大山町1-22
364,神奈川県,その他,イオン新百合丘,川崎市麻生区上麻生1-19,35.60283,139.507024,1,神奈川県川崎市麻生区上麻生1-19
363,神奈川県,その他,イオン新百合ヶ丘ファミリーパーク,川崎市麻生区上麻生1-19ｲｵﾝ新百合ヶ丘店4F,35.602486,139.506988,1,神奈川県川崎市麻生区上麻生1-19ｲｵﾝ新百合ヶ丘店4F
285,神奈川県,その他,アピナ山下公園,横浜市中区新山下1丁目2番8号 港山下ﾅﾅｲﾛﾋﾞﾙ2F,35.442352,139.654383,1,神奈川県横浜市中区新山下1丁目2番8号 港山下ﾅﾅｲﾛﾋﾞﾙ2F
283,神奈川県,その他,アピナ橋本,相模原市緑区西橋本5-1-1 ﾗ･ﾌﾛｰﾙ駐車場棟1F,35.597229,139.337241,1,神奈川県相模原市緑区西橋本5-1-1 ﾗ･ﾌﾛｰﾙ駐車場棟1F
267,神奈川県,その他,アピタ長津田,横浜市緑区長津田みなみ台4-7-1,35.518572,139.498955,1,神奈川県横浜市緑区長津田みなみ台4-7-1
254,神奈川県,その他,アピタ戸塚,横浜市戸塚区上倉田町769-1,35.398961,139.537466,1,神奈川県横浜市戸塚区上倉田町769-1
239,神奈川県,その他,アニメガ×ソフマップ横浜ビブレ店,横浜市西区南幸2-15-13 横浜ﾋﾞﾌﾞﾚ7F,35.464951,139.618251,1,神奈川県横浜市西区南幸2-15-13 横浜ﾋﾞﾌﾞﾚ7F
232,神奈川県,その他,アドアーズ橋本,相模原市緑区橋本3-3-1 SING橋本2階,35.5943,139.349214,1,神奈川県相模原市緑区橋本3-3-1 SING橋本2階
229,神奈川県,その他,あそびパークPLUS 小田原ダイナシティ店,小田原市中里208,35.284248,139.185474,1,神奈川県小田原市中里208
216,神奈川県,その他,THE 3RD PLANET 横浜本店,横浜市都筑区中川中央1-25-1 ﾉｰｽﾎﾟｰﾄ･ﾓｰﾙ6F,35.552098,139.579414,2,神奈川県横浜市都筑区中川中央1-25-1 ﾉｰｽﾎﾟｰﾄ･ﾓｰﾙ6F
153,神奈川県,namco,namco都筑店,横浜市都筑区川和町846-1,35.519853,139.553525,1,神奈川県横浜市都筑区川和町846-1
146,神奈川県,namco,namco港北TOKYU S.C.店,横浜市都筑区茅ｹ崎中央5-1港北TOKYUS.C.,35.544222,139.572239,2,神奈川県横浜市都筑区茅ｹ崎中央5-1港北TOKYUS.C.
141,神奈川県,namco,namco横浜ワールドポーターズ店,横浜市中区新港二丁目2番1号横浜ﾜｰﾙﾄﾞﾎﾟｰﾀｰｽﾞ5F,35.454006,139.638933,1,神奈川県横浜市中区新港二丁目2番1号横浜ﾜｰﾙﾄﾞﾎﾟｰﾀｰｽﾞ5F
139,神奈川県,namco,namco伊勢佐木町店,横浜市中区伊勢佐木町3-95,35.442807,139.630248,1,神奈川県横浜市中区伊勢佐木町3-95
131,神奈川県,namco,namcoラゾーナ川崎店,川崎市幸区堀川町72-1LAZONA川崎ﾌﾟﾗｻﾞ4階,35.533099,139.695894,2,神奈川県川崎市幸区堀川町72-1LAZONA川崎ﾌﾟﾗｻﾞ4階
102,神奈川県,namco,namcoトレッサ横浜店,横浜市港北区師岡町700番地ﾄﾚｯｻ横浜3F,35.525435,139.645783,2,神奈川県横浜市港北区師岡町700番地ﾄﾚｯｻ横浜3F
92,神奈川県,namco,namcoコースカベイサイドストアーズ(横須賀),横須賀市本町2-1-12ｺｰｽｶﾍﾞｲｻｲﾄﾞｽﾄｱｰｽﾞ5F,35.283274,139.662658,1,神奈川県横須賀市本町2-1-12ｺｰｽｶﾍﾞｲｻｲﾄﾞｽﾄｱｰｽﾞ5F
60,神奈川県,namco,namcoイオンモール座間店,座間市広野台2丁目10-4ｲｵﾝﾓｰﾙ座間店3F,35.501227,139.425641,1,神奈川県座間市広野台2丁目10-4ｲｵﾝﾓｰﾙ座間店3F
37,神奈川県,namco,namcoOSC湘南シティ店,平塚市代官町33番地1OSC湘南ｼﾃｨ内,35.328419,139.358211,1,神奈川県平塚市代官町33番地1OSC湘南ｼﾃｨ内
21,神奈川県,その他,LABI上大岡,横浜市港南区上大岡西1-18-5,35.40732,139.594902,1,神奈川県横浜市港南区上大岡西1-18-5
1382,新潟県,ヨドバシカメラ,ヨドバシカメラマルチメディア新潟駅前,新潟市中央区弁天1-2-6,37.913203,139.059427,1,新潟県新潟市中央区弁天1-2-6
1360,新潟県,モーリーファンタジー・PALO,モーリーファンタジー六日町,南魚沼市余川3100 ｲｵﾝ六日町店2階,37.081244,138.878533,1,新潟県南魚沼市余川3100 ｲｵﾝ六日町店2階
1179,新潟県,モーリーファンタジー・PALO,モーリーファンタジー新発田,新発田市住吉町5-11-5 ｲｵﾝ新発田店2階,37.94227,139.310024,1,新潟県新発田市住吉町5-11-5 ｲｵﾝ新発田店2階
1175,新潟県,モーリーファンタジー・PALO,モーリーファンタジー新潟南,新潟市江南区下早通柳田1-1-1 ｲｵﾝ新潟南店3階,37.876223,139.081546,1,新潟県新潟市江南区下早通柳田1-1-1 ｲｵﾝ新潟南店3階
1174,新潟県,モーリーファンタジー・PALO,モーリーファンタジー新潟東,新潟市東区大形本町3-1-2 ｲｵﾝ新潟東店3階,37.924993,139.114692,1,新潟県新潟市東区大形本町3-1-2 ｲｵﾝ新潟東店3階
1173,新潟県,モーリーファンタジー・PALO,モーリーファンタジー新潟青山,新潟市西区青山2-5-1 ｲｵﾝ2F,37.896378,139.004998,1,新潟県新潟市西区青山2-5-1 ｲｵﾝ2F
1168,新潟県,モーリーファンタジー・PALO,モーリーファンタジー上越,上越市富岡3458 ｱｺｰﾚ2ｲｵﾝ上越店2階,37.15278,138.258531,1,新潟県上越市富岡3458 ｱｺｰﾚ2ｲｵﾝ上越店2階
1159,新潟県,モーリーファンタジー・PALO,モーリーファンタジー小千谷,小千谷市大字平沢新田字荒田339 ｲｵﾝ小千谷店2階,37.320544,138.79455,1,新潟県小千谷市大字平沢新田字荒田339 ｲｵﾝ小千谷店2階
1152,新潟県,モーリーファンタジー・PALO,モーリーファンタジー十日町,十日町市字川端丑784-1 ｲｵﾝ十日町店1階,37.138249,138.745534,1,新潟県十日町市字川端丑784-1 ｲｵﾝ十日町店1階
1082,新潟県,モーリーファンタジー・PALO,モーリーファンタジー県央,燕市井土巻3-65 ｲｵﾝ県央店2階,37.651196,138.934971,1,新潟県燕市井土巻3-65 ｲｵﾝ県央店2階
981,新潟県,モーリーファンタジー・PALO,モーリーファンタジーf新潟南,新潟市江南区下早通柳田1-1-1 ｲｵﾝ新潟南SC2階,37.876223,139.081546,1,新潟県新潟市江南区下早通柳田1-1-1 ｲｵﾝ新潟南SC2階
903,新潟県,その他,ファミリーアミューズメント新潟西,新潟市西区小新5-7-21 ｱﾋﾟﾀ新潟西店2F,37.881133,139.002986,1,新潟県新潟市西区小新5-7-21 ｱﾋﾟﾀ新潟西店2F
899,新潟県,その他,ビルボードプレイスゲームコーナー,新潟市中央区新潟県新潟市中央区八千代二丁目5番7号,37.916251,139.053062,1,新潟県新潟市中央区新潟県新潟市中央区八千代二丁目5番7号
882,新潟県,ビックカメラ,ビックカメラ新潟,新潟市中央区花園1-1-21CoCoLo南館内,37.905698,139.059552,1,新潟県新潟市中央区花園1-1-21CoCoLo南館内
854,新潟県,その他,ハローズガーデン長岡,長岡市千秋2-278 ｱﾋﾟﾀRIVERSIDESENSHU長岡店2F,37.460681,138.826739,1,新潟県長岡市千秋2-278 ｱﾋﾟﾀRIVERSIDESENSHU長岡店2F
848,新潟県,その他,ハローズガーデン新潟亀田,新潟市江南区鵜ﾉ子4-466 ｱﾋﾟﾀ新潟亀田店2F,37.872302,139.088707,1,新潟県新潟市江南区鵜ﾉ子4-466 ｱﾋﾟﾀ新潟亀田店2F
819,新潟県,その他,ナムコランドイオン長岡店,長岡市古正寺1丁目249番1ｲｵﾝ長岡店内,37.454353,138.823326,1,新潟県長岡市古正寺1丁目249番1ｲｵﾝ長岡店内
818,新潟県,その他,ナムコランドイオン三条店,三条市西裏館2-12-20ｲｵﾝ三条店内,37.639537,138.95667,1,新潟県三条市西裏館2-12-20ｲｵﾝ三条店内
799,新潟県,その他,トイザらス長岡,長岡市川崎町1436-5,37.458406,138.877034,1,新潟県長岡市川崎町1436-5
790,新潟県,その他,トイザらス新潟,新潟市中央区上近江4-12-20ﾃﾞｯｷｨ401内,37.89825,139.029619,1,新潟県新潟市中央区上近江4-12-20ﾃﾞｯｷｨ401内
680,新潟県,その他,タイトーFステーション 燕三条,燕市井土巻3-150 ｲｵﾝ県央店ｱﾒﾆﾃｨ棟1F,37.651196,138.934971,2,新潟県燕市井土巻3-150 ｲｵﾝ県央店ｱﾒﾆﾃｨ棟1F
663,新潟県,その他,タイトーFステーション イオン新潟西,新潟市西区小新南2丁目1番10号,37.86829,138.994705,1,新潟県新潟市西区小新南2丁目1番10号
465,新潟県,その他,カプコサーカス新潟東,新潟市東区大形本町3-1-2 ｲｵﾝ新潟東店内ｹﾞｰﾑｺｰﾅｰ,37.924993,139.114692,2,新潟県新潟市東区大形本町3-1-2 ｲｵﾝ新潟東店内ｹﾞｰﾑｺｰﾅｰ
360,新潟県,その他,イオン三条,三条市西裏館2-12-20,37.639537,138.95667,1,新潟県三条市西裏館2-12-20
296,新潟県,その他,アピナ長岡,長岡市堺東町22,37.457849,138.813116,2,新潟県長岡市堺東町22
290,新潟県,その他,アピナ上越インター,上越市下門前1661,37.154277,138.255641,1,新潟県上越市下門前1661
261,新潟県,その他,アピタ新潟西,新潟市西区小新5-7-21,37.880552,139.003323,1,新潟県新潟市西区小新5-7-21
188,新潟県,モーリーファンタジー・PALO,PALO十日町,十日町市旭町161 ﾘｵﾝ･ﾄﾞｰﾙ十日町店1F,37.135803,138.758177,1,新潟県十日町市旭町161 ﾘｵﾝ･ﾄﾞｰﾙ十日町店1F
152,新潟県,namco,namco長岡店,長岡市堺町字浦田31番地ｱｰｸｶﾞﾚﾘｱ長岡,37.454988,138.810415,1,新潟県長岡市堺町字浦田31番地ｱｰｸｶﾞﾚﾘｱ長岡
149,新潟県,namco,namco新潟店,新潟市中央区南笹口1-1-1ひもろぎﾋﾞﾙ2F,37.908372,139.063777,1,新潟県新潟市中央区南笹口1-1-1ひもろぎﾋﾞﾙ2F
30,新潟県,その他,MEGAドン・キホーテ柏崎店,柏崎市東長浜町4-15,37.368421,138.579021,1,新潟県柏崎市東長浜町4-15
1432,富山県,その他,ジョーシン高岡蓮花寺,高岡市蓮花寺210-1,36.735674,137.032575,1,富山県高岡市蓮花寺210-1
1158,富山県,モーリーファンタジー・PALO,モーリーファンタジー小杉,射水市三ヶ2602 ｱﾙ･ﾌﾟﾗｻﾞ小杉店2階,36.719161,137.092056,1,富山県射水市三ヶ2602 ｱﾙ･ﾌﾟﾗｻﾞ小杉店2階
1097,富山県,モーリーファンタジー・PALO,モーリーファンタジー高岡南,高岡市下伏間江383 ｲｵﾝ高岡南店2階,36.723895,137.016709,1,富山県高岡市下伏間江383 ｲｵﾝ高岡南店2階
1096,富山県,モーリーファンタジー・PALO,モーリーファンタジー高岡,高岡市江尻331-1 ｲｵﾝ高岡店1階,36.761516,137.03167,1,富山県高岡市江尻331-1 ｲｵﾝ高岡店1階
1004,富山県,モーリーファンタジー・PALO,モーリーファンタジーとなみ,砺波市東区中神土地区画整理事業地内31 街区12F,36.636351,136.945926,2,富山県砺波市東区中神土地区画整理事業地内31 街区12F
802,富山県,その他,トイザらス富山,富山市五福1143-1五福ｼｮｯﾋﾟﾝｸﾞｾﾝﾀｰｱﾘｽ2F,36.695596,137.19269,1,富山県富山市五福1143-1五福ｼｮｯﾋﾟﾝｸﾞｾﾝﾀｰｱﾘｽ2F
717,富山県,タイトー,タイトーステーション ファボーレ婦中,富山市婦中町下轡田165-1 ﾌｭｰﾁｬｰｼﾃｨﾌｧﾎﾞｰﾚ2F,36.662642,137.171477,1,富山県富山市婦中町下轡田165-1 ﾌｭｰﾁｬｰｼﾃｨﾌｧﾎﾞｰﾚ2F
551,富山県,その他,GiGO イオンモール高岡,高岡市下伏間江383 ｲｵﾝﾓｰﾙ高岡西館2F,36.724601,137.012282,1,富山県高岡市下伏間江383 ｲｵﾝﾓｰﾙ高岡西館2F
307,富山県,その他,アピナ富山豊田,富山市豊田町2-12-66,36.721069,137.235448,1,富山県富山市豊田町2-12-66
306,富山県,その他,アピナ富山南,富山市堀川町355-3 ﾏｲﾌﾟﾗｻﾞ内,36.664943,137.217216,1,富山県富山市堀川町355-3 ﾏｲﾌﾟﾗｻﾞ内
305,富山県,その他,アピナ富山新庄,富山市荒川3-2-12,36.695355,137.248086,2,富山県富山市荒川3-2-12
272,富山県,その他,アピタ富山東店ゲームコーナー,富山市上冨居3-8-38ｱﾋﾟﾀ富山東店2F,36.708787,137.240923,1,富山県富山市上冨居3-8-38ｱﾋﾟﾀ富山東店2F
271,富山県,その他,アピタ富山東,富山市上冨居3-8-38,36.708056,137.240938,1,富山県富山市上冨居3-8-38
42,富山県,namco,namcoアピタ富山店,富山市上袋100番地ｱﾋﾟﾀ富山店内2F,36.661233,137.21178,1,富山県富山市上袋100番地ｱﾋﾟﾀ富山店内2F
28,富山県,その他,MEGAドン・キホーテUNY魚津店ゲームコーナー,魚津市住吉600番地MEGAﾄﾞﾝ･ｷﾎｰﾃUNY魚津店2F,36.806991,137.406126,1,富山県魚津市住吉600番地MEGAﾄﾞﾝ･ｷﾎｰﾃUNY魚津店2F
1586,石川県,その他,アミューズアイランド金沢店,金沢市福久2-58　イオン金沢店３F,36.617806,136.68159,1,石川県金沢市福久2-58　イオン金沢店３F
1482,石川県,その他,GiGOアルプラザ金沢,金沢市諸江町３０−１,36.590795,136.645661,1,石川県金沢市諸江町３０−１
1433,石川県,その他,手取フィッシュランド,能美市粟生町ﾂ58 手取ﾌｨｯｼｭﾗﾝﾄﾞ内1Fｹﾞｰﾑｺｰﾅｰ,36.459063,136.509286,1,石川県能美市粟生町ﾂ58 手取ﾌｨｯｼｭﾗﾝﾄﾞ内1Fｹﾞｰﾑｺｰﾅｰ
1431,石川県,その他,金沢メトロポリス,金沢市無量寺4丁目121番地1,36.60117,136.613968,1,石川県金沢市無量寺4丁目121番地1
1423,石川県,その他,レジャーランド藤江新館,金沢市藤江南2-105,36.583659,136.620679,1,石川県金沢市藤江南2-105
1303,石川県,モーリーファンタジー・PALO,モーリーファンタジー白山,白山市横江町1681 ｲｵﾝ白山内,36.544466,136.581866,1,石川県白山市横江町1681 ｲｵﾝ白山内
1262,石川県,モーリーファンタジー・PALO,モーリーファンタジー杜の里,金沢市もりの里1-70 ｲｵﾝ杜の里店2階,36.551636,136.689994,1,石川県金沢市もりの里1-70 ｲｵﾝ杜の里店2階
1178,石川県,モーリーファンタジー・PALO,モーリーファンタジー新小松,小松市沖周辺土地区画整理事業地内仮換地20街区 ｲｵﾝﾓｰﾙ3F,36.394954,136.461894,1,石川県小松市沖周辺土地区画整理事業地内仮換地20街区 ｲｵﾝﾓｰﾙ3F
993,石川県,モーリーファンタジー・PALO,モーリーファンタジーかほく,かほく市内日角地内ﾀ25 ｲｵﾝかほく店2階,36.709696,136.701575,1,石川県かほく市内日角地内ﾀ25 ｲｵﾝかほく店2階
731,石川県,タイトー,タイトーステーション 金沢,金沢市片町2-1-7 宇都宮片町ﾋﾞﾙ1F,36.561331,136.653057,1,石川県金沢市片町2-1-7 宇都宮片町ﾋﾞﾙ1F
548,石川県,その他,セガイオンタウン金沢示野,金沢市戸板西2-1,36.579065,136.615974,1,石川県金沢市戸板西2-1
347,石川県,その他,アル・プラザ金沢,金沢市諸江町30-1,36.590795,136.645661,1,石川県金沢市諸江町30-1
335,石川県,その他,アミュージアム津幡,河北郡津幡町北中条1丁目1番地ｱﾙ･ﾌﾟﾗｻﾞ津幡2F,36.661316,136.725625,1,石川県河北郡津幡町北中条1丁目1番地ｱﾙ･ﾌﾟﾗｻﾞ津幡2F
327,石川県,その他,アミュージアム小松,小松市園町ﾊ23-1ｱﾙ･ﾌﾟﾗｻﾞ小松店2F,36.406438,136.460598,1,石川県小松市園町ﾊ23-1ｱﾙ･ﾌﾟﾗｻﾞ小松店2F
311,石川県,その他,アピナ野々市,野々市市白山町4-1 ｲｵﾝﾀｳﾝ野々市店内,36.526848,136.613098,2,石川県野々市市白山町4-1 ｲｵﾝﾀｳﾝ野々市店内
260,石川県,その他,アピタ松任店ゲームコーナー,白山市幸明町280番地ｱﾋﾟﾀ松任店2F,36.516588,136.57724,1,石川県白山市幸明町280番地ｱﾋﾟﾀ松任店2F
259,石川県,その他,アピタ松任,白山市幸明町280,36.516165,136.576905,1,石川県白山市幸明町280
252,石川県,その他,アピタ金沢,金沢市中村町10番20号,36.558656,136.642937,1,石川県金沢市中村町10番20号
54,石川県,namco,namcoイオンモールかほく店,かほく市内日角ﾀ25ｲｵﾝﾓｰﾙかほく内,36.709696,136.701575,1,石川県かほく市内日角ﾀ25ｲｵﾝﾓｰﾙかほく内
32,石川県,その他,MIRAINO イオンモール白山,白山市横江町土地区画整理事業施行地区内1街区 ｲｵﾝﾓｰﾙ白山3階,36.544466,136.581866,2,石川県白山市横江町土地区画整理事業施行地区内1街区 ｲｵﾝﾓｰﾙ白山3階
1425,福井県,その他,レッツワクワク ベル,福井市花堂南2丁目16-1 ｼｮｯﾋﾟﾝｸﾞｼﾃｨﾍﾞﾙ2F,36.033392,136.212143,1,福井県福井市花堂南2丁目16-1 ｼｮｯﾋﾟﾝｸﾞｼﾃｨﾍﾞﾙ2F
1424,福井県,その他,レッツワクワク エルパ,福井市大和田町2丁目1212番地 ﾗﾌﾞﾘｰﾊﾟｰﾄﾅLpa2F,36.095593,136.249644,1,福井県福井市大和田町2丁目1212番地 ﾗﾌﾞﾘｰﾊﾟｰﾄﾅLpa2F
1414,福井県,その他,レジャーランドワイプラザ,福井市新保町7-9-1ﾔｽｻｷﾜｲﾌﾟﾗｻﾞB棟2F,36.08631,136.249318,1,福井県福井市新保町7-9-1ﾔｽｻｷﾜｲﾌﾟﾗｻﾞB棟2F
1324,福井県,モーリーファンタジー・PALO,モーリーファンタジー福井,福井市松城町12-7 ﾊﾟﾘｵCITY2F,36.062257,136.240745,1,福井県福井市松城町12-7 ﾊﾟﾘｵCITY2F
1123,福井県,モーリーファンタジー・PALO,モーリーファンタジー鯖江,鯖江市下河端16 字下町16-1ｱﾙ･ﾌﾟﾗｻﾞ鯖江店2階,35.969307,136.189513,1,福井県鯖江市下河端16 字下町16-1ｱﾙ･ﾌﾟﾗｻﾞ鯖江店2階
577,福井県,その他,セガワールド武生,越前市新町3-13-4,35.905223,136.153446,1,福井県越前市新町3-13-4
345,福井県,その他,アル・プラザアミ,坂井市春江町随応寺16-11,36.134842,136.219025,1,福井県坂井市春江町随応寺16-11
200,福井県,モーリーファンタジー・PALO,PALO武生,越前市横市町28-14-1 ｴｽｶﾓｰﾙ武生楽市店2F,35.907014,136.192975,1,福井県越前市横市町28-14-1 ｴｽｶﾓｰﾙ武生楽市店2F
106,福井県,namco,namcoフェアモール福井大和田店,福井市大和田2-1230ｱﾋﾟﾀ福井大和田店2F,36.096918,136.250414,1,福井県福井市大和田2-1230ｱﾋﾟﾀ福井大和田店2F
36,福井県,namco,namcoMEGAドン・キホーテUNY福井店,福井市飯塚町11-111MEGAﾄﾞﾝ･ｷﾎｰﾃUNY福井店2F,36.06599,136.183223,1,福井県福井市飯塚町11-111MEGAﾄﾞﾝ･ｷﾎｰﾃUNY福井店2F
1379,山梨県,ヨドバシカメラ,ヨドバシカメラマルチメディア甲府,甲府市丸の内1-3-3,35.666103,138.569464,1,山梨県甲府市丸の内1-3-3
1198,山梨県,モーリーファンタジー・PALO,モーリーファンタジー石和,笛吹市石和町駅前16-1 ｲｵﾝ3F,35.656273,138.635183,1,山梨県笛吹市石和町駅前16-1 ｲｵﾝ3F
1093,山梨県,モーリーファンタジー・PALO,モーリーファンタジー甲府昭和,中巨摩郡昭和町飯喰1505-1 ｲｵﾝ3階,35.623317,138.527159,1,山梨県中巨摩郡昭和町飯喰1505-1 ｲｵﾝ3階
1009,山梨県,モーリーファンタジー・PALO,モーリーファンタジービバモール甲斐敷島,甲斐市中下条2000--1 ﾋﾞﾊﾞﾓｰﾙ甲斐敷島店2F,35.679269,138.53473,1,山梨県甲斐市中下条2000--1 ﾋﾞﾊﾞﾓｰﾙ甲斐敷島店2F
933,山梨県,その他,プラサカプコン甲府,中巨摩郡昭和町西条字北河原3717,35.638619,138.541234,1,山梨県中巨摩郡昭和町西条字北河原3717
678,山梨県,その他,タイトーFステーション ラザウォーク甲斐双葉,甲斐市志田字柿木616-1,35.687745,138.482474,1,山梨県甲斐市志田字柿木616-1
406,山梨県,イトーヨーカドー,イトーヨーカドー甲府昭和,中巨摩郡昭和町西条13-1,35.639616,138.543952,1,山梨県中巨摩郡昭和町西条13-1
336,山梨県,その他,アミュージアム南アルプス,南アルプス市小笠原1423-1ｽｰﾊﾟｰｾﾝﾀｰﾄﾗｲｱﾙ南ｱﾙﾌﾟｽ店1F,35.618006,138.46679,1,山梨県南アルプス市小笠原1423-1ｽｰﾊﾟｰｾﾝﾀｰﾄﾗｲｱﾙ南ｱﾙﾌﾟｽ店1F
321,山梨県,その他,アミュージアム河口湖,南都留郡富士河口湖町船津2986河口湖ｼｮｯﾋﾟﾝｸﾞｾﾝﾀｰBELL3F,35.490001,138.763737,1,山梨県南都留郡富士河口湖町船津2986河口湖ｼｮｯﾋﾟﾝｸﾞｾﾝﾀｰBELL3F
1589,長野県,その他,ヤマダデンキテックランドNew佐久本店,佐久市佐久平駅南25-3,36.274808,138.468891,1,長野県佐久市佐久平駅南25-3
1494,長野県,その他,セガ岡谷,岡谷市塚間町２−１−２１,36.065227,138.053033,1,長野県岡谷市塚間町２−１−２１
1493,長野県,その他,セガワールド豊科,安曇野市豊科南穂高１１１５,36.303113,137.922477,1,長野県安曇野市豊科南穂高１１１５
1413,長野県,その他,レイクウォーク岡谷店ゲームコーナー,岡谷市銀座1-1-5ﾚｲｸｳｫｰｸ岡谷2F,36.066073,138.051991,1,長野県岡谷市銀座1-1-5ﾚｲｸｳｫｰｸ岡谷2F
1313,長野県,モーリーファンタジー・PALO,モーリーファンタジー飯田アップルロード,飯田市鼎一色456 ｲｵﾝ飯田ｱｯﾌﾟﾙﾛｰﾄﾞ店2階,35.500477,137.816526,1,長野県飯田市鼎一色456 ｲｵﾝ飯田ｱｯﾌﾟﾙﾛｰﾄﾞ店2階
1290,長野県,モーリーファンタジー・PALO,モーリーファンタジー南松本,松本市双葉5-20 ｲｵﾝ南松本店2階,36.208113,137.965587,1,長野県松本市双葉5-20 ｲｵﾝ南松本店2階
1240,長野県,モーリーファンタジー・PALO,モーリーファンタジー中野,中野市大字一本木252-1 ｲｵﾝ中野店2階,36.758753,138.372468,1,長野県中野市大字一本木252-1 ｲｵﾝ中野店2階
1169,長野県,モーリーファンタジー・PALO,モーリーファンタジー上田,上田市常田2-12-18 ｲｵﾝ上田店2階,36.392144,138.257705,1,長野県上田市常田2-12-18 ｲｵﾝ上田店2階
1164,長野県,モーリーファンタジー・PALO,モーリーファンタジー松本,松本市中央4-9-51 ｲｵﾝｽﾀｲﾙ松本店内3F,36.233878,137.978978,1,長野県松本市中央4-9-51 ｲｵﾝｽﾀｲﾙ松本店内3F
703,長野県,タイトー,タイトーステーション アイシティ21松本,東筑摩郡山形村7977 ｱｲｼﾃｨ21内,36.184412,137.892633,1,長野県東筑摩郡山形村7977 ｱｲｼﾃｨ21内
631,長野県,その他,ソユーゲームフィールド 長野三輪,長野市三輪九丁目43番24号ｲｵﾝﾀｳﾝ長野三輪2F,36.669703,138.207174,1,長野県長野市三輪九丁目43番24号ｲｵﾝﾀｳﾝ長野三輪2F
593,長野県,その他,GiGO松本,松本市渚1-7-1 なぎさﾗｲﾌｻｲﾄ内,36.233331,137.95562,1,長野県松本市渚1-7-1 なぎさﾗｲﾌｻｲﾄ内
528,長野県,その他,ジョーシン長野インター,長野市篠ﾉ井杵淵480-1,36.581647,138.179015,1,長野県長野市篠ﾉ井杵淵480-1
375,長野県,イトーヨーカドー,イトーヨーカドーアリオ上田,上田市天神3-51,36.400542,138.241219,1,長野県上田市天神3-51
357,長野県,その他,イオンモール佐久平ゲームコーナー,佐久市佐久平駅南11-10ｲｵﾝﾓｰﾙ佐久平2F,36.275507,138.464025,1,長野県佐久市佐久平駅南11-10ｲｵﾝﾓｰﾙ佐久平2F
308,長野県,その他,アピナ穂高,安曇野市穂高2450,36.334634,137.891993,1,長野県安曇野市穂高2450
299,長野県,その他,アピナ長野大橋,長野市若里7-9-12,36.626537,138.200368,1,長野県長野市若里7-9-12
298,長野県,その他,アピナ長野村山,長野市村山502-1,36.668027,138.263419,1,長野県長野市村山502-1
297,長野県,その他,アピナ長野川中島,長野市川中島町御厨967-1,36.598095,138.157596,1,長野県長野市川中島町御厨967-1
291,長野県,その他,アピナ上田,上田市秋和359-1,36.416009,138.223416,1,長野県上田市秋和359-1
289,長野県,その他,アピナ松本,松本市双葉19-10,36.210527,137.961503,1,長野県松本市双葉19-10
284,長野県,その他,アピナ佐久インター,佐久市岩村田北1-13-1,36.284225,138.482709,1,長野県佐久市岩村田北1-13-1
278,長野県,その他,アピナ塩尻,塩尻市広丘野村1794-1,36.141547,137.953752,1,長野県塩尻市広丘野村1794-1
277,長野県,その他,アピナ伊那,伊那市西町5093,35.833764,137.950896,1,長野県伊那市西町5093
269,長野県,その他,アピタ飯田店ゲームコーナー,飯田市鼎名古熊2461ｱﾋﾟﾀ飯田店,35.500069,137.829739,1,長野県飯田市鼎名古熊2461ｱﾋﾟﾀ飯田店
249,長野県,その他,アピタ岡谷,岡谷市銀座1-1-5,36.066286,138.052142,1,長野県岡谷市銀座1-1-5
245,長野県,その他,アピタ伊那,伊那市西町5182-1,35.831933,137.949808,1,長野県伊那市西町5182-1
222,長野県,その他,THE 3RD PLANET 長野大通り,長野市大字鶴賀権堂町1506-3 長電権堂第2ﾋﾞﾙ1F,36.653226,138.192057,2,長野県長野市大字鶴賀権堂町1506-3 長電権堂第2ﾋﾞﾙ1F
191,長野県,モーリーファンタジー・PALO,PALO諏訪,諏訪市沖田町5-18 諏訪ｽﾃｰｼｮﾝﾊﾟｰｸ1F･2F,36.004581,138.130181,1,長野県諏訪市沖田町5-18 諏訪ｽﾃｰｼｮﾝﾊﾟｰｸ1F･2F
45,長野県,namco,namcoアリオ上田店,上田市天神3-5-1ｱﾘｵ上田1F,36.399261,138.244577,1,長野県上田市天神3-5-1ｱﾘｵ上田1F
1575,岐阜県,モーリーファンタジー・PALO,モーリーファンタジー土岐,土岐市土岐津町土岐口1372番地-1 ,35.348848,137.155006,1,岐阜県土岐市土岐津町土岐口1372番地-1 
1537,岐阜県,その他,MIRANOイオンモール土岐店,土岐市土岐津町土岐口1372番地-1 ,35.348848,137.155006,2,岐阜県土岐市土岐津町土岐口1372番地-1 
1448,岐阜県,その他,大垣メトロポリス,大垣市三塚町字西沼523番地1,35.366173,136.630715,1,岐阜県大垣市三塚町字西沼523番地1
1412,岐阜県,その他,ルビットランド高山,高山市岡本町3-18-2 ﾙﾋﾞｯﾄﾀｳﾝ2F,36.149382,137.247064,1,岐阜県高山市岡本町3-18-2 ﾙﾋﾞｯﾄﾀｳﾝ2F
1406,岐阜県,その他,ラウンドワンモレラ岐阜,本巣市三橋1100,35.45493,136.672628,1,岐阜県本巣市三橋1100
1219,岐阜県,モーリーファンタジー・PALO,モーリーファンタジー大垣,大垣市外野2-100 ｲｵﾝ大垣店2階,35.336728,136.612524,1,岐阜県大垣市外野2-100 ｲｵﾝ大垣店2階
1214,岐阜県,モーリーファンタジー・PALO,モーリーファンタジー多治見,多治見市西坂町5-31-1 多治見ｲﾝﾀｰﾓｰﾙ1F,35.349627,137.104998,1,岐阜県多治見市西坂町5-31-1 多治見ｲﾝﾀｰﾓｰﾙ1F
1062,岐阜県,モーリーファンタジー・PALO,モーリーファンタジー岐阜,岐阜市正木中1-2-1 ｲｵﾝ岐阜店2階,35.447754,136.744829,1,岐阜県岐阜市正木中1-2-1 ｲｵﾝ岐阜店2階
1059,岐阜県,モーリーファンタジー・PALO,モーリーファンタジー関,関市倉知516 ｻﾝｻﾝｼﾃｨﾏｰｺﾞ1Fｲｵﾝ関店1階,35.477821,136.899905,1,岐阜県関市倉知516 ｻﾝｻﾝｼﾃｨﾏｰｺﾞ1Fｲｵﾝ関店1階
1054,岐阜県,モーリーファンタジー・PALO,モーリーファンタジー各務原,各務原市那加萱場町3-8 ｲｵﾝ各務原店3階,35.39172,136.824479,1,岐阜県各務原市那加萱場町3-8 ｲｵﾝ各務原店3階
979,岐阜県,モーリーファンタジー・PALO,モーリーファンタジーf岐阜,岐阜市正木中1-2-1 ﾏｰｻ21北館3Fｲｵﾝ岐阜店3階,35.447754,136.744829,2,岐阜県岐阜市正木中1-2-1 ﾏｰｻ21北館3Fｲｵﾝ岐阜店3階
869,岐阜県,その他,ピアゴ多治見,多治見市住吉町3-19-1 ﾋﾟｱｺﾞ多治見店,35.34371,137.122777,1,岐阜県多治見市住吉町3-19-1 ﾋﾟｱｺﾞ多治見店
868,岐阜県,その他,バロー萩原,下呂市萩原町大字花池字川原164-1 ﾊﾞﾛｰ萩原店,35.875361,137.210581,1,岐阜県下呂市萩原町大字花池字川原164-1 ﾊﾞﾛｰ萩原店
867,岐阜県,その他,バローランド中津川,中津川市淀川町3-8 ﾙﾋﾞｯﾄﾀｳﾝ2F,35.498169,137.507393,1,岐阜県中津川市淀川町3-8 ﾙﾋﾞｯﾄﾀｳﾝ2F
866,岐阜県,その他,バローランド羽島,羽島市江吉良町2939 ﾊﾞﾛｰ羽島ｲﾝﾀｰ店1F,35.305163,136.691692,1,岐阜県羽島市江吉良町2939 ﾊﾞﾛｰ羽島ｲﾝﾀｰ店1F
564,岐阜県,その他,セガワールドアクアウォーク大垣,大垣市林町6-80-21 ｱｸｱｳｫｰｸ大垣2F,35.369882,136.6173,2,岐阜県大垣市林町6-80-21 ｱｸｱｳｫｰｸ大垣2F
562,岐阜県,その他,GiGOマーゴ関,関市倉知516,35.479646,136.901587,1,岐阜県関市倉知516
350,岐阜県,その他,アル・プラザ鶴見,大垣市鶴見町字上渡瀬641-2,35.361539,136.640365,1,岐阜県大垣市鶴見町字上渡瀬641-2
309,岐阜県,その他,アピナ本巣,本巣市政田字下西浦1986 ｲｵﾝﾀｳﾝ本巣内,35.432146,136.640963,1,岐阜県本巣市政田字下西浦1986 ｲｵﾝﾀｳﾝ本巣内
281,岐阜県,その他,アピナ各務原,各務原市蘇原花園町2-9,35.412085,136.848068,1,岐阜県各務原市蘇原花園町2-9
273,岐阜県,その他,アピタ北方,本巣郡北方町平成2-3,35.4326,136.681449,1,岐阜県本巣郡北方町平成2-3
263,岐阜県,その他,アピタ大垣,大垣市林町6-80-21,35.369882,136.6173,1,岐阜県大垣市林町6-80-21
255,岐阜県,その他,アピタ御嵩,可児郡御嵩町上恵土1052-1,35.433926,137.070518,1,岐阜県可児郡御嵩町上恵土1052-1
123,岐阜県,namco,namcoモレラ岐阜店,本巣市三橋1100ﾓﾚﾗ岐阜店2F,35.45539,136.673052,1,岐阜県本巣市三橋1100ﾓﾚﾗ岐阜店2F
89,岐阜県,namco,namcoカラフルタウン岐阜店,岐阜市柳津町丸野三丁目3番6ｶﾗﾌﾙﾀｳﾝ岐阜内,35.362902,136.727536,1,岐阜県岐阜市柳津町丸野三丁目3番6ｶﾗﾌﾙﾀｳﾝ岐阜内
64,岐阜県,namco,namcoイオンモール大垣店,大垣市外野2丁目100番地ｲｵﾝﾓｰﾙ大垣店2F,35.337034,136.613272,1,岐阜県大垣市外野2丁目100番地ｲｵﾝﾓｰﾙ大垣店2F
58,岐阜県,namco,namcoイオンモール各務原店,各務原市那加萱場町3-8ｲｵﾝﾓｰﾙ各務原店2F,35.392392,136.821346,2,岐阜県各務原市那加萱場町3-8ｲｵﾝﾓｰﾙ各務原店2F
1592,静岡県,その他,サープラ富士あそびタウン,富士市永田町2-94,35.163559,138.669348,2,静岡県富士市永田町2-94
1547,静岡県,その他,キッズトレイン三島,駿東郡清水町伏見58-1 ｻﾝﾄﾑｰﾝｱﾈｯｸｽ3F,35.108966,138.900482,1,静岡県駿東郡清水町伏見58-1 ｻﾝﾄﾑｰﾝｱﾈｯｸｽ3F
1512,静岡県,その他,GiGO静岡,静岡市葵区七間町4 ,34.97407,138.381506,1,静岡県静岡市葵区七間町4 
1320,静岡県,モーリーファンタジー・PALO,モーリーファンタジー富士宮,富士宮市浅間町1-8 ｲｵﾝ富士宮店2階,35.220595,138.612471,1,静岡県富士宮市浅間町1-8 ｲｵﾝ富士宮店2階
1319,静岡県,モーリーファンタジー・PALO,モーリーファンタジー浜松西,浜松市西区入野町6244-1 ｲｵﾝ浜松西店3階,34.6991,137.689926,1,静岡県浜松市西区入野町6244-1 ｲｵﾝ浜松西店3階
1318,静岡県,モーリーファンタジー・PALO,モーリーファンタジー浜松志都呂,浜松市西区志都呂町2-37-1 ｲｵﾝ3F,34.696654,137.650131,1,静岡県浜松市西区志都呂町2-37-1 ｲｵﾝ3F
1317,静岡県,モーリーファンタジー・PALO,モーリーファンタジー浜松市野,浜松市東区天王町字諏訪1981-3 ｲｵﾝ浜松市野店2階,34.740456,137.764569,1,静岡県浜松市東区天王町字諏訪1981-3 ｲｵﾝ浜松市野店2階
1217,静岡県,モーリーファンタジー・PALO,モーリーファンタジー袋井,袋井市上山梨4-1-の1 ｲｵﾝ袋井店2階,34.784949,137.90293,1,静岡県袋井市上山梨4-1-の1 ｲｵﾝ袋井店2階
1190,静岡県,モーリーファンタジー・PALO,モーリーファンタジー清水,静岡市清水区上原1-6-16 ｲｵﾝ清水店2階,35.009591,138.45863,1,静岡県静岡市清水区上原1-6-16 ｲｵﾝ清水店2階
1187,静岡県,モーリーファンタジー・PALO,モーリーファンタジー裾野,裾野市佐野1039 ﾏｯｸｽﾊﾞﾘｭｰﾍﾞﾙｼﾃｨｰ裾野店,35.175943,138.907848,1,静岡県裾野市佐野1039 ﾏｯｸｽﾊﾞﾘｭｰﾍﾞﾙｼﾃｨｰ裾野店
1166,静岡県,モーリーファンタジー・PALO,モーリーファンタジー焼津,焼津市祢宜島555 ｲｵﾝ焼津店2階,34.839168,138.309799,1,静岡県焼津市祢宜島555 ｲｵﾝ焼津店2階
983,静岡県,モーリーファンタジー・PALO,モーリーファンタジーf富士南,富士市鮫島118-10 ｲｵﾝ富士南SC店2階,35.140927,138.6752,1,静岡県富士市鮫島118-10 ｲｵﾝ富士南SC店2階
973,静岡県,その他,メルヘンランド ウェルディ長泉,駿東郡長泉町下長窪字城山1076-1 ｳｪﾙﾃﾞｨ長泉2F,35.148242,138.891053,1,静岡県駿東郡長泉町下長窪字城山1076-1 ｳｪﾙﾃﾞｨ長泉2F
892,静岡県,ビックカメラ,ビックカメラ浜松,浜松市中区砂山町322-1,34.703422,137.733894,1,静岡県浜松市中区砂山町322-1
856,静岡県,その他,ハローズガーデン島田,島田市宝来町8-2 ｱﾋﾟﾀ島田店2F,34.82777,138.184955,1,静岡県島田市宝来町8-2 ｱﾋﾟﾀ島田店2F
830,静岡県,その他,パレット藤枝,藤枝市前島1-7-10 BiVi藤枝4F,34.847342,138.252961,1,静岡県藤枝市前島1-7-10 BiVi藤枝4F
793,静岡県,その他,トイザらス静岡,静岡市清水区鳥坂860ｸﾚｯｾ静岡2F,35.013202,138.43415,1,静岡県静岡市清水区鳥坂860ｸﾚｯｾ静岡2F
744,静岡県,タイトー,タイトーステーション 新浜松ザザシティ,浜松市中区鍛冶町15番地 ｻﾞｼﾃｨ西館2F,34.704855,137.729186,1,静岡県浜松市中区鍛冶町15番地 ｻﾞｼﾃｨ西館2F
690,静岡県,その他,タイトーFステーション 静岡,静岡市葵区呉服町二丁目5番地4 ふしみや第2ﾋﾞﾙ,34.974614,138.383356,1,静岡県静岡市葵区呉服町二丁目5番地4 ふしみや第2ﾋﾞﾙ
671,静岡県,その他,タイトーFステーション プレ葉ウォーク浜北,浜松市浜北区貴布祢1200番地,34.797673,137.779498,1,静岡県浜松市浜北区貴布祢1200番地
665,静岡県,その他,タイトーFステーション イオン富士宮,富士宮市浅間町1番8号 ｲｵﾝ富士宮ｼｮｯﾋﾟﾝｸﾞｾﾝﾀｰ3階,35.220595,138.612471,1,静岡県富士宮市浅間町1番8号 ｲｵﾝ富士宮ｼｮｯﾋﾟﾝｸﾞｾﾝﾀｰ3階
659,静岡県,その他,タイトーFステーション イオンモール浜松市野,浜松市東区天王町字諏訪1981-3 ｲｵﾝﾓｰﾙ浜松市野店2F,34.71832,137.780598,1,静岡県浜松市東区天王町字諏訪1981-3 ｲｵﾝﾓｰﾙ浜松市野店2F
654,静岡県,その他,ソユー竜宮タウン 静岡,静岡市駿河区石田一丁目5番1号ｱﾋﾟﾀ静岡SC2F,34.959722,138.401666,1,静岡県静岡市駿河区石田一丁目5番1号ｱﾋﾟﾀ静岡SC2F
606,静岡県,その他,セガ袋井,袋井市川井1142-1,34.746268,137.911503,1,静岡県袋井市川井1142-1
584,静岡県,その他,セガ掛川,掛川市細田248,34.773801,137.985433,1,静岡県掛川市細田248
556,静岡県,その他,GiGO サントムーンオアシス,駿東郡清水町伏見52-1 サントムーンオアシス３階,35.109631,138.901288,2,静岡県駿東郡清水町伏見52-1 サントムーンオアシス３階
409,静岡県,イトーヨーカドー,イトーヨーカドー三島,三島市中田町9-30,35.114137,138.91922,1,静岡県三島市中田町9-30
343,静岡県,その他,アミューズメントパーク静岡,静岡市葵区柚木191 MARKIS静岡3階,34.984471,138.409542,2,静岡県静岡市葵区柚木191 MARKIS静岡3階
331,静岡県,その他,アミュージアム清水,静岡市清水区入船町13-15ｴｽﾊﾟﾙｽﾄﾞﾘｰﾑﾌﾟﾗｻﾞ3F,35.010611,138.492824,1,静岡県静岡市清水区入船町13-15ｴｽﾊﾟﾙｽﾄﾞﾘｰﾑﾌﾟﾗｻﾞ3F
304,静岡県,その他,アピナ浜松,浜松市中区葵西2-27-10 ｲｵﾝﾀｳﾝ内,34.767218,137.70724,1,静岡県浜松市中区葵西2-27-10 ｲｵﾝﾀｳﾝ内
302,静岡県,その他,アピナ磐田,磐田市西貝塚横須賀道北3690 ｲｵﾝﾀｳﾝ磐田内,34.72906,137.877071,1,静岡県磐田市西貝塚横須賀道北3690 ｲｵﾝﾀｳﾝ磐田内
270,静岡県,その他,アピタ磐田,磐田市今之浦3-1-11,34.718088,137.856966,1,静岡県磐田市今之浦3-1-11
264,静岡県,その他,アピタ大仁,伊豆の国市吉田字九十分153-1,34.998412,138.944216,1,静岡県伊豆の国市吉田字九十分153-1
211,静岡県,その他,THE 3RD PLANET OZ浜松,浜松市東区宮竹町322番地の1,34.722885,137.765568,1,静岡県浜松市東区宮竹町322番地の1
210,静岡県,その他,THE 3RD PLANET BiVi沼津,沼津市大手町1-1-5 BiVi沼津3F,35.104024,138.860979,2,静岡県沼津市大手町1-1-5 BiVi沼津3F
134,静岡県,namco,namcoららぽーと磐田店,磐田市高見丘1200番地ららぽｰと磐田店2F,34.750592,137.840799,1,静岡県磐田市高見丘1200番地ららぽｰと磐田店2F
41,静岡県,namco,namcoアピタ磐田店,磐田市今之浦3-1-11ｱﾋﾟﾀ磐田店2階,34.718088,137.856966,2,静岡県磐田市今之浦3-1-11ｱﾋﾟﾀ磐田店2階
4,静岡県,その他,AMららぽーと沼津,沼津市東椎路字東荒301-3 ららぽｰと沼津3F,35.118874,138.840259,1,静岡県沼津市東椎路字東荒301-3 ららぽｰと沼津3F
1590,愛知県,その他,アピタ鳴海店,名古屋市緑区鳴海町伝治山3-9,35.09422,136.959655,1,愛知県名古屋市緑区鳴海町伝治山3-9
1587,愛知県,モーリーファンタジー・PALO,モーリーファンタジー新豊川,豊川市白鳥町兎足1-16,34.828128,137.384977,1,愛知県豊川市白鳥町兎足1-16
1573,愛知県,その他,アピナ豊橋,豊橋市藤沢町141 MEGAﾄﾞﾝ･ｷﾎｰﾃ豊橋店ｱﾐｭｰｽﾞﾒﾝﾄ棟1階,35.9712,139.735998,1,愛知県豊橋市藤沢町141 MEGAﾄﾞﾝ･ｷﾎｰﾃ豊橋店ｱﾐｭｰｽﾞﾒﾝﾄ棟1階
1556,愛知県,その他,GiGO岡崎,岡崎市上地3-50-4,34.911482,137.169318,1,愛知県岡崎市上地3-50-4
1530,愛知県,その他,アピナ蒲郡,蒲郡市鹿島町浅井新田1-26 クラスポ蒲郡2階,34.810861,137.193527,1,愛知県蒲郡市鹿島町浅井新田1-26 クラスポ蒲郡2階
1524,愛知県,モーリーファンタジー・PALO,モーリーファンタジーｔ-FACE,豊田市西町6-85-1 t-FACE A館　８階,35.086903,137.154927,2,愛知県豊田市西町6-85-1 t-FACE A館　８階
1515,愛知県,モーリーファンタジー・PALO,モーリーファンタジービバホーム一宮,一宮市羽衣2丁目5?番2号 ビバホーム一宮店内,35.305077,136.812269,1,愛知県一宮市羽衣2丁目5?番2号 ビバホーム一宮店内
1503,愛知県,その他,トイザらス西春日井,西春日井郡豊山町大字豊場字大山139-17,35.250261,136.906992,1,愛知県西春日井郡豊山町大字豊場字大山139-17
1491,愛知県,その他,セガワールド知立,知立市長篠町大山１８−１ギャラリエアピタ１Ｆ,34.997845,137.052979,1,愛知県知立市長篠町大山１８−１ギャラリエアピタ１Ｆ
1487,愛知県,その他,GiGOプライムツリー赤池,日進市赤池町箕ノ手１番,35.108621,137.024397,1,愛知県日進市赤池町箕ノ手１番
1471,愛知県,namco,namcoリーフウォーク稲沢店,稲沢市下津穂所１丁目1番地1 リーフウォーク稲沢ツリー棟 2階,35.259141,136.8194,1,愛知県稲沢市下津穂所１丁目1番地1 リーフウォーク稲沢ツリー棟 2階
1470,愛知県,namco,namco則武新町店,名古屋市西区名古屋市西区則武新町３−１−１７ イオンモール名古屋ノリタケガーデン内,35.18011,136.879982,2,愛知県名古屋市西区名古屋市西区則武新町３−１−１７ イオンモール名古屋ノリタケガーデン内
1465,愛知県,その他,豊川メトロポリス,豊川市下長山町上ｱﾗｲ14-1,34.802452,137.384578,1,愛知県豊川市下長山町上ｱﾗｲ14-1
1449,愛知県,その他,中川メトロポリス,名古屋市中川区江松三丁目110番地,35.125371,136.823828,1,愛知県名古屋市中川区江松三丁目110番地
1441,愛知県,その他,西友岡崎店(バンダイナムコ),岡崎市戸崎町越舞2-1西友岡崎店2F,34.931601,137.165536,1,愛知県岡崎市戸崎町越舞2-1西友岡崎店2F
1438,愛知県,その他,小牧メトロポリス,小牧市小牧市間々片山181番地,35.297765,136.909811,1,愛知県小牧市小牧市間々片山181番地
1428,愛知県,その他,安城メトロポリス,安城市浜富町6-8,34.955442,137.097109,1,愛知県安城市浜富町6-8
1386,愛知県,ヨドバシカメラ,ヨドバシカメラマルチメディア名古屋松坂屋,名古屋市中区栄3-16-1,35.165291,136.907902,1,愛知県名古屋市中区栄3-16-1
1351,愛知県,モーリーファンタジー・PALO,モーリーファンタジー木曽川,一宮市木曽川町黒田字南八ﾂヶ池25-1 ｲｵﾝ木曽川店2階,35.348611,136.773611,1,愛知県一宮市木曽川町黒田字南八ﾂヶ池25-1 ｲｵﾝ木曽川店2階
1345,愛知県,モーリーファンタジー・PALO,モーリーファンタジー名古屋東,名古屋市名東区猪子石原2-1701 ｲｵﾝﾘﾃｰﾙ名古屋東店1F,35.194959,136.993888,1,愛知県名古屋市名東区猪子石原2-1701 ｲｵﾝﾘﾃｰﾙ名古屋東店1F
1344,愛知県,モーリーファンタジー・PALO,モーリーファンタジー名古屋茶屋,名古屋市港区西茶屋2-11 ｲｵﾝ名古屋茶屋店3階,35.102708,136.825019,1,愛知県名古屋市港区西茶屋2-11 ｲｵﾝ名古屋茶屋店3階
1337,愛知県,モーリーファンタジー・PALO,モーリーファンタジー豊田,豊田市広路町1-1 ｲｵﾝｽﾀｲﾙ豊田3階,35.078366,137.159651,1,愛知県豊田市広路町1-1 ｲｵﾝｽﾀｲﾙ豊田3階
1336,愛知県,モーリーファンタジー・PALO,モーリーファンタジー豊川,豊川市開運通り2-31 ｲｵﾝ豊川店2階,34.827155,137.384425,1,愛知県豊川市開運通り2-31 ｲｵﾝ豊川店2階
1335,愛知県,モーリーファンタジー・PALO,モーリーファンタジー豊橋南,豊橋市野依町字落合1-12 ｲｵﾝ豊橋南店2階,34.709708,137.388251,1,愛知県豊橋市野依町字落合1-12 ｲｵﾝ豊橋南店2階
1322,愛知県,モーリーファンタジー・PALO,モーリーファンタジー扶桑,丹羽郡扶桑町大字南山名字高塚5-1 ｲｵﾝ扶桑店2階,35.361248,136.899842,1,愛知県丹羽郡扶桑町大字南山名字高塚5-1 ｲｵﾝ扶桑店2階
1310,愛知県,モーリーファンタジー・PALO,モーリーファンタジー半田,半田市有楽町8-7 ｲｵﾝ半田店2階,34.869337,136.917943,1,愛知県半田市有楽町8-7 ｲｵﾝ半田店2階
1299,愛知県,モーリーファンタジー・PALO,モーリーファンタジー熱田,名古屋市熱田区六野一-2-11 ｲｵﾝ熱田店2階,35.137187,136.908907,1,愛知県名古屋市熱田区六野一-2-11 ｲｵﾝ熱田店2階
1271,愛知県,モーリーファンタジー・PALO,モーリーファンタジー東浦,知多郡東浦町大字緒川字旭13-2 ｲｵﾝ東浦店1階,34.97885,136.974141,1,愛知県知多郡東浦町大字緒川字旭13-2 ｲｵﾝ東浦店1階
1245,愛知県,モーリーファンタジー・PALO,モーリーファンタジー長久手,長久手市長久手中央土地区画整理地5､10､11街区 ｲｵﾝ3階,35.184115,137.048533,1,愛知県長久手市長久手中央土地区画整理地5､10､11街区 ｲｵﾝ3階
1223,愛知県,モーリーファンタジー・PALO,モーリーファンタジー大高,名古屋市緑区南大高2-450 ｲｵﾝ大高店3階,35.051976,136.948162,1,愛知県名古屋市緑区南大高2-450 ｲｵﾝ大高店3階
1188,愛知県,モーリーファンタジー・PALO,モーリーファンタジー瀬戸みずの,瀬戸市みずの坂2-253 ｲｵﾝ瀬戸みずの店2階,35.243042,137.067533,1,愛知県瀬戸市みずの坂2-253 ｲｵﾝ瀬戸みずの店2階
1171,愛知県,モーリーファンタジー・PALO,モーリーファンタジー常滑,常滑市りんくう町2-20-3 ｲｵﾝｽﾀｲﾙ常滑2F,34.880333,136.826609,1,愛知県常滑市りんくう町2-20-3 ｲｵﾝｽﾀｲﾙ常滑2F
1155,愛知県,モーリーファンタジー・PALO,モーリーファンタジー春日井,春日井市柏井町4-17 ｲｵﾝ春日井店4階,35.238021,136.962444,1,愛知県春日井市柏井町4-17 ｲｵﾝ春日井店4階
1147,愛知県,モーリーファンタジー・PALO,モーリーファンタジー守山,名古屋市守山区笹ヶ根3-1228 ｲｵﾝ守山店2階,35.234952,137.003892,1,愛知県名古屋市守山区笹ヶ根3-1228 ｲｵﾝ守山店2階
1128,愛知県,モーリーファンタジー・PALO,モーリーファンタジー三好,みよし市三好町青木91 ｲｵﾝ三好店2階,35.092288,137.07954,1,愛知県みよし市三好町青木91 ｲｵﾝ三好店2階
1048,愛知県,モーリーファンタジー・PALO,モーリーファンタジー岡崎南,岡崎市戸崎町字ばら山1-1 ｲｵﾝ岡崎南店3階,34.938966,137.164755,1,愛知県岡崎市戸崎町字ばら山1-1 ｲｵﾝ岡崎南店3階
1047,愛知県,モーリーファンタジー・PALO,モーリーファンタジー岡崎,岡崎市上六名町字宮前1 ｼｮｯﾋﾟﾝｸﾞｾﾝﾀｰｺﾑﾀｳﾝ1F,34.951211,137.156036,1,愛知県岡崎市上六名町字宮前1 ｼｮｯﾋﾟﾝｸﾞｾﾝﾀｰｺﾑﾀｳﾝ1F
1024,愛知県,モーリーファンタジー・PALO,モーリーファンタジーワンダーシティ,名古屋市西区二方町40 ｲｵﾝﾜﾝﾀﾞｰｼﾃｨ店3階,35.225921,136.88428,1,愛知県名古屋市西区二方町40 ｲｵﾝﾜﾝﾀﾞｰｼﾃｨ店3階
1019,愛知県,モーリーファンタジー・PALO,モーリーファンタジーメガドンキ大和,一宮市大和町毛受字一本松19 ﾒｶﾞﾄﾞﾝｷUNY一宮大和店2F,35.296765,136.783073,1,愛知県一宮市大和町毛受字一本松19 ﾒｶﾞﾄﾞﾝｷUNY一宮大和店2F
1005,愛知県,モーリーファンタジー・PALO,モーリーファンタジーナゴヤドーム前,名古屋市東区矢田南4-102-3 ｲｵﾝ3階,35.188883,136.944693,1,愛知県名古屋市東区矢田南4-102-3 ｲｵﾝ3階
982,愛知県,モーリーファンタジー・PALO,モーリーファンタジーf新瑞橋,名古屋市南区菊住1-7-10 ｲｵﾝ新瑞橋店3階,35.114758,136.935923,1,愛知県名古屋市南区菊住1-7-10 ｲｵﾝ新瑞橋店3階
940,愛知県,その他,プラサカプコン徳重,名古屋市緑区鳴海町字徳重18番地44 ﾋﾙｽﾞｳｫｰｸ徳重ﾞｶﾞｰﾃﾞﾝｽﾞ棟2F,35.088398,137.001162,1,愛知県名古屋市緑区鳴海町字徳重18番地44 ﾋﾙｽﾞｳｫｰｸ徳重ﾞｶﾞｰﾃﾞﾝｽﾞ棟2F
929,愛知県,その他,プラサカプコン稲沢,稲沢市長野7丁目1番2 ﾘｰﾌｳｫｰｸ稲沢2F,35.259125,136.819367,1,愛知県稲沢市長野7丁目1番2 ﾘｰﾌｳｫｰｸ稲沢2F
906,愛知県,その他,ファンタジーウエストタウン西尾,西尾市高畠町3-23-9 ｳﾞｪﾙｻｳｫｰｸ西尾店3F,34.863911,137.059321,1,愛知県西尾市高畠町3-23-9 ｳﾞｪﾙｻｳｫｰｸ西尾店3F
905,愛知県,その他,ファミリーランド ドリーム,田原市田原町南新地76-1,34.672355,137.274535,1,愛知県田原市田原町南新地76-1
904,愛知県,その他,ファミリーアミューズメント新城,新城市宮ﾉ後68 ﾋﾟｱｺﾞ新城店2F,34.903486,137.4951,1,愛知県新城市宮ﾉ後68 ﾋﾟｱｺﾞ新城店2F
894,愛知県,ビックカメラ,ビックカメラ名古屋駅西,名古屋市中村区椿町6-9,35.170302,136.87956,1,愛知県名古屋市中村区椿町6-9
893,愛知県,ビックカメラ,ビックカメラ名古屋JRゲートタワー,名古屋市中村区名駅1-1-39.10階,35.170616,136.882832,1,愛知県名古屋市中村区名駅1-1-39.10階
874,愛知県,ビックカメラ,ビックカメラプライムツリー赤池,日進市赤池町箕ﾉ手1番3階,35.119015,137.020377,1,愛知県日進市赤池町箕ﾉ手1番3階
838,愛知県,その他,ハローズガーデン安城南,安城市桜井町貝戸尻60 ｱﾋﾟﾀ安城南店2F,34.920238,137.087584,1,愛知県安城市桜井町貝戸尻60 ｱﾋﾟﾀ安城南店2F
835,愛知県,その他,ハローズガーデン ワンダーフォレスト江南西,江南市松竹町上野205 VIAMALLｱﾋﾟﾀ江南西店2F,35.343146,136.855164,1,愛知県江南市松竹町上野205 VIAMALLｱﾋﾟﾀ江南西店2F
808,愛知県,その他,トイザらス名古屋中川,名古屋市中川区新家1-2421ｱｽﾞﾊﾟｰｸ2F,35.157083,136.806281,1,愛知県名古屋市中川区新家1-2421ｱｽﾞﾊﾟｰｸ2F
770,愛知県,タイトー,タイトーステーションフェドラ大須,名古屋市中区大須3-30-31 萬松寺駐車場ﾋﾞﾙ1階･2階,35.159419,136.905414,2,愛知県名古屋市中区大須3-30-31 萬松寺駐車場ﾋﾞﾙ1階･2階
767,愛知県,タイトー,タイトーステーション 弥富,弥富市五明蒲原1371-4,35.114272,136.718955,1,愛知県弥富市五明蒲原1371-4
758,愛知県,タイトー,タイトーステーション 大須,名古屋市中区大須3-20-7,35.15968,136.904802,2,愛知県名古屋市中区大須3-20-7
716,愛知県,タイトー,タイトーステーション パールシティ稲沢,稲沢市井之口大坪町80-1 ﾊﾟｰﾙｼﾃｨ2F,35.237482,136.818339,1,愛知県稲沢市井之口大坪町80-1 ﾊﾟｰﾙｼﾃｨ2F
649,愛知県,その他,ソユープレイランドソピア 安城,安城市住吉町三丁目1番8号ｲﾄｰﾖｰｶﾄﾞｰ安城店2F,34.984806,137.083168,1,愛知県安城市住吉町三丁目1番8号ｲﾄｰﾖｰｶﾄﾞｰ安城店2F
613,愛知県,その他,セガ尾西,一宮市篭屋3-9-7 ｱｿﾋﾞｯｸｽびさい1F,35.309199,136.771506,1,愛知県一宮市篭屋3-9-7 ｱｿﾋﾞｯｸｽびさい1F
612,愛知県,その他,セガ飯村,豊橋市飯村町字西山25-121,34.749323,137.413953,1,愛知県豊橋市飯村町字西山25-121
609,愛知県,その他,セガ東名ボール,瀬戸市西原町2-114,35.209151,137.06294,1,愛知県瀬戸市西原町2-114
588,愛知県,その他,セガ春日井,春日井市岩野町4180,35.269455,136.959883,1,愛知県春日井市岩野町4180
582,愛知県,その他,セガ安城,安城市百石町2-35-13,34.947333,137.073167,1,愛知県安城市百石町2-35-13
553,愛知県,その他,GIGOイオンモール木曽川,一宮市木曽川町黒田字南八ﾂヶ池25-1 ｲｵﾝﾓｰﾙ木曽川3F?,35.349585,136.773647,1,愛知県一宮市木曽川町黒田字南八ﾂヶ池25-1 ｲｵﾝﾓｰﾙ木曽川3F?
549,愛知県,その他,セガイオンタウン名西,名古屋市西区香呑町6-49-1,35.203999,136.892811,1,愛知県名古屋市西区香呑町6-49-1
547,愛知県,その他,セガイオンタウン刈谷,刈谷市東境町京和1,35.038865,137.028774,1,愛知県刈谷市東境町京和1
543,愛知県,その他,GiGO mozoワンダーシティ,名古屋市西区二方町40 mozoﾜﾝﾀﾞｰｼﾃｨｼﾈﾏ棟,35.227308,136.884499,1,愛知県名古屋市西区二方町40 mozoﾜﾝﾀﾞｰｼﾃｨｼﾈﾏ棟
505,愛知県,その他,ゲームランド岡崎,岡崎市戸崎町字外山38-5 ｲｵﾝﾓｰﾙ岡崎ｼﾈｺﾝ棟3F,34.937085,137.164565,1,愛知県岡崎市戸崎町字外山38-5 ｲｵﾝﾓｰﾙ岡崎ｼﾈｺﾝ棟3F
468,愛知県,その他,カラフルパークイオン有松,名古屋市緑区鳴海町字有松裏200番地 ｲｵﾝﾀｳﾝ有松1F,35.067436,136.972997,1,愛知県名古屋市緑区鳴海町字有松裏200番地 ｲｵﾝﾀｳﾝ有松1F
464,愛知県,その他,カーニバルシードーム,西尾市上町南又七山35-2,34.872829,137.045607,1,愛知県西尾市上町南又七山35-2
443,愛知県,イトーヨーカドー,イトーヨーカドー尾張旭,尾張旭市南原山町石原116-4,35.212497,137.051707,1,愛知県尾張旭市南原山町石原116-4
431,愛知県,イトーヨーカドー,イトーヨーカドー知多,知多市新知東町1-10-1,34.981489,136.866924,1,愛知県知多市新知東町1-10-1
391,愛知県,イトーヨーカドー,イトーヨーカドー安城,安城市住吉町3-1-8,34.985149,137.083549,1,愛知県安城市住吉町3-1-8
361,愛知県,その他,イオン春日井 3Fキッズインタイトー,春日井市柏井町4丁目17番地 ｲｵﾝ春日井店3Fｹﾞｰﾑｺｰﾅｰ,35.238021,136.962444,1,愛知県春日井市柏井町4丁目17番地 ｲｵﾝ春日井店3Fｹﾞｰﾑｺｰﾅｰ
340,愛知県,その他,アミューズファクトリー常滑,常滑市りんくう町二丁目20番3 ｲｵﾝﾓｰﾙ常滑2階,34.882127,136.826363,1,愛知県常滑市りんくう町二丁目20番3 ｲｵﾝﾓｰﾙ常滑2階
334,愛知県,その他,アミュージアム津島,津島市大字津島字北新開351番地ﾖｼﾂﾞﾔ津島本店ｼﾈﾏ館2F,35.175432,136.747136,1,愛知県津島市大字津島字北新開351番地ﾖｼﾂﾞﾔ津島本店ｼﾈﾏ館2F
275,愛知県,その他,アピタ名古屋北,名古屋市北区辻町9-1,35.209451,136.9228,1,愛知県名古屋市北区辻町9-1
274,愛知県,その他,アピタ名古屋空港,西春日井郡豊山町大字豊場字林先1-8,35.245942,136.924823,1,愛知県西春日井郡豊山町大字豊場字林先1-8
266,愛知県,その他,アピタ長久手,愛知郡長久手町戸田谷901-1,35.172568,137.038261,1,愛知県愛知郡長久手町戸田谷901-1
265,愛知県,その他,アピタ大府,大府市明成町4-133,35.021235,136.951801,1,愛知県大府市明成町4-133
257,愛知県,その他,アピタ港,名古屋市港区当知2丁目1501番地,35.109428,136.84778,1,愛知県名古屋市港区当知2丁目1501番地
256,愛知県,その他,アピタ向山,豊橋市向山町字中畑1-1,34.755017,137.401446,1,愛知県豊橋市向山町字中畑1-1
251,愛知県,その他,アピタ刈谷,刈谷市南桜町2-56-1,34.991048,137.004656,1,愛知県刈谷市南桜町2-56-1
250,愛知県,その他,アピタ蒲郡,蒲郡市港町17-10,34.820812,137.225449,1,愛知県蒲郡市港町17-10
248,愛知県,その他,アピタ岡崎北,岡崎市日名北町4-46,34.975102,137.152665,1,愛知県岡崎市日名北町4-46
247,愛知県,その他,アピタ稲沢,稲沢市天池五反田町1,35.25209,136.770069,1,愛知県稲沢市天池五反田町1
246,愛知県,その他,アピタ一宮店,一宮市両郷町1-2,35.310976,136.816542,1,愛知県一宮市両郷町1-2
244,愛知県,その他,アピタ阿久比,知多郡阿久比町椋岡字徳吉1-12,34.920416,136.920567,1,愛知県知多郡阿久比町椋岡字徳吉1-12
243,愛知県,その他,アピタプラス岩倉,岩倉市旭町1-25,35.27651,136.872964,1,愛知県岩倉市旭町1-25
242,愛知県,その他,アニメガ×ソフマップ名古屋店,名古屋市中村区椿町6-9 ﾋﾞｯｸｶﾒﾗ名古屋駅西店店内,35.170266,136.879587,2,愛知県名古屋市中村区椿町6-9 ﾋﾞｯｸｶﾒﾗ名古屋駅西店店内
227,愛知県,その他,アズパークファミリータウン,名古屋市中川区新家1丁目2421番地ｱｽﾞﾊﾟｰｸSC2F,35.157083,136.806281,1,愛知県名古屋市中川区新家1丁目2421番地ｱｽﾞﾊﾟｰｸSC2F
224,愛知県,その他,TSUTAYA東浦,知多郡東浦町大字緒川字上家佐川123-1,34.984332,136.972313,1,愛知県知多郡東浦町大字緒川字上家佐川123-1
205,愛知県,その他,SOYU BREMEN TOWN 鳴海,名古屋市緑区鳴海町字伝治山3番地9ｱﾋﾟﾀ鳴海店2F,35.094024,136.959385,1,愛知県名古屋市緑区鳴海町字伝治山3番地9ｱﾋﾟﾀ鳴海店2F
166,愛知県,その他,NICOPAなるぱーく,名古屋市緑区浦里三丁目232 なるぱｰく2F,35.084437,136.946362,1,愛知県名古屋市緑区浦里三丁目232 なるぱｰく2F
165,愛知県,その他,NICOPAウイングタウン岡崎,岡崎市羽根町小豆坂3番地 ｳｨﾝｸﾞﾀｳﾝ2F,34.923412,137.174793,1,愛知県岡崎市羽根町小豆坂3番地 ｳｨﾝｸﾞﾀｳﾝ2F
159,愛知県,namco,namco名古屋駅前店,名古屋市中村区椿町6-6ﾆｯｾｲ名古屋駅西ﾋﾞﾙ別館B1,35.170512,136.879574,1,愛知県名古屋市中村区椿町6-6ﾆｯｾｲ名古屋駅西ﾋﾞﾙ別館B1
137,愛知県,namco,namcoリソラ大府店,大府市柊山町1丁目98番地ﾘｿﾗ大府ｼｮｯﾋﾟﾝｸﾞﾃﾗｽ2F,35.01633,136.957773,1,愛知県大府市柊山町1丁目98番地ﾘｿﾗ大府ｼｮｯﾋﾟﾝｸﾞﾃﾗｽ2F
135,愛知県,namco,namcoららぽーと名古屋みなとアクルス店,名古屋市港区港明2丁目3番2号ららぽｰと名古屋みなとｱｸﾙｽ店3F,35.10839,136.88259,1,愛知県名古屋市港区港明2丁目3番2号ららぽｰと名古屋みなとｱｸﾙｽ店3F
133,愛知県,namco,namcoららぽーと愛知東郷店,愛知郡東郷町東郷中央土地区画事業62街区1､3ららぽｰと愛知東郷3F,35.098698,137.04693,1,愛知県愛知郡東郷町東郷中央土地区画事業62街区1､3ららぽｰと愛知東郷3F
98,愛知県,namco,namcoテラスウォーク一宮店,一宮市両郷町一丁目2番地ﾃﾗｽｳｫｰｸ一宮2階,35.310497,136.81683,1,愛知県一宮市両郷町一丁目2番地ﾃﾗｽｳｫｰｸ一宮2階
85,愛知県,namco,namcoエアポートウォーク名古屋店,西春日井郡豊山町大字豊場字林先1番地8,35.245942,136.924823,1,愛知県西春日井郡豊山町大字豊場字林先1番地8
69,愛知県,namco,namcoイオンモール熱田店,名古屋市熱田区六野1-2-11ｲｵﾝﾓｰﾙ熱田4F,35.133402,136.910645,1,愛知県名古屋市熱田区六野1-2-11ｲｵﾝﾓｰﾙ熱田4F
67,愛知県,namco,namcoイオンモール長久手店,長久手市長久手中央土地区画整理事業地内5､10､11街区ｲｵﾝﾓｰﾙ長久手3F,35.184115,137.048533,1,愛知県長久手市長久手中央土地区画整理事業地内5､10､11街区ｲｵﾝﾓｰﾙ長久手3F
65,愛知県,namco,namcoイオンモール大高店,名古屋市緑区南大高二丁目450ｲｵﾝﾓｰﾙ大高3F,35.052973,136.947459,2,愛知県名古屋市緑区南大高二丁目450ｲｵﾝﾓｰﾙ大高3F
56,愛知県,namco,namcoイオンモールナゴヤドーム前店,名古屋市東区矢田南4-102-3ｲｵﾝﾓｰﾙﾅｺﾞﾔﾄﾞｰﾑ前3F,35.18706,136.944994,2,愛知県名古屋市東区矢田南4-102-3ｲｵﾝﾓｰﾙﾅｺﾞﾔﾄﾞｰﾑ前3F
40,愛知県,namco,namcoアピタ稲沢店,稲沢市天池五反田町1番地ｱﾋﾟﾀ稲沢店,35.253191,136.771849,1,愛知県稲沢市天池五反田町1番地ｱﾋﾟﾀ稲沢店
24,愛知県,その他,LABI名古屋,名古屋市中村区名駅1-2-5,35.168109,136.884617,1,愛知県名古屋市中村区名駅1-2-5
12,愛知県,その他,GAZA 3Fゲームコーナー,豊田市喜多町1丁目140番地,35.087933,137.157385,1,愛知県豊田市喜多町1丁目140番地
1550,三重県,その他,GIGOアドバンスモール松阪,松阪市田村町235-1,34.555762,136.511889,1,三重県松阪市田村町235-1
1508,三重県,その他,アピタ四日市,四日市市安島1-3-31,34.968315,136.616695,1,三重県四日市市安島1-3-31
1349,三重県,モーリーファンタジー・PALO,モーリーファンタジー明和,多気郡明和町中村長波賀1223 ｲｵﾝ明和店2階,34.581245,136.615412,1,三重県多気郡明和町中村長波賀1223 ｲｵﾝ明和店2階
1270,三重県,モーリーファンタジー・PALO,モーリーファンタジー東員,員弁郡東員町長深字築田510-1 ｲｵﾝﾓｰﾙ3階,35.061724,136.579401,1,三重県員弁郡東員町長深字築田510-1 ｲｵﾝﾓｰﾙ3階
1254,三重県,モーリーファンタジー・PALO,モーリーファンタジー津南,津市高茶屋小森町145 ｲｵﾝﾓｰﾙ津南3F,34.671004,136.517917,1,三重県津市高茶屋小森町145 ｲｵﾝﾓｰﾙ津南3F
1252,三重県,モーリーファンタジー・PALO,モーリーファンタジー津城山,津市久居小野辺町1130-7 ﾏｯｸｽﾊﾞﾘｭ津城山店2階,34.679385,136.501568,1,三重県津市久居小野辺町1130-7 ﾏｯｸｽﾊﾞﾘｭ津城山店2階
1162,三重県,モーリーファンタジー・PALO,モーリーファンタジー松阪,松阪市船江町1392-27 ｲｵﾝ松阪店3階,34.594255,136.523535,1,三重県松阪市船江町1392-27 ｲｵﾝ松阪店3階
1138,三重県,モーリーファンタジー・PALO,モーリーファンタジー四日市北,四日市市富州原町2-40 ｲｵﾝ四日市北店2階,35.007976,136.656221,1,三重県四日市市富州原町2-40 ｲｵﾝ四日市北店2階
1137,三重県,モーリーファンタジー・PALO,モーリーファンタジー四日市尾平,四日市市尾平町字天王川原1805 ｲｵﾝ四日市尾平店3階,34.977404,136.591078,1,三重県四日市市尾平町字天王川原1805 ｲｵﾝ四日市尾平店3階
1136,三重県,モーリーファンタジー・PALO,モーリーファンタジー四日市泊,四日市市泊小柳町4-5 ｲｵﾝﾀｳﾝ四日市泊店2F,34.939619,136.602709,1,三重県四日市市泊小柳町4-5 ｲｵﾝﾀｳﾝ四日市泊店2F
1079,三重県,モーリーファンタジー・PALO,モーリーファンタジー桑名,桑名市新西方1-22 ｲｵﾝ桑名SC1-街3階,35.072291,136.662491,1,三重県桑名市新西方1-22 ｲｵﾝ桑名SC1-街3階
1032,三重県,モーリーファンタジー・PALO,モーリーファンタジー伊勢ララパーク,伊勢市小木町曽弥538 ｲｵﾝﾗﾗﾊﾟｰｸSC2階,34.506494,136.72253,1,三重県伊勢市小木町曽弥538 ｲｵﾝﾗﾗﾊﾟｰｸSC2階
1031,三重県,モーリーファンタジー・PALO,モーリーファンタジー伊賀上野,伊賀市上野茅町2519 ｲｵﾝ伊賀上野店2階,34.760036,136.136641,1,三重県伊賀市上野茅町2519 ｲｵﾝ伊賀上野店2階
1025,三重県,モーリーファンタジー・PALO,モーリーファンタジー阿児,志摩市阿児町鵜方3215 ｲｵﾝ阿児店2階,34.32376,136.828377,1,三重県志摩市阿児町鵜方3215 ｲｵﾝ阿児店2階
988,三重県,モーリーファンタジー・PALO,モーリーファンタジーイオン鈴鹿,鈴鹿市庄野羽山4-1-2 ｲｵﾝ鈴鹿店2階,34.870362,136.532035,1,三重県鈴鹿市庄野羽山4-1-2 ｲｵﾝ鈴鹿店2階
861,三重県,その他,ハローズガーデン鈴鹿,鈴鹿市南玉垣町3628 MEGAﾄﾞﾝ･ｷﾎｰﾃUNY鈴鹿店2F,34.853192,136.582219,1,三重県鈴鹿市南玉垣町3628 MEGAﾄﾞﾝ･ｷﾎｰﾃUNY鈴鹿店2F
711,三重県,タイトー,タイトーステーション イオンモール明和,多気郡明和町中村1223 ｲｵﾝﾓｰﾙ明和2F,34.581139,136.614211,1,三重県多気郡明和町中村1223 ｲｵﾝﾓｰﾙ明和2F
583,三重県,その他,セガ伊勢,伊勢市中須町666,34.492032,136.678306,1,三重県伊勢市中須町666
570,三重県,その他,GiGO久居,津市久居明神町字風早2534-1,34.69112,136.470555,1,三重県津市久居明神町字風早2534-1
525,三重県,その他,ジョーシン四日市泊イオンタウン,四日市市泊小柳町4-5-1ｲｵﾝﾀｳﾝ四日市泊1F,34.938995,136.601307,1,三重県四日市市泊小柳町4-5-1ｲｵﾝﾀｳﾝ四日市泊1F
492,三重県,その他,GiGO名張,名張市希央台3番町15,34.623478,136.103602,1,三重県名張市希央台3番町15
467,三重県,その他,カヨーアミューズパーク,四日市市日永4-2-41,34.948318,136.603904,1,三重県四日市市日永4-2-41
312,三重県,その他,アピナ鈴鹿,鈴鹿市庄野羽山4-20-1 ｲｵﾝﾀｳﾝ鈴鹿2F,34.87202,136.527011,1,三重県鈴鹿市庄野羽山4-20-1 ｲｵﾝﾀｳﾝ鈴鹿2F
286,三重県,その他,アピナ四日市,四日市市泊小柳町4-34,34.939392,136.606975,1,三重県四日市市泊小柳町4-34
258,三重県,その他,アピタ松阪三雲,松阪市市場庄町1266-1,34.604009,136.520564,1,三重県松阪市市場庄町1266-1
253,三重県,その他,アピタ桑名,桑名市中央町3-21,35.064124,136.687909,1,三重県桑名市中央町3-21
182,三重県,モーリーファンタジー・PALO,PALO桑名,桑名市新西方1-22 ｲｵﾝ2F,35.072291,136.662491,1,三重県桑名市新西方1-22 ｲｵﾝ2F
171,三重県,その他,NICOPA四日市北,四日市市富州原町2-40 ｲｵﾝ四日市北店,35.007976,136.656221,1,三重県四日市市富州原町2-40 ｲｵﾝ四日市北店
164,三重県,その他,NICOPAイオン津,津市桜橋3-446 ｲｵﾝ津店2F,34.736742,136.518331,1,三重県津市桜橋3-446 ｲｵﾝ津店2F
163,三重県,その他,NICOPAイオン伊勢,伊勢市楠部町乙160 ｲｵﾝ伊勢店,34.478178,136.731077,1,三重県伊勢市楠部町乙160 ｲｵﾝ伊勢店
76,三重県,namco,namcoイオンモール鈴鹿店,鈴鹿市庄野羽山4-1-2ｲｵﾝﾓｰﾙ鈴鹿2F,34.871766,136.5316,1,三重県鈴鹿市庄野羽山4-1-2ｲｵﾝﾓｰﾙ鈴鹿2F
1557,滋賀県,その他,GiGO甲西,湖南市夏見二ﾂ橋356-1,34.995099,136.097155,1,滋賀県湖南市夏見二ﾂ橋356-1
1517,滋賀県,namco,namcoアルプラザ水口店,甲賀市水口町名坂４１９−１　アルプラザ水口店新館２Ｆ,34.977262,136.172035,1,滋賀県甲賀市水口町名坂４１９−１　アルプラザ水口店新館２Ｆ
1516,滋賀県,namco,namcoビバシティ彦根店,彦根市竹ヶ鼻町４３-１　ビバシティ彦根２Ｆ,35.243791,136.251131,1,滋賀県彦根市竹ヶ鼻町４３-１　ビバシティ彦根２Ｆ
1248,滋賀県,モーリーファンタジー・PALO,モーリーファンタジー長浜,長浜市山階町271-1 ｲｵﾝ長浜店2階,35.396901,136.289495,1,滋賀県長浜市山階町271-1 ｲｵﾝ長浜店2階
1227,滋賀県,モーリーファンタジー・PALO,モーリーファンタジー大津京,大津市皇子が丘3-11-1 ｲｵﾝｽﾀｲﾙ大津京4階,35.024324,135.859529,1,滋賀県大津市皇子が丘3-11-1 ｲｵﾝｽﾀｲﾙ大津京4階
1226,滋賀県,モーリーファンタジー・PALO,モーリーファンタジー大津一里山,大津市一里山7-1-1 ﾌｫﾚｵ大津一里山2F,34.974207,135.933241,1,滋賀県大津市一里山7-1-1 ﾌｫﾚｵ大津一里山2F
1212,滋賀県,モーリーファンタジー・PALO,モーリーファンタジー草津,草津市新浜町300 ｲｵﾝ草津店3階,34.998466,135.910826,1,滋賀県草津市新浜町300 ｲｵﾝ草津店3階
1014,滋賀県,モーリーファンタジー・PALO,モーリーファンタジーベイシア彦根,彦根市馬場2-1-1 1F,35.278323,136.243016,1,滋賀県彦根市馬場2-1-1 1F
985,滋賀県,モーリーファンタジー・PALO,モーリーファンタジーイオン近江八幡,近江八幡市鷹飼町南3-7 ｲｵﾝ近江八幡店3階,35.121825,136.102794,1,滋賀県近江八幡市鷹飼町南3-7 ｲｵﾝ近江八幡店3階
898,滋賀県,その他,ビバシティ平和堂,彦根市竹ｹ鼻町43-1,35.243726,136.250131,1,滋賀県彦根市竹ｹ鼻町43-1
662,滋賀県,その他,タイトーFステーション イオン近江八幡,近江八幡市鷹飼町南3丁目7番地 ｲｵﾝ近江八幡2番街1階,35.120598,136.104662,1,滋賀県近江八幡市鷹飼町南3丁目7番地 ｲｵﾝ近江八幡2番街1階
555,滋賀県,その他,GIGOエイスクエア草津,草津市西渋川1-23-23 A/SQUARE SARA南館2F,35.024197,135.95978,1,滋賀県草津市西渋川1-23-23 A/SQUARE SARA南館2F
500,滋賀県,その他,ゲームフィールド 守山,守山市今浜町2620-5ﾋﾟｴﾘ守山店1F,35.121949,135.945233,1,滋賀県守山市今浜町2620-5ﾋﾟｴﾘ守山店1F
352,滋賀県,その他,アル・プラザ八日市,東近江市八日市浜野町3-1,35.114688,136.197111,1,滋賀県東近江市八日市浜野町3-1
276,滋賀県,その他,アピナキッズパーク大津京,大津市二本松1番1号 BRANCH大津京A棟,35.029516,135.865158,1,滋賀県大津市二本松1番1号 BRANCH大津京A棟
221,滋賀県,その他,THE 3RD PLANET 大津,大津市打出浜14-30 Oh!Me大津ﾃﾗｽ6F,35.004414,135.879514,1,滋賀県大津市打出浜14-30 Oh!Me大津ﾃﾗｽ6F
1541,京都府,その他,イオン伏見,京都市伏見区御堂前町616,34.932494,135.762555,1,京都府京都市伏見区御堂前町616
1466,京都府,その他,北大路ビブレ(キッズカード),京都市北区小山北上総町49-1 北大路ﾋﾞﾌﾞﾚ4階ﾋﾞﾌﾞﾚｺｰｾﾞ,35.044975,135.758233,1,京都府京都市北区小山北上総町49-1 北大路ﾋﾞﾌﾞﾚ4階ﾋﾞﾌﾞﾚｺｰｾﾞ
1377,京都府,ヨドバシカメラ,ヨドバシカメラマルチメディア京都,京都市下京区東塩小路町590-2,34.988352,135.758986,1,京都府京都市下京区東塩小路町590-2
1357,京都府,モーリーファンタジー・PALO,モーリーファンタジー洛北阪急スクエア,京都市左京区左京35 阪急ｶﾅｰﾄ洛北店2F,35.040908,135.778971,1,京都府京都市左京区左京35 阪急ｶﾅｰﾄ洛北店2F
1356,京都府,モーリーファンタジー・PALO,モーリーファンタジー洛南,京都市南区吉祥院御池町31 ｲｵﾝ洛南店2階,34.975208,135.736405,1,京都府京都市南区吉祥院御池町31 ｲｵﾝ洛南店2階
1328,京都府,モーリーファンタジー・PALO,モーリーファンタジー福知山,福知山市岩井79-8 ｲｵﾝ福知山店2階,35.316997,135.100955,1,京都府福知山市岩井79-8 ｲｵﾝ福知山店2階
1095,京都府,モーリーファンタジー・PALO,モーリーファンタジー高の原,木津川市相楽台1-1-1 ｲｵﾝ高の原SC4階,34.725347,135.790538,1,京都府木津川市相楽台1-1-1 ｲｵﾝ高の原SC4階
1081,京都府,モーリーファンタジー・PALO,モーリーファンタジー桂南,京都市南区久世上久世町485 ﾀﾞｲｴｰ桂南店2F,34.967146,135.717186,1,京都府京都市南区久世上久世町485 ﾀﾞｲｴｰ桂南店2F
1068,京都府,モーリーファンタジー・PALO,モーリーファンタジー京都五条,京都市右京区西院追分町25-1 ｲｵﾝ京都五条店2階,34.997534,135.726932,1,京都府京都市右京区西院追分町25-1 ｲｵﾝ京都五条店2階
1067,京都府,モーリーファンタジー・PALO,モーリーファンタジー京都桂川,京都市南区久世高田町376-1 ｲｵﾝ3階,34.963494,135.707054,1,京都府京都市南区久世高田町376-1 ｲｵﾝ3階
1064,京都府,モーリーファンタジー・PALO,モーリーファンタジー久御山,久世郡久御山町森南大内156-1 ｲｵﾝ久御山店2階,34.893096,135.746472,1,京都府久世郡久御山町森南大内156-1 ｲｵﾝ久御山店2階
1030,京都府,モーリーファンタジー・PALO,モーリーファンタジー綾部,綾部市綾中町花ﾉ木30 ﾊﾞｻﾞｰﾙﾀｳﾝ綾部店2F,35.302373,135.257607,1,京都府綾部市綾中町花ﾉ木30 ﾊﾞｻﾞｰﾙﾀｳﾝ綾部店2F
950,京都府,その他,プレイランド 京都,京都市右京区山ﾉ内池尻町1-1京都ﾌｧﾐﾘｰ3F,35.004763,135.720491,1,京都府京都市右京区山ﾉ内池尻町1-1京都ﾌｧﾐﾘｰ3F
872,京都府,ビックカメラ,ビックカメラJR京都駅,京都市下京区東塩小路町927,34.985859,135.755654,1,京都府京都市下京区東塩小路町927
580,京都府,その他,GiGO MOMOテラス京都伏見,京都市伏見区桃山町山ﾉ下32 MOMOﾃﾗｽ別館2F,34.937092,135.794933,1,京都府京都市伏見区桃山町山ﾉ下32 MOMOﾃﾗｽ別館2F
456,京都府,その他,エール東舞鶴,舞鶴市南浜町27-5,35.466172,135.39555,1,京都府舞鶴市南浜町27-5
209,京都府,その他,THE 3RD PLANET BiVi京都二条,京都市中京区西ﾉ京栂尾町107番地 BiVi二条2F,35.010255,135.741216,2,京都府京都市中京区西ﾉ京栂尾町107番地 BiVi二条2F
53,京都府,namco,namcoイオンモールKYOTO店,京都市南区西九条鳥居口町1番地ｲｵﾝﾓｰﾙKYOTO14060,34.982747,135.754598,2,京都府京都市南区西九条鳥居口町1番地ｲｵﾝﾓｰﾙKYOTO14060
49,京都府,namco,namcoアルプラザ城陽店,城陽市富野荒見田112番地ｱﾙ･ﾌﾟﾗｻﾞ城陽4階,34.842453,135.786081,1,京都府城陽市富野荒見田112番地ｱﾙ･ﾌﾟﾗｻﾞ城陽4階
47,京都府,namco,namcoアルプラザ宇治東店,宇治市莵道平町28番地の1ｱﾙﾌﾟﾗｻﾞ宇治東3F,34.902432,135.802042,1,京都府宇治市莵道平町28番地の1ｱﾙﾌﾟﾗｻﾞ宇治東3F
1531,大阪府,その他,アミュージアム枚方,枚方市岡本長7-1 枚方ﾋﾞｵﾙﾈ3F,34.815796,135.646841,1,大阪府枚方市岡本長7-1 枚方ﾋﾞｵﾙﾈ3F
1526,大阪府,モーリーファンタジー・PALO,モーリーファンタジーエコール・いずみ,和泉市いぶき野５丁目１−１１ エコール・いずみ３階,34.459761,135.455908,2,大阪府和泉市いぶき野５丁目１−１１ エコール・いずみ３階
1525,大阪府,モーリーファンタジー・PALO,モーリーファンタジーニトリモール枚方,枚方市北山１丁目２−１ニトリモール枚方,34.838881,135.698015,2,大阪府枚方市北山１丁目２−１ニトリモール枚方
1500,大阪府,その他,GiGOフレスポ東大阪,東大阪市稲田新町３−９−６４,34.692095,135.59132,1,大阪府東大阪市稲田新町３−９−６４
1488,大阪府,その他,GiGO大阪第4ビル,大阪市梅田1-11-4 駅前第4ビルB1F,34.699879,135.498857,1,大阪府大阪市梅田1-11-4 駅前第4ビルB1F
1481,大阪府,その他,GiGOあべのキューズモール,大阪市阿倍野筋１−６−１あべのマーケットパーク キューズモール３Ｆ,34.645353,135.512156,1,大阪府大阪市阿倍野筋１−６−１あべのマーケットパーク キューズモール３Ｆ
1476,大阪府,その他,わくわくアミーゴ尾崎店,阪南市下出167-1オークワわくわくCITY尾崎店2F,34.362068,135.244586,1,大阪府阪南市下出167-1オークワわくわくCITY尾崎店2F
1469,大阪府,namco,namcoセブンパーク松原天美店,松原市松原市天美東３丁目５００番地 セブンパーク天美３Ｆ,34.592506,135.543076,1,大阪府松原市松原市天美東３丁目５００番地 セブンパーク天美３Ｆ
1457,大阪府,その他,あそびのひろば鴻池,東大阪市鴻池町1-1-72ｲｵﾝ鴻池店2F,34.698574,135.603396,1,大阪府東大阪市鴻池町1-1-72ｲｵﾝ鴻池店2F
1454,大阪府,その他,宝島日根野,泉佐野市日根野2496-1 ｲｵﾝﾓｰﾙ日根野2F,34.343579,135.351039,1,大阪府泉佐野市日根野2496-1 ｲｵﾝﾓｰﾙ日根野2F
1450,大阪府,その他,天王寺パスカ,大阪市阿倍野区阿倍野筋2-4-51,34.643866,135.512788,1,大阪府大阪市阿倍野区阿倍野筋2-4-51
1426,大阪府,その他,わくわくアミーゴ河内長野,河内長野市本町24-1 ﾉﾊﾞﾃｨながの北館4F,34.451521,135.572275,1,大阪府河内長野市本町24-1 ﾉﾊﾞﾃｨながの北館4F
1408,大阪府,その他,ラウンドワンららぽーと和泉,和泉市あゆみ野4-4-7 ららぽｰと和泉4階,34.43771,135.448299,1,大阪府和泉市あゆみ野4-4-7 ららぽｰと和泉4階
1403,大阪府,その他,ラウンドワンスタジアム千日前,中央区難波1丁目3番1号,34.667458,135.502828,1,大阪府中央区難波1丁目3番1号
1401,大阪府,その他,ラウンドワンスタジアム堺中央環状,堺市東区石原町2-241,34.556862,135.536539,1,大阪府堺市東区石原町2-241
1400,大阪府,その他,ラウンドワンスタジアム高槻,高槻市辻子3丁目6番4号,34.83264,135.630207,1,大阪府高槻市辻子3丁目6番4号
1396,大阪府,その他,ライフ南津守,大阪市西成区南津守6-1-75,34.627952,135.483217,1,大阪府大阪市西成区南津守6-1-75
1393,大阪府,その他,ライフ関目,大阪市城東区関目1-5-3,34.708864,135.546832,1,大阪府大阪市城東区関目1-5-3
1385,大阪府,ヨドバシカメラ,ヨドバシカメラマルチメディア梅田,大阪市北区大深町1-1,34.703956,135.495979,1,大阪府大阪市北区大深町1-1
1362,大阪府,モーリーファンタジー・PALO,モーリーファンタジー和泉府中,和泉市肥子町2-2-1 ｲｵﾝ和泉府中店4階,34.48588,135.420688,1,大阪府和泉市肥子町2-2-1 ｲｵﾝ和泉府中店4階
1352,大阪府,モーリーファンタジー・PALO,モーリーファンタジー野田阪神,大阪市福島区海老江1-1-23 ｲｵﾝ野田阪神店4階,34.69538,135.475991,1,大阪府大阪市福島区海老江1-1-23 ｲｵﾝ野田阪神店4階
1255,大阪府,モーリーファンタジー・PALO,モーリーファンタジー鶴見緑地,大阪市鶴見区鶴見4-17-1 ｲｵﾝ鶴見店3階,34.704823,135.567067,1,大阪府大阪市鶴見区鶴見4-17-1 ｲｵﾝ鶴見店3階
1244,大阪府,モーリーファンタジー・PALO,モーリーファンタジー長吉,大阪市平野区長吉長原西1-1-10 ｲｵﾝ長吉店4F,34.608246,135.56614,1,大阪府大阪市平野区長吉長原西1-1-10 ｲｵﾝ長吉店4F
1229,大阪府,モーリーファンタジー・PALO,モーリーファンタジー大日,守口市大日東町1-18 ｲｵﾝ大日店2階,34.749561,135.580207,1,大阪府守口市大日東町1-18 ｲｵﾝ大日店2階
1224,大阪府,モーリーファンタジー・PALO,モーリーファンタジー大阪ドームシティ,大阪市西区千代崎3-13-1 ｲｵﾝﾓｰﾙ3階,34.667604,135.476712,1,大阪府大阪市西区千代崎3-13-1 ｲｵﾝﾓｰﾙ3階
1184,大阪府,モーリーファンタジー・PALO,モーリーファンタジー吹田,吹田市朝日町2-101 ｲｵﾝ吹田店4F,34.763042,135.525419,1,大阪府吹田市朝日町2-101 ｲｵﾝ吹田店4F
1139,大阪府,モーリーファンタジー・PALO,モーリーファンタジー四條畷,四條畷市砂4-3-2 ｲｵﾝｽﾀｲﾙ3F,34.747028,135.630597,1,大阪府四條畷市砂4-3-2 ｲｵﾝｽﾀｲﾙ3F
1113,大阪府,モーリーファンタジー・PALO,モーリーファンタジー堺北花田,堺市北区東浅香山町4-1-12 ｲｵﾝ堺北花田店2階,34.584482,135.514728,1,大阪府堺市北区東浅香山町4-1-12 ｲｵﾝ堺北花田店2階
1112,大阪府,モーリーファンタジー・PALO,モーリーファンタジー堺鉄砲町,堺市堺区鉄砲町1 ｲｵﾝｽﾀｲﾙ堺鉄砲町3F,34.594115,135.479865,1,大阪府堺市堺区鉄砲町1 ｲｵﾝｽﾀｲﾙ堺鉄砲町3F
1103,大阪府,モーリーファンタジー・PALO,モーリーファンタジー高槻,高槻市萩之庄3-47-2 ｲｵﾝ高槻店3階,34.858955,135.644317,1,大阪府高槻市萩之庄3-47-2 ｲｵﾝ高槻店3階
1072,大阪府,モーリーファンタジー・PALO,モーリーファンタジー金剛東,富田林市向陽台3-1-1 ｲｵﾝ金剛東店4階,34.50137,135.579903,1,大阪府富田林市向陽台3-1-1 ｲｵﾝ金剛東店4階
1071,大阪府,モーリーファンタジー・PALO,モーリーファンタジー金剛,大阪狭山市半田1-35-1 ｲｵﾝ金剛店3F,34.498211,135.557778,1,大阪府大阪狭山市半田1-35-1 ｲｵﾝ金剛店3F
1061,大阪府,モーリーファンタジー・PALO,モーリーファンタジー喜連瓜破駅前,大阪市平野区瓜破2-1-13 ｲｵﾝ喜連瓜破駅前店3階,34.608292,135.551879,1,大阪府大阪市平野区瓜破2-1-13 ｲｵﾝ喜連瓜破駅前店3階
1052,大阪府,モーリーファンタジー・PALO,モーリーファンタジー貝塚,貝塚市地蔵堂74-2 ｲｵﾝ2階,34.426736,135.355747,1,大阪府貝塚市地蔵堂74-2 ｲｵﾝ2階
1037,大阪府,モーリーファンタジー・PALO,モーリーファンタジー茨木,茨木市松ヶ本町8-30 ｲｵﾝSC3F,34.819273,135.573264,1,大阪府茨木市松ヶ本町8-30 ｲｵﾝSC3F
1022,大阪府,モーリーファンタジー・PALO,モーリーファンタジーりんくう泉南,泉南市りんくう南浜3-1 ｲｵﾝりんくう泉南店2階,34.381803,135.269002,1,大阪府泉南市りんくう南浜3-1 ｲｵﾝりんくう泉南店2階
976,大阪府,モーリーファンタジー・PALO,モーリーファンタジーf茨木,茨木市松ヶ本町8-30-5 ｲｵﾝ茨木SC4階,34.819273,135.573264,1,大阪府茨木市松ヶ本町8-30-5 ｲｵﾝ茨木SC4階
939,大阪府,その他,プラサカプコン藤井寺,藤井寺市岡2丁目10番11号ｲｵﾝ藤井寺ｼｮｯﾋﾟﾝｸﾞｾﾝﾀｰ,34.5741,135.59265,1,大阪府藤井寺市岡2丁目10番11号ｲｵﾝ藤井寺ｼｮｯﾋﾟﾝｸﾞｾﾝﾀｰ
855,大阪府,その他,ハローズガーデン津久野,堺市西区下田町20-1 ｲﾄｰﾖｰｶﾄﾞｰ津久野店2F,34.541403,135.464555,1,大阪府堺市西区下田町20-1 ｲﾄｰﾖｰｶﾄﾞｰ津久野店2F
852,大阪府,その他,ハローズガーデン泉佐野,泉佐野市下瓦屋2-2-77 いこらも~る泉佐野1F,34.422207,135.328057,1,大阪府泉佐野市下瓦屋2-2-77 いこらも~る泉佐野1F
800,大阪府,その他,トイザらス藤井寺,藤井寺市岡2-8-41ｿﾘﾔ2F,34.571945,135.593033,1,大阪府藤井寺市岡2-8-41ｿﾘﾔ2F
796,大阪府,その他,トイザらス泉北ニュータウン,堺市南区三原台1-1-3JOYPARK泉ヶ丘3F,34.498047,135.51456,1,大阪府堺市南区三原台1-1-3JOYPARK泉ヶ丘3F
786,大阪府,その他,トイザらス阪急山田,吹田市山田西4-1-2,34.804708,135.515326,1,大阪府吹田市山田西4-1-2
762,大阪府,タイトー,タイトーステーション 難波,大阪市中央区難波千日前15-12,34.663354,135.503188,2,大阪府大阪市中央区難波千日前15-12
757,大阪府,タイトー,タイトーステーション 大阪日本橋,大阪市浪速区日本橋4-9-14,34.6604,135.50617,2,大阪府大阪市浪速区日本橋4-9-14
748,大阪府,タイトー,タイトーステーション 摂津富田,高槻市大畑町13-1 ｲｵﾝﾌｰﾄﾞｽﾀｲﾙ摂津富田店2階,34.837488,135.589406,1,大阪府高槻市大畑町13-1 ｲｵﾝﾌｰﾄﾞｽﾀｲﾙ摂津富田店2階
706,大阪府,タイトー,タイトーステーション アリオ八尾,八尾市光町2-3 ｲﾄｰﾖｰｶﾄﾞｰｱﾘｵ八尾3F,34.63148,135.605587,1,大阪府八尾市光町2-3 ｲﾄｰﾖｰｶﾄﾞｰｱﾘｵ八尾3F
686,大阪府,その他,タイトーFステーション 住道,大東市赤井1丁目4番3号,34.708501,135.619552,1,大阪府大東市赤井1丁目4番3号
679,大阪府,その他,タイトーFステーション りんくうシークル,泉佐野市りんくう往来南3番地 りんくうﾌﾟﾚｼﾞｬｰﾀｳﾝｼｰｸﾙ内,34.408847,135.297415,1,大阪府泉佐野市りんくう往来南3番地 りんくうﾌﾟﾚｼﾞｬｰﾀｳﾝｼｰｸﾙ内
656,大阪府,その他,ダイエー曽根,豊中市曽根東町3-3-1,34.770769,135.468392,1,大阪府豊中市曽根東町3-3-1
642,大阪府,その他,ソユーゲームフィールド箕面,箕面市西宿一丁目15番30号みのおｷｭｰｽﾞﾓｰﾙCENTER棟2F,34.833013,135.489402,2,大阪府箕面市西宿一丁目15番30号みのおｷｭｰｽﾞﾓｰﾙCENTER棟2F
630,大阪府,その他,ソユーゲームフィールド 泉南,泉南市りんくう南浜3番地の12ｲｵﾝﾓｰﾙりんくう泉南2F,34.380802,135.267941,1,大阪府泉南市りんくう南浜3番地の12ｲｵﾝﾓｰﾙりんくう泉南2F
624,大阪府,その他,ソユーゲームフィールド 堺鉄砲町,堺市堺区鉄砲町1番地ｲｵﾝﾓｰﾙ堺鉄砲町3F,34.594607,135.481695,2,大阪府堺市堺区鉄砲町1番地ｲｵﾝﾓｰﾙ堺鉄砲町3F
595,大阪府,その他,GiGO新三国アルゴ7,豊中市神州町1-15,34.738561,135.479468,1,大阪府豊中市神州町1-15
585,大阪府,その他,GiGO今福,大阪市城東区今福東1-9-34,34.700979,135.557444,1,大阪府大阪市城東区今福東1-9-34
579,大阪府,その他,GiGO枚方,枚方市須山町83-1 ｻﾝｼｬｲﾝﾌﾟﾗｻﾞ枚方内,34.819643,135.675494,1,大阪府枚方市須山町83-1 ｻﾝｼｬｲﾝﾌﾟﾗｻﾞ枚方内
575,大阪府,その他,GiGO布施,東大阪市長堂1-1-1 ﾛﾝﾓｰﾙ布施内,34.664112,135.563515,1,大阪府東大阪市長堂1-1-1 ﾛﾝﾓｰﾙ布施内
565,大阪府,その他,GiGOあべのアポロ 3F/4F,大阪市阿倍野区阿倍野筋1-5-31 ｱﾎﾟﾛﾋﾞﾙ3F,34.646541,135.511716,2,大阪府大阪市阿倍野区阿倍野筋1-5-31 ｱﾎﾟﾛﾋﾞﾙ3F
559,大阪府,その他,GiGOビバモール寝屋川,寝屋川市寝屋南2-22-2 ﾋﾞﾊﾞﾓｰﾙ寝屋川ﾓｰﾙ棟2F,34.766111,135.650833,1,大阪府寝屋川市寝屋南2-22-2 ﾋﾞﾊﾞﾓｰﾙ寝屋川ﾓｰﾙ棟2F
527,大阪府,その他,ジョーシン新大阪,大阪市淀川区西宮原2-2-17新大阪ｾﾝｲｼﾃｨｰ3号館2F,34.735623,135.494009,1,大阪府大阪市淀川区西宮原2-2-17新大阪ｾﾝｲｼﾃｨｰ3号館2F
510,大阪府,その他,コーナン中もず,堺市北区中百舌鳥町3-428-2 ｺｰﾅﾝ中もず店,34.553776,135.511167,1,大阪府堺市北区中百舌鳥町3-428-2 ｺｰﾅﾝ中もず店
466,大阪府,その他,かみしんプラザアミューズパーク,大阪市東淀川区大隅1-6-12かみしんﾌﾟﾗｻﾞ2F,34.748722,135.541559,1,大阪府大阪市東淀川区大隅1-6-12かみしんﾌﾟﾗｻﾞ2F
461,大阪府,その他,エディオン豊中,豊中市日出町2-2-18,34.741491,135.47925,1,大阪府豊中市日出町2-2-18
458,大阪府,その他,エディオンなんば本店,大阪市中央区難波3-2,34.665675,135.501773,1,大阪府大阪市中央区難波3-2
433,大阪府,イトーヨーカドー,イトーヨーカドー津久野,堺市西区下田町20-1,34.54141,135.464375,1,大阪府堺市西区下田町20-1
383,大阪府,イトーヨーカドー,イトーヨーカドーアリオ鳳,堺市西区鳳南町3-199-12,34.524641,135.459371,1,大阪府堺市西区鳳南町3-199-12
382,大阪府,イトーヨーカドー,イトーヨーカドーアリオ八尾,八尾市光町2-3,34.632604,135.606763,1,大阪府八尾市光町2-3
371,大阪府,イトーヨーカドー,イトーヨーカドーあべの,大阪市阿倍野区阿倍野筋1-6-1,34.645046,135.511727,1,大阪府大阪市阿倍野区阿倍野筋1-6-1
353,大阪府,その他,アル・プラザ枚方,枚方市津田元町1-4-1,34.808063,135.701927,1,大阪府枚方市津田元町1-4-1
349,大阪府,その他,アル・プラザ高槻,高槻市芥川町1-2C-201,34.852255,135.616655,1,大阪府高槻市芥川町1-2C-201
348,大阪府,その他,アル・プラザ香里園,寝屋川市日新町5-5,34.783184,135.6233,1,大阪府寝屋川市日新町5-5
316,大阪府,その他,アミパラ加古川,加古川市尾上町今福71-2,34.751371,134.828638,1,大阪府加古川市尾上町今福71-2
238,大阪府,その他,アニメガ×ソフマップなんば店,大阪市浪速区日本橋3丁目6-18 6F,34.662709,135.505602,2,大阪府大阪市浪速区日本橋3丁目6-18 6F
225,大阪府,その他,YAZ寝屋川,寝屋川市石津中町25-26,34.78029,135.619385,1,大阪府寝屋川市石津中町25-26
173,大阪府,その他,NICOPA和泉府中,泉大津市東豊中町1-5-10 ｶﾅｰﾄﾓｰﾙ和泉府中2F,34.491593,135.423608,1,大阪府泉大津市東豊中町1-5-10 ｶﾅｰﾄﾓｰﾙ和泉府中2F
169,大阪府,その他,NICOPA金岡,堺市北区蔵前町1丁目7番15号 ﾚｲﾝﾎﾞｰ金岡2階,34.575317,135.509727,1,大阪府堺市北区蔵前町1丁目7番15号 ﾚｲﾝﾎﾞｰ金岡2階
167,大阪府,その他,NICOPAベルファ都島,大阪市都島区友渕町2-13-34 ﾍﾞﾙﾌｧ都島3F,34.715979,135.530163,1,大阪府大阪市都島区友渕町2-13-34 ﾍﾞﾙﾌｧ都島3F
156,大阪府,namco,namco梅田店,大阪市北区小松原町3番3号OSﾋﾞﾙ2F,34.702762,135.500373,2,大阪府大阪市北区小松原町3番3号OSﾋﾞﾙ2F
150,大阪府,namco,namco大阪日本橋店,大阪市浪速区難波中2-1-17ｺｽﾓﾋﾞﾙ1~3F,34.662941,135.504332,2,大阪府大阪市浪速区難波中2-1-17ｺｽﾓﾋﾞﾙ1~3F
104,大阪府,namco,namcoニッケパークタウン加古川店,加古川市加古川町寺家町173-1,34.769658,134.835802,1,大阪府加古川市加古川町寺家町173-1
103,大阪府,namco,namcoなんばパークス店,大阪市浪速区難波中2丁目10番70号なんばﾊﾟｰｸｽ6F,34.661608,135.501935,1,大阪府大阪市浪速区難波中2丁目10番70号なんばﾊﾟｰｸｽ6F
90,大阪府,namco,namcoくずはモール店,枚方市楠葉花園町10ｰ85KUZUHAMALL南館2F,34.859986,135.675389,1,大阪府枚方市楠葉花園町10ｰ85KUZUHAMALL南館2F
68,大阪府,namco,namcoイオンモール鶴見緑地店,大阪市鶴見区鶴見4-17-1-421 ｲｵﾝﾓｰﾙ鶴見緑地4F,34.704047,135.567337,2,大阪府大阪市鶴見区鶴見4-17-1-421 ｲｵﾝﾓｰﾙ鶴見緑地4F
66,大阪府,namco,namcoイオンモール大日店,守口市大日東町1-18ｲｵﾝﾓｰﾙ大日4F,34.748607,135.580346,2,大阪府守口市大日東町1-18ｲｵﾝﾓｰﾙ大日4F
35,大阪府,その他,NAMCOLAND鳳店,堺市西区鳳南町3-199-12ｱﾘｵ鳳ｱﾘｵﾓｰﾙ3F3280,34.524361,135.458945,1,大阪府堺市西区鳳南町3-199-12ｱﾘｵ鳳ｱﾘｵﾓｰﾙ3F3280
25,大阪府,その他,LINKS UMEDA,大阪市北区大深町4-8 LINKSUMEDA5F,34.703145,135.494731,2,大阪府大阪市北区大深町4-8 LINKSUMEDA5F
17,大阪府,その他,LABI1なんば,大阪市浪速区難波中2-11-35,34.660122,135.501183,1,大阪府大阪市浪速区難波中2-11-35
15,大阪府,その他,LABI LIFE SELECT千里,豊中市新千里東町1-2-20,34.812003,135.494998,1,大阪府豊中市新千里東町1-2-20
6,大阪府,その他,ENTERTAINMENT FIELD ららぽーとEXPOCITY店,吹田市千里万博公園2-13F30060 ららぽｰとEXPOCITY,34.805489,135.534467,1,大阪府吹田市千里万博公園2-13F30060 ららぽｰとEXPOCITY
1591,兵庫県,その他,TeccLIFESELECT尼崎,尼崎市次屋3-13-18 ,34.742549,135.442634,1,兵庫県尼崎市次屋3-13-18 
1588,兵庫県,その他,タイトーＦステーション　アスピア明石店,兵庫県明石市東仲ノ町６−１　アスピア明石　南館３Ｆ,34.648026,134.995881,1,兵庫県兵庫県明石市東仲ノ町６−１　アスピア明石　南館３Ｆ
1582,兵庫県,namco,namcoニッケパークタウン加古川店,加古川市加古川町寺家町173-1,34.769658,134.835802,1,兵庫県加古川市加古川町寺家町173-1
1571,兵庫県,その他,GiGO神戸umieサウスモール,神戸市中央区東川崎町1-7-2,34.680334,135.183191,1,兵庫県神戸市中央区東川崎町1-7-2
1569,兵庫県,その他,GIGOあまがさきキューズモール,尼崎市潮江１−３−１ ココエあまがさき内４Ｆ,34.733654,135.431304,1,兵庫県尼崎市潮江１−３−１ ココエあまがさき内４Ｆ
1552,兵庫県,その他,GiGOららぽーと甲子園,西宮市甲子園八番町1-100 ららぽｰと甲子園2F,34.718762,135.363759,1,兵庫県西宮市甲子園八番町1-100 ららぽｰと甲子園2F
1540,兵庫県,その他,アル・プラザ あまがさき,尼崎市潮江1-3-1,34.733849,135.43077,1,兵庫県尼崎市潮江1-3-1
1510,兵庫県,その他,ペリカン西神戸店,神戸市西区竜が岡1-21-1イズミヤ店内2F,34.710827,134.940401,1,兵庫県神戸市西区竜が岡1-21-1イズミヤ店内2F
1427,兵庫県,その他,わくわくカーニバル神戸,神戸市北区日の峰2-6-1 ｺｱｷﾀﾏﾁ3F,34.756152,135.143645,1,兵庫県神戸市北区日の峰2-6-1 ｺｱｷﾀﾏﾁ3F
1363,兵庫県,モーリーファンタジー・PALO,モーリーファンタジー和田山,朝来市和田山町枚田岡774 ｲｵﾝ和田山店2階,35.329477,134.863701,1,兵庫県朝来市和田山町枚田岡774 ｲｵﾝ和田山店2階
1359,兵庫県,モーリーファンタジー・PALO,モーリーファンタジー竜野,たつの市龍野町堂本250-1 ｲｵﾝ竜野店3F,34.858158,134.552899,1,兵庫県たつの市龍野町堂本250-1 ｲｵﾝ竜野店3F
1348,兵庫県,モーリーファンタジー・PALO,モーリーファンタジー明石,明石市大久保町ゆりのき通り3-3-1 ｲｵﾝ明石3-街3F,34.678558,134.935124,1,兵庫県明石市大久保町ゆりのき通り3-3-1 ｲｵﾝ明石3-街3F
1347,兵庫県,モーリーファンタジー・PALO,モーリーファンタジー名谷,神戸市須磨区中落合2-2-2 ﾀﾞｲｴｰ名谷店3F,34.678402,135.095677,1,兵庫県神戸市須磨区中落合2-2-2 ﾀﾞｲｴｰ名谷店3F
1334,兵庫県,モーリーファンタジー・PALO,モーリーファンタジー宝塚中山,宝塚市売布東の町21-22 ﾀﾞｲｴｰ宝塚中山店2F,34.817162,135.367559,1,兵庫県宝塚市売布東の町21-22 ﾀﾞｲｴｰ宝塚中山店2F
1323,兵庫県,モーリーファンタジー・PALO,モーリーファンタジー舞子,神戸市垂水区舞子台6-20-17 ﾀﾞｲｴｰ舞子店2F,34.639441,135.03163,1,兵庫県神戸市垂水区舞子台6-20-17 ﾀﾞｲｴｰ舞子店2F
1315,兵庫県,モーリーファンタジー・PALO,モーリーファンタジー姫路大津,姫路市大津区大津町2-5 ｲｵﾝ姫路大津店2階,34.806532,134.606683,1,兵庫県姫路市大津区大津町2-5 ｲｵﾝ姫路大津店2階
1314,兵庫県,モーリーファンタジー・PALO,モーリーファンタジー姫路リバーシティ,姫路市飾磨区細江2560 ｲｵﾝ姫路ﾘﾊﾞｰｼﾃｨｰ店2F,34.798119,134.668631,1,兵庫県姫路市飾磨区細江2560 ｲｵﾝ姫路ﾘﾊﾞｰｼﾃｨｰ店2F
1312,兵庫県,モーリーファンタジー・PALO,モーリーファンタジー板宿,神戸市須磨区前池町3-2-1 ﾀﾞｲｴｰ板宿店4F,34.66233,135.131924,1,兵庫県神戸市須磨区前池町3-2-1 ﾀﾞｲｴｰ板宿店4F
1293,兵庫県,モーリーファンタジー・PALO,モーリーファンタジー尼崎,尼崎市次屋3-13-18 ｲｵﾝ尼崎店2階,34.741829,135.442326,1,兵庫県尼崎市次屋3-13-18 ｲｵﾝ尼崎店2階
1291,兵庫県,モーリーファンタジー・PALO,モーリーファンタジー南淡路,南あわじ市賀集八幡北字東内378-1 ｲｵﾝ南淡路店1階,34.279561,134.740842,1,兵庫県南あわじ市賀集八幡北字東内378-1 ｲｵﾝ南淡路店1階
1280,兵庫県,モーリーファンタジー・PALO,モーリーファンタジー藤原台,神戸市北区藤1-2-2 ｲｵﾝ藤原台店4F,34.82168,135.22121,1,兵庫県神戸市北区藤1-2-2 ｲｵﾝ藤原台店4F
1247,兵庫県,モーリーファンタジー・PALO,モーリーファンタジー長田南,神戸市長田区長田1-20 ｲｵﾝ長田南ｼｮｯﾋﾟﾝｸﾞC内2F,34.669679,135.14872,1,兵庫県神戸市長田区長田1-20 ｲｵﾝ長田南ｼｮｯﾋﾟﾝｸﾞC内2F
1241,兵庫県,モーリーファンタジー・PALO,モーリーファンタジー猪名川,川辺郡猪名川町白金2-1 ｲｵﾝ猪名川店3階,34.901651,135.364401,1,兵庫県川辺郡猪名川町白金2-1 ｲｵﾝ猪名川店3階
1194,兵庫県,モーリーファンタジー・PALO,モーリーファンタジー西神中央,神戸市西区糀台5-3-4 ﾀﾞｲｴｰ西神中央店3F,34.720706,135.019839,1,兵庫県神戸市西区糀台5-3-4 ﾀﾞｲｴｰ西神中央店3F
1193,兵庫県,モーリーファンタジー・PALO,モーリーファンタジー西宮,西宮市林田町2-24 ｲｵﾝ西宮店2F,34.755908,135.362051,1,兵庫県西宮市林田町2-24 ｲｵﾝ西宮店2F
1182,兵庫県,モーリーファンタジー・PALO,モーリーファンタジー神戸北,神戸市北区上津台8-1-1 ｲｵﾝ神戸北店3階,34.860076,135.194205,1,兵庫県神戸市北区上津台8-1-1 ｲｵﾝ神戸北店3階
1150,兵庫県,モーリーファンタジー・PALO,モーリーファンタジー洲本,洲本市塩屋1-1-8 ｲｵﾝ洲本店2階,34.344334,134.892237,1,兵庫県洲本市塩屋1-1-8 ｲｵﾝ洲本店2階
1145,兵庫県,モーリーファンタジー・PALO,モーリーファンタジー社,加東市社1126-1 ｲｵﾝ社店2階,34.914208,134.962555,1,兵庫県加東市社1126-1 ｲｵﾝ社店2階
1135,兵庫県,モーリーファンタジー・PALO,モーリーファンタジー山崎,宍粟市山崎町中井字城下10 ｲｵﾝ山崎店3階,35.002249,134.543416,1,兵庫県宍粟市山崎町中井字城下10 ｲｵﾝ山崎店3階
1132,兵庫県,モーリーファンタジー・PALO,モーリーファンタジー三木青山,三木市志染町青山3-9 ｲｵﾝ三木青山店2階,34.779496,135.036363,1,兵庫県三木市志染町青山3-9 ｲｵﾝ三木青山店2階
1131,兵庫県,モーリーファンタジー・PALO,モーリーファンタジー三木,三木市大村字砂163 ｲｵﾝ三木店3階,34.805323,134.972455,1,兵庫県三木市大村字砂163 ｲｵﾝ三木店3階
1098,兵庫県,モーリーファンタジー・PALO,モーリーファンタジー高砂,高砂市緑丘2-1-40 ｲｵﾝ高砂店2階,34.769337,134.802164,1,兵庫県高砂市緑丘2-1-40 ｲｵﾝ高砂店2階
1034,兵庫県,モーリーファンタジー・PALO,モーリーファンタジー伊丹昆陽,伊丹市池尻4-1-1 ｲｵﾝ伊丹昆陽店3階,34.784547,135.381578,1,兵庫県伊丹市池尻4-1-1 ｲｵﾝ伊丹昆陽店3階
1033,兵庫県,モーリーファンタジー・PALO,モーリーファンタジー伊丹,伊丹市藤ﾉ木1-1-1 ｲｵﾝ伊丹店3階,34.782493,135.423238,1,兵庫県伊丹市藤ﾉ木1-1-1 ｲｵﾝ伊丹店3階
999,兵庫県,モーリーファンタジー・PALO,モーリーファンタジージェームス山,神戸市垂水区青山台7-7-1 ｲｵﾝｼﾞｪｰﾑｽ山店1階,34.646166,135.07627,1,兵庫県神戸市垂水区青山台7-7-1 ｲｵﾝｼﾞｪｰﾑｽ山店1階
978,兵庫県,モーリーファンタジー・PALO,モーリーファンタジーf加西北条,加西市北条町北条308-1 ｲｵﾝ加西北条店2階,34.930469,134.828356,1,兵庫県加西市北条町北条308-1 ｲｵﾝ加西北条店2階
913,兵庫県,その他,ふぇすたらんど土山,明石市魚住町清水2208-1 ｲｵﾝ土山店3F,34.721612,134.892918,1,兵庫県明石市魚住町清水2208-1 ｲｵﾝ土山店3F
858,兵庫県,その他,ハローズガーデン姫路,姫路市増位本町2-12-10 ｲｵﾝ姫路店2F,34.856664,134.706333,1,兵庫県姫路市増位本町2-12-10 ｲｵﾝ姫路店2F
849,兵庫県,その他,ハローズガーデン新三田,三田市けやき台1-6-4 ｲｵﾝ三田ｳｯﾃﾞｨﾀｳﾝ店2番街,34.908274,135.186072,1,兵庫県三田市けやき台1-6-4 ｲｵﾝ三田ｳｯﾃﾞｨﾀｳﾝ店2番街
843,兵庫県,その他,ハローズガーデン広畑,姫路市広畑区夢前町1-1-1 MEGAﾞﾄﾞﾝ･ｷﾎｰﾃ1F,34.797248,134.637058,1,兵庫県姫路市広畑区夢前町1-1-1 MEGAﾞﾄﾞﾝ･ｷﾎｰﾃ1F
840,兵庫県,その他,ハローズガーデン加古川,加古川市別府町緑町2 ｲﾄｰﾖｰｶﾄﾞｰ加古川店3F,34.728612,134.849153,1,兵庫県加古川市別府町緑町2 ｲﾄｰﾖｰｶﾄﾞｰ加古川店3F
809,兵庫県,その他,トイザらス明石,明石市東仲ﾉ町6-1ｱｽﾋﾟｱ明石南館3F,34.647734,134.995278,1,兵庫県明石市東仲ﾉ町6-1ｱｽﾋﾟｱ明石南館3F
763,兵庫県,タイトー,タイトーステーション 尼崎つかしん,尼崎市塚口本町4-8-1 SCつかしん内東町北館3階,34.761718,135.419654,1,兵庫県尼崎市塚口本町4-8-1 SCつかしん内東町北館3階
694,兵庫県,その他,タイトーFステーション 姫路,姫路市駅前町269番地，270番地,34.828554,134.691717,2,兵庫県姫路市駅前町269番地，270番地
684,兵庫県,その他,タイトーFステーション 三宮西館,神戸市中央区三宮町2-11-1 三宮ｾﾝﾀｰﾋﾞﾙ西館3階,34.691172,135.191205,2,兵庫県神戸市中央区三宮町2-11-1 三宮ｾﾝﾀｰﾋﾞﾙ西館3階
661,兵庫県,その他,タイトーFステーション イオン加古川,加古川市平岡町新在家615-1 ｲｵﾝ加古川店3F,34.748929,134.862389,1,兵庫県加古川市平岡町新在家615-1 ｲｵﾝ加古川店3F
658,兵庫県,その他,タイトーFステーション HAT神戸,神戸市中央区脇浜海岸通2-2-2 ﾌﾞﾙﾒｰﾙHAT神戸2F,34.699275,135.214366,1,兵庫県神戸市中央区脇浜海岸通2-2-2 ﾌﾞﾙﾒｰﾙHAT神戸2F
617,兵庫県,その他,GiGO明石,明石市魚住町清水2464-1 ﾄﾞﾗｲﾌﾞｲﾝながさわ,34.720852,134.897137,1,兵庫県明石市魚住町清水2464-1 ﾄﾞﾗｲﾌﾞｲﾝながさわ
596,兵庫県,その他,GiGO 神戸umieサウスモール,神戸市中央区東川崎町1-7-2,34.67474,135.185353,1,兵庫県神戸市中央区東川崎町1-7-2
560,兵庫県,その他,GiGOフェニックスプラザ摩耶,神戸市灘区味泥町6-1,34.704051,135.228018,1,兵庫県神戸市灘区味泥町6-1
558,兵庫県,その他,GiGOつかしん,尼崎市塚口本町4-8-1 つかしん内,34.760995,135.418361,1,兵庫県尼崎市塚口本町4-8-1 つかしん内
473,兵庫県,その他,キッズパーク 西宮,西宮市浜松原町21-1 ﾏﾙﾅｶ西宮店2F,34.725728,135.34612,1,兵庫県西宮市浜松原町21-1 ﾏﾙﾅｶ西宮店2F
469,兵庫県,その他,カリヨンパークイオン伊丹昆陽,伊丹市池尻4丁目1-1 ｲｵﾝ伊丹昆陽SC内4F,34.784489,135.381669,1,兵庫県伊丹市池尻4丁目1-1 ｲｵﾝ伊丹昆陽SC内4F
460,兵庫県,その他,エディオン垂水,神戸市垂水区舞多聞東2-1-45,34.663764,135.054157,1,兵庫県神戸市垂水区舞多聞東2-1-45
459,兵庫県,その他,エディオン神戸北町,神戸市北区日の峰2-3-3,34.756212,135.145091,1,兵庫県神戸市北区日の峰2-3-3
457,兵庫県,その他,エディオンJR尼崎駅,尼崎市潮江1-1-50,34.73126,135.43283,1,兵庫県尼崎市潮江1-1-50
448,兵庫県,イトーヨーカドー,イトーヨーカドー明石,明石市二見町西二見駅前1-18,34.704738,134.878389,1,兵庫県明石市二見町西二見駅前1-18
405,兵庫県,イトーヨーカドー,イトーヨーカドー甲子園,西宮市甲子園八番町1-100,34.717258,135.364548,1,兵庫県西宮市甲子園八番町1-100
396,兵庫県,イトーヨーカドー,イトーヨーカドー加古川,加古川市別府町緑町2,34.726971,134.848083,1,兵庫県加古川市別府町緑町2
365,兵庫県,その他,イオン赤穂,赤穂市中広字別所55-3,34.737504,134.387479,1,兵庫県赤穂市中広字別所55-3
346,兵庫県,その他,アル・プラザつかしん,尼崎市塚口本町4-8-1,34.761718,135.419654,1,兵庫県尼崎市塚口本町4-8-1
344,兵庫県,その他,アル・クリオ ゲームコーナー,淡路市志筑新島10番地の3,34.4263,134.905866,1,兵庫県淡路市志筑新島10番地の3
303,兵庫県,その他,アピナ姫路,姫路市東郷町1454番地3 姫路ﾘｵｽ2階,34.826455,134.715497,1,兵庫県姫路市東郷町1454番地3 姫路ﾘｵｽ2階
237,兵庫県,その他,アニメガ×ソフマップ 神戸ハーバーランド店,神戸市中央区東川崎町1-7-2 umieNORTHMALL内6F,34.67474,135.185353,1,兵庫県神戸市中央区東川崎町1-7-2 umieNORTHMALL内6F
203,兵庫県,その他,SD LABI 三宮,神戸市中央区三宮町1-5-8,34.691772,135.193985,1,兵庫県神戸市中央区三宮町1-5-8
158,兵庫県,namco,namco豊岡店,豊岡市兵庫県豊岡市中陰町字大工6173F,35.551382,134.809902,1,兵庫県豊岡市兵庫県豊岡市中陰町字大工6173F
79,兵庫県,namco,namcoイオン赤穂店,赤穂市中広字別所55-3ｲｵﾝ赤穂店2F,34.755707,134.400671,1,兵庫県赤穂市中広字別所55-3ｲｵﾝ赤穂店2F
71,兵庫県,namco,namcoイオンモール姫路リバーシティー,姫路市飾磨区細江2560番地ｲｵﾝﾓｰﾙ姫路ﾘﾊﾞｰｼﾃｨ2F,34.79853,134.668243,1,兵庫県姫路市飾磨区細江2560番地ｲｵﾝﾓｰﾙ姫路ﾘﾊﾞｰｼﾃｨ2F
62,兵庫県,namco,namcoイオンモール神戸南店,神戸市兵庫区中之島2-1-1ｲｵﾝﾓｰﾙ神戸南3F,34.665719,135.17459,1,兵庫県神戸市兵庫区中之島2-1-1ｲｵﾝﾓｰﾙ神戸南3F
31,兵庫県,その他,MEGAドン・キホーテ姫路広畑,姫路市広畑区夢前町1-1-1,34.797248,134.637058,1,兵庫県姫路市広畑区夢前町1-1-1
1411,奈良県,その他,ラスパ西大和店ゲームコーナー,北葛城郡上牧町ささゆり台一丁目1番1号ﾗｽﾊﾟ西大和店2階,34.566484,135.720755,1,奈良県北葛城郡上牧町ささゆり台一丁目1番1号ﾗｽﾊﾟ西大和店2階
1405,奈良県,その他,ラウンドワンスタジアム奈良ミ・ナーラ,奈良市二条大路南1-3-1 奈良ﾐ･ﾅｰﾗ5階,34.685216,135.802181,1,奈良県奈良市二条大路南1-3-1 奈良ﾐ･ﾅｰﾗ5階
1263,奈良県,モーリーファンタジー・PALO,モーリーファンタジー登美ヶ丘,生駒市鹿畑町3027 ｲｵﾝ登美ヶ丘店2階,34.725841,135.75047,1,奈良県生駒市鹿畑町3027 ｲｵﾝ登美ヶ丘店2階
1259,奈良県,モーリーファンタジー・PALO,モーリーファンタジー天理,天理市東井戸堂町381 ｲｵﾝSC天理店1階,34.590697,135.824859,1,奈良県天理市東井戸堂町381 ｲｵﾝSC天理店1階
1234,奈良県,モーリーファンタジー・PALO,モーリーファンタジー大和郡山,大和郡山市下三橋741 ｲｵﾝ大和郡山店3階,34.651129,135.802174,1,奈良県大和郡山市下三橋741 ｲｵﾝ大和郡山店3階
1114,奈良県,モーリーファンタジー・PALO,モーリーファンタジー桜井,桜井市上之庄278-1 ｲｵﾝ桜井店2階,34.521789,135.836725,1,奈良県桜井市上之庄278-1 ｲｵﾝ桜井店2階
1055,奈良県,モーリーファンタジー・PALO,モーリーファンタジー橿原,橿原市曲川町7-20-1 ｲｵﾝ橿原店2階,34.506117,135.763057,1,奈良県橿原市曲川町7-20-1 ｲｵﾝ橿原店2階
633,奈良県,その他,ソユーゲームフィールド 奈良橿原,橿原市曲川町七丁目20番1ｲｵﾝﾓｰﾙ橿原3F,34.506117,135.763057,1,奈良県橿原市曲川町七丁目20番1ｲｵﾝﾓｰﾙ橿原3F
101,奈良県,namco,namcoトナリエ大和高田店,大和高田市幸町3-18ﾄﾅﾘｴ大和高田店3F ﾄﾅﾘｴ大和高田店3F,34.518753,135.743842,1,奈良県大和高田市幸町3-18ﾄﾅﾘｴ大和高田店3F ﾄﾅﾘｴ大和高田店3F
1361,和歌山県,モーリーファンタジー・PALO,モーリーファンタジー和歌山,和歌山市中字楠谷573 ｲｵﾝ3F,34.230368,135.17074,1,和歌山県和歌山市中字楠谷573 ｲｵﾝ3F
1176,和歌山県,モーリーファンタジー・PALO,モーリーファンタジー新宮,新宮市橋本2-14-23 ｲｵﾝ新宮店2階,33.714097,135.990314,1,和歌山県新宮市橋本2-14-23 ｲｵﾝ新宮店2階
969,和歌山県,その他,ペリカン和歌山,和歌山市新生町7-20ｲｽﾞﾐﾔ内2F,34.221614,135.187513,1,和歌山県和歌山市新生町7-20ｲｽﾞﾐﾔ内2F
682,和歌山県,その他,タイトーFステーション 御坊,御坊市湯川町財部181番地,33.897649,135.148816,1,和歌山県御坊市湯川町財部181番地
667,和歌山県,その他,タイトーFステーション セントラルシティ和歌山,和歌山市小雑賀805-1 ｾﾝﾄﾗﾙｼﾃｨ和歌山店1階,34.195316,135.18336,1,和歌山県和歌山市小雑賀805-1 ｾﾝﾄﾗﾙｼﾃｨ和歌山店1階
666,和歌山県,その他,タイトーFステーション スーパーセンターオークワ南紀,新宮市佐野3-11-19 ｽｰﾊﾟｰｾﾝﾀｰｵｰｸﾜ南紀店,33.675099,135.969671,1,和歌山県新宮市佐野3-11-19 ｽｰﾊﾟｰｾﾝﾀｰｵｰｸﾜ南紀店
197,和歌山県,モーリーファンタジー・PALO,PALO田辺,田辺市宝来町24-26 ｸﾞﾙﾒｼﾃｨ田辺店3階,33.734743,135.388199,1,和歌山県田辺市宝来町24-26 ｸﾞﾙﾒｼﾃｨ田辺店3階
179,和歌山県,モーリーファンタジー・PALO,PALO橋本彩の台,橋本市あやの台1-50-2 ｵｰ･ｽﾄﾘｰﾄ彩の台内,34.336874,135.652086,1,和歌山県橋本市あやの台1-50-2 ｵｰ･ｽﾄﾘｰﾄ彩の台内
172,和歌山県,その他,NICOPA和歌山,和歌山市新生町7番20号 ｲｽﾞﾐﾔ和歌山店2階,34.221606,135.187621,1,和歌山県和歌山市新生町7番20号 ｲｽﾞﾐﾔ和歌山店2階
105,和歌山県,namco,namcoパームシティ和歌山店,和歌山市中野31-1ﾊﾟｰﾑｼﾃｨ和歌山店2F,34.254279,135.139401,1,和歌山県和歌山市中野31-1ﾊﾟｰﾑｼﾃｨ和歌山店2F
87,和歌山県,namco,namcoオークワパビリオンシティ田辺店,田辺市和歌山県田辺市稲成町新江原3165ﾊﾟﾋﾞﾘｵﾝｼﾃｨ田辺店C館2F,33.744183,135.375714,1,和歌山県田辺市和歌山県田辺市稲成町新江原3165ﾊﾟﾋﾞﾘｵﾝｼﾃｨ田辺店C館2F
1554,鳥取県,その他,GiGO米子,米子市両三柳2778-2,35.459902,133.322158,1,鳥取県米子市両三柳2778-2
1504,鳥取県,その他,トイザらス鳥取,鳥取市南隈541 ﾄﾘﾆﾃｨｰﾓｰﾙBｿﾞｰﾝ2F,35.521464,134.200903,1,鳥取県鳥取市南隈541 ﾄﾘﾆﾃｨｰﾓｰﾙBｿﾞｰﾝ2F
1332,鳥取県,モーリーファンタジー・PALO,モーリーファンタジー米子駅前,米子市末広町311 ｲｵﾝ米子駅前店3階,35.422721,133.332936,1,鳥取県米子市末広町311 ｲｵﾝ米子駅前店3階
1295,鳥取県,モーリーファンタジー・PALO,モーリーファンタジー日吉津,西伯郡日吉津村日吉津1160-1 ｲｵﾝ日吉津店2階,35.445829,133.38724,1,鳥取県西伯郡日吉津村日吉津1160-1 ｲｵﾝ日吉津店2階
1249,鳥取県,モーリーファンタジー・PALO,モーリーファンタジー鳥取北,鳥取市晩稲348 ｲｵﾝ鳥取北店2階,35.524656,134.201383,1,鳥取県鳥取市晩稲348 ｲｵﾝ鳥取北店2階
196,鳥取県,モーリーファンタジー・PALO,PALO鳥取,鳥取市天神町1 ｲｵﾝ鳥取店2階,35.493488,134.221981,1,鳥取県鳥取市天神町1 ｲｵﾝ鳥取店2階
178,鳥取県,モーリーファンタジー・PALO,PALO境港,境港市竹内団地81-3,35.522046,133.252135,1,鳥取県境港市竹内団地81-3
1498,島根県,その他,GiGO松江,松江市嫁島町１２−１５,35.450094,133.047826,1,島根県松江市嫁島町１２−１５
1161,島根県,モーリーファンタジー・PALO,モーリーファンタジー松江,松江市東朝日町151 ｲｵﾝ松江店内3F,35.463694,133.069358,1,島根県松江市東朝日町151 ｲｵﾝ松江店内3F
1154,島根県,モーリーファンタジー・PALO,モーリーファンタジー出雲,出雲市渡橋町1066 ｲｵﾝｽﾀｲﾙ出雲3F,35.367589,132.739067,1,島根県出雲市渡橋町1066 ｲｵﾝｽﾀｲﾙ出雲3F
1090,島根県,モーリーファンタジー・PALO,モーリーファンタジー江津,江津市嘉久志町2306-30 ｼｮｯﾋﾟﾝｸﾞﾀｳﾝｸﾞﾘｰﾝM2F,35.009704,132.218939,1,島根県江津市嘉久志町2306-30 ｼｮｯﾋﾟﾝｸﾞﾀｳﾝｸﾞﾘｰﾝM2F
967,島根県,その他,ペリカン浜田,浜田市港町227-1ゆめﾀｳﾝ浜田内3F,34.900194,132.07158,1,島根県浜田市港町227-1ゆめﾀｳﾝ浜田内3F
190,島根県,モーリーファンタジー・PALO,PALO松江,松江市東朝日町151 ｲｵﾝ松江店3階,35.463694,133.069358,1,島根県松江市東朝日町151 ｲｵﾝ松江店3階
1563,岡山県,ビックカメラ,ビックカメラ岡山駅前,岡山市北区駅前町1-1-1,34.66609,133.919847,1,岡山県岡山市北区駅前町1-1-1
1483,岡山県,その他,GiGOイオンモール岡山,岡山市北区下石井１−２−１イオンモール岡山内６Ｆ,34.662082,133.917726,1,岡山県岡山市北区下石井１−２−１イオンモール岡山内６Ｆ
1430,岡山県,その他,こどもや西大寺,岡山市東区西大寺南1-2-1 天満屋ﾊﾋﾟｰﾀｳﾝ西大寺店2F,34.652472,134.03018,1,岡山県岡山市東区西大寺南1-2-1 天満屋ﾊﾋﾟｰﾀｳﾝ西大寺店2F
1251,岡山県,モーリーファンタジー・PALO,モーリーファンタジー津山,津山市河辺1000-1 ｲｵﾝ津山店2階,35.06487,134.045627,1,岡山県津山市河辺1000-1 ｲｵﾝ津山店2階
1208,岡山県,モーリーファンタジー・PALO,モーリーファンタジー倉敷,倉敷市水江1 ｲｵﾝ倉敷店1階,34.602225,133.745084,1,岡山県倉敷市水江1 ｲｵﾝ倉敷店1階
1186,岡山県,モーリーファンタジー・PALO,モーリーファンタジー水島,倉敷市水島高砂町3-11 ﾏｯｸｽﾊﾞﾘｭ水島店1階,34.529575,133.736387,1,岡山県倉敷市水島高砂町3-11 ﾏｯｸｽﾊﾞﾘｭ水島店1階
977,岡山県,モーリーファンタジー・PALO,モーリーファンタジーf岡山,岡山市北区下石井1-2-1 ｲｵﾝﾓｰﾙ4階,34.661976,133.918409,2,岡山県岡山市北区下石井1-2-1 ｲｵﾝﾓｰﾙ4階
914,岡山県,その他,ふぇすたらんど平島,岡山市東区東平島1609 山陽ﾏﾙﾅｶ平島店1F,34.707824,134.049794,1,岡山県岡山市東区東平島1609 山陽ﾏﾙﾅｶ平島店1F
826,岡山県,その他,ハッピーランド山陽,赤磐市下市133 ﾏﾙﾅｶ山陽店内2F,34.750613,134.017838,1,岡山県赤磐市下市133 ﾏﾙﾅｶ山陽店内2F
673,岡山県,その他,タイトーFステーション マルナカ新倉敷,倉敷市玉島爪先981-1,34.562581,133.685475,1,岡山県倉敷市玉島爪先981-1
604,岡山県,その他,GiGO倉敷,倉敷市西中新田535-2,34.583892,133.769928,1,岡山県倉敷市西中新田535-2
513,岡山県,その他,こころっこ高梁,高梁市中原町1084番地の1 ﾎﾟﾙｶ天満屋ﾊｯﾋﾟｰﾀｳﾝ内2階ﾌﾟﾚﾋﾞﾌﾟﾚｲﾗﾝﾄﾞ,34.783196,133.610577,1,岡山県高梁市中原町1084番地の1 ﾎﾟﾙｶ天満屋ﾊｯﾋﾟｰﾀｳﾝ内2階ﾌﾟﾚﾋﾞﾌﾟﾚｲﾗﾝﾄﾞ
512,岡山県,その他,こころっこ原尾島,岡山市中区原尾島1-6-20 天満屋ﾊﾋﾟｰﾀｳﾝ原尾島店3Fﾌﾟﾚﾋﾞﾌﾟﾚｲﾗﾝﾄﾞ,34.671658,133.947217,1,岡山県岡山市中区原尾島1-6-20 天満屋ﾊﾋﾟｰﾀｳﾝ原尾島店3Fﾌﾟﾚﾋﾞﾌﾟﾚｲﾗﾝﾄﾞ
511,岡山県,その他,こころっこ岡南,岡山市南区築港新町1-18-5 天満屋ﾊﾋﾟｰﾀｳﾝ岡南店3Fﾌﾟﾚﾋﾞﾌﾟﾚｲﾗﾝﾄﾞ,34.604155,133.941148,1,岡山県岡山市南区築港新町1-18-5 天満屋ﾊﾋﾟｰﾀｳﾝ岡南店3Fﾌﾟﾚﾋﾞﾌﾟﾚｲﾗﾝﾄﾞ
314,岡山県,その他,アミパラ岡山,岡山市北区青江1丁目13-8,34.636182,133.920024,1,岡山県岡山市北区青江1丁目13-8
1577,広島県,その他,アピナ東広島,東広島市西条町助実1229ゆめﾓｰﾙ西条1階,34.42398,132.756434,1,広島県東広島市西条町助実1229ゆめﾓｰﾙ西条1階
1514,広島県,モーリーファンタジー・PALO,モーリーファンタジーアルパーク,広島市西区草津新町2-26-1ｱﾙﾊﾟｰｸ内,34.373503,132.394572,2,広島県広島市西区草津新町2-26-1ｱﾙﾊﾟｰｸ内
1506,広島県,その他,ゆめタウン福山,福山市入船町3-1-60,34.487023,133.378681,1,広島県福山市入船町3-1-60
1496,広島県,その他,GiGO海田,安芸郡海田町南大正町３−３５,34.367638,132.533702,1,広島県安芸郡海田町南大正町３−３５
1453,広島県,その他,福山メトロポリス,福山市一文字町24-1,34.468242,133.410277,1,広島県福山市一文字町24-1
1366,広島県,その他,ゆめタウン学園,東広島市西条下見6-2-32,34.408997,132.713873,1,広島県東広島市西条下見6-2-32
1126,広島県,モーリーファンタジー・PALO,モーリーファンタジー三原,三原市城町2-13-1 ｲｵﾝ三原店2階,34.398867,133.087308,1,広島県三原市城町2-13-1 ｲｵﾝ三原店2階
1089,広島県,モーリーファンタジー・PALO,モーリーファンタジー広島祗園,広島市安佐南区祇園3-2-1 ｲｵﾝ広島祇園店3階,34.443765,132.461478,1,広島県広島市安佐南区祇園3-2-1 ｲｵﾝ広島祇園店3階
1088,広島県,モーリーファンタジー・PALO,モーリーファンタジー広島府中,安芸郡府中町大須2-1-1 ｲｵﾝ広島府中店2階,34.395084,132.498758,1,広島県安芸郡府中町大須2-1-1 ｲｵﾝ広島府中店2階
1038,広島県,モーリーファンタジー・PALO,モーリーファンタジー宇品,広島市南区宇品東6-1-15 ｲｵﾝ宇品店2階,34.362694,132.468468,1,広島県広島市南区宇品東6-1-15 ｲｵﾝ宇品店2階
980,広島県,モーリーファンタジー・PALO,モーリーファンタジーf広島祗園,広島市安佐南区祇園3-2-1 ｲｵﾝ広島祇園SC3階,34.443865,132.461454,1,広島県広島市安佐南区祇園3-2-1 ｲｵﾝ広島祇園SC3階
966,広島県,その他,ペリカン東広島,東広島市西条町土与丸1-5-7ゆめﾀｳﾝ東広島内4F,34.427061,132.750244,1,広島県東広島市西条町土与丸1-5-7ゆめﾀｳﾝ東広島内4F
960,広島県,その他,ペリカン呉,呉市宝町5-10ゆめﾀｳﾝ呉内3F,34.242221,132.556305,1,広島県呉市宝町5-10ゆめﾀｳﾝ呉内3F
926,広島県,その他,フジグラン尾道,尾道市東尾道19-7,34.425536,133.239001,1,広島県尾道市東尾道19-7
925,広島県,その他,フジグラン東広島,東広島市西条町御薗宇4405,34.407056,132.749943,1,広島県東広島市西条町御薗宇4405
920,広島県,その他,フジグラン三原,三原市円一町1-1-7,34.39413,133.078988,1,広島県三原市円一町1-1-7
877,広島県,ビックカメラ,ビックカメラ広島駅前,広島市南区松原町5-1,34.395734,132.474977,1,広島県広島市南区松原町5-1
805,広島県,その他,トイザらス福山,福山市東深津町3-21-4,34.494561,133.398526,1,広島県福山市東深津町3-21-4
777,広島県,その他,トイザらス・ベビーザらス広島府中,安芸郡府中町大須2-1-1ｲｵﾝﾓｰﾙ広島府中3F,34.394588,132.49915,1,広島県安芸郡府中町大須2-1-1ｲｵﾝﾓｰﾙ広島府中3F
734,広島県,タイトー,タイトーステーション 広島本通,広島市中区本通3-5 せらかぐ本通ﾋﾞﾙ,34.392856,132.460575,1,広島県広島市中区本通3-5 せらかぐ本通ﾋﾞﾙ
733,広島県,タイトー,タイトーステーション 広島紙屋町,広島市中区紙屋町2-2-21,34.394077,132.456076,2,広島県広島市中区紙屋町2-2-21
718,広島県,タイトー,タイトーステーション フジグラン神辺,福山市神辺町大字新道上字2-10-26 ﾌｼﾞｸﾞﾗﾝ神辺店3F,34.545319,133.357083,1,広島県福山市神辺町大字新道上字2-10-26 ﾌｼﾞｸﾞﾗﾝ神辺店3F
676,広島県,その他,タイトーFステーション ゆめタウン東広島,東広島市西条町土与丸1丁目5-7,34.42695,132.750133,1,広島県東広島市西条町土与丸1丁目5-7
675,広島県,その他,タイトーFステーション ゆめタウンみゆき,広島市南区宇品西6丁目7番14号 ゆめﾀｳﾝみゆき2F,34.35861,132.456434,1,広島県広島市南区宇品西6丁目7番14号 ゆめﾀｳﾝみゆき2F
578,広島県,その他,GiGO福山,福山市瀬戸町大字山北300,34.475588,133.316474,1,広島県福山市瀬戸町大字山北300
542,広島県,その他,GiGOLECT広島,広島市西区扇2丁目1-45 LECT2F,34.372878,132.406725,1,広島県広島市西区扇2丁目1-45 LECT2F
317,広島県,その他,アミパラ広島,広島市西区西観音町3-17,34.393453,132.436009,1,広島県広島市西区西観音町3-17
313,広島県,その他,あみぱらんど福山,福山市三吉町南2-8-24,34.488367,133.378505,1,広島県福山市三吉町南2-8-24
129,広島県,namco,namcoゆめタウン廿日市店,廿日市市下平良二丁目2番1号3F,34.3462,132.335718,1,広島県廿日市市下平良二丁目2番1号3F
125,広島県,namco,namcoゆめタウン広島店,広島市南区皆実町2丁目8番17号ゆめﾀｳﾝ広島店342,34.37623,132.46393,1,広島県広島市南区皆実町2丁目8番17号ゆめﾀｳﾝ広島店342
119,広島県,namco,namcoフジグラン尾道店,尾道市東尾道19-7,34.425536,133.239001,1,広島県尾道市東尾道19-7
118,広島県,namco,namcoフジグラン東広島店,東広島市西条町御薗宇4405ﾌｼﾞｸﾞﾗﾝ東広島店内,34.408193,132.749458,1,広島県東広島市西条町御薗宇4405ﾌｼﾞｸﾞﾗﾝ東広島店内
111,広島県,namco,namcoフジグラン三原店,三原市円一町1-1-7ﾌｼﾞｸﾞﾗﾝ三原店内,34.392597,133.079079,1,広島県三原市円一町1-1-7ﾌｼﾞｸﾞﾗﾝ三原店内
110,広島県,namco,namcoフジグラン広島店,広島市中区宝町2-1ﾌｼﾞｸﾞﾗﾝ広島3F,34.385963,132.464325,1,広島県広島市中区宝町2-1ﾌｼﾞｸﾞﾗﾝ広島3F
59,広島県,namco,namcoイオンモール広島府中店,安芸郡府中町大須2-1-1ｲｵﾝﾓｰﾙ広島府中3F,34.394588,132.49915,2,広島県安芸郡府中町大須2-1-1ｲｵﾝﾓｰﾙ広島府中3F
19,広島県,その他,LABI広島,広島市中区胡町5-22,34.39312,132.46435,1,広島県広島市中区胡町5-22
1583,山口県,その他,アピナ徳山,周南市青山町1-18ゆめタウン徳山店2階,34.042781,131.815573,1,山口県周南市青山町1-18ゆめタウン徳山店2階
1480,山口県,その他,アミパラ新南陽店,周南市古市1-4-1イオンタウン周南内,34.068244,131.758339,1,山口県周南市古市1-4-1イオンタウン周南内
1472,山口県,その他,ゆめシティ,下関市下関市伊倉新町3-1-1,34.006652,130.934141,1,山口県下関市下関市伊倉新町3-1-1
1087,山口県,モーリーファンタジー・PALO,モーリーファンタジー光,光市浅江字木園1756-1 ｲｵﾝ光店2階,33.979152,131.927618,1,山口県光市浅江字木園1756-1 ｲｵﾝ光店2階
1049,山口県,モーリーファンタジー・PALO,モーリーファンタジー下関,下関市竹崎町4-4-7 ｼｰﾓｰﾙｴｽﾄ4F,33.949128,130.923202,1,山口県下関市竹崎町4-4-7 ｼｰﾓｰﾙｴｽﾄ4F
964,山口県,その他,ペリカン山口,山口市大内千坊6-9-1 ゆめﾀｳﾝ山口内2F,34.160385,131.491345,1,山口県山口市大内千坊6-9-1 ゆめﾀｳﾝ山口内2F
958,山口県,その他,ペリカン宇部,宇部市妻崎開作411ゆめﾀｳﾝ宇部内1F,33.971338,131.208027,1,山口県宇部市妻崎開作411ゆめﾀｳﾝ宇部内1F
918,山口県,その他,フジグラン岩国店,岩国市山口県岩国市麻里布町2-9-8ﾌｼﾞｸﾞﾗﾝ岩国店5F,34.168674,132.223332,1,山口県岩国市山口県岩国市麻里布町2-9-8ﾌｼﾞｸﾞﾗﾝ岩国店5F
917,山口県,その他,フジグラン岩国,岩国市麻里布町2-9-8,34.168692,132.223372,1,山口県岩国市麻里布町2-9-8
915,山口県,その他,フジグラン宇部,宇部市明神町3-1-1,33.930617,131.256893,1,山口県宇部市明神町3-1-1
910,山口県,その他,ふぇすたらんど下松,下松市南花岡六丁目8番1号 ｻﾝﾘﾌﾞ下松店2F,34.030367,131.865284,1,山口県下松市南花岡六丁目8番1号 ｻﾝﾘﾌﾞ下松店2F
779,山口県,その他,トイザらス下関,下関市ゆめﾀｳﾝ1-1ゆめﾀｳﾝ長府内,34.030402,131.012845,1,山口県下関市ゆめﾀｳﾝ1-1ゆめﾀｳﾝ長府内
775,山口県,その他,てくもぴあ阿知須,山口市阿知須4825-1 ｻﾝﾊﾟｰｸあじす2階,34.009534,131.351623,1,山口県山口市阿知須4825-1 ｻﾝﾊﾟｰｸあじす2階
685,山口県,その他,タイトーFステーション 山口メルクス,山口市大字黒川82-1 ﾊｲﾊﾟｰﾓｰﾙﾒﾙｸｽ内,34.178294,131.473843,1,山口県山口市大字黒川82-1 ﾊｲﾊﾟｰﾓｰﾙﾒﾙｸｽ内
646,山口県,その他,ソユーファミリーゲームフィールド 防府,防府市鐘紡町7番1号ｲｵﾝﾀｳﾝ防府1F,34.048313,131.590145,1,山口県防府市鐘紡町7番1号ｲｵﾝﾀｳﾝ防府1F
589,山口県,その他,GiGOイオンタウン小郡,山口市小郡前田町3-6,34.086998,131.398637,1,山口県山口市小郡前田町3-6
325,山口県,その他,アミュージアム周南,下松市中央町21-3ゆめﾀｳﾝ下松3F,34.018627,131.862967,1,山口県下松市中央町21-3ゆめﾀｳﾝ下松3F
315,山口県,その他,アミパラ下関,下関市長府才川1丁目42-48,34.02533,131.007485,1,山口県下関市長府才川1丁目42-48
219,山口県,その他,THE 3RD PLANET 山口,山口市湯田温泉6丁目8番3号,34.164734,131.451808,2,山口県山口市湯田温泉6丁目8番3号
201,山口県,モーリーファンタジー・PALO,PALO防府,防府市中央町1-3 ｲｵﾝ防府店3階,34.052166,131.569825,1,山口県防府市中央町1-3 ｲｵﾝ防府店3階
108,山口県,namco,namcoフジグラン宇部店,宇部市明神町三丁目1番1号ﾌｼﾞｸﾞﾗﾝ宇部店2F,33.930447,131.255606,1,山口県宇部市明神町三丁目1番1号ﾌｼﾞｸﾞﾗﾝ宇部店2F
88,山口県,namco,namcoおのだサンパーク店,山陽小野田市中川6丁目4番1号おのだｻﾝﾊﾟｰｸｼｮｯﾋﾟﾝｸﾞｾﾝﾀ2F,33.984946,131.170981,1,山口県山陽小野田市中川6丁目4番1号おのだｻﾝﾊﾟｰｸｼｮｯﾋﾟﾝｸﾞｾﾝﾀ2F
1501,徳島県,その他,GiGO徳島スエヒロボウル,徳島市南末広町４−９５−２スエヒロボウル１Ｆ,34.061235,134.57373,1,徳島県徳島市南末広町４−９５−２スエヒロボウル１Ｆ
1282,徳島県,モーリーファンタジー・PALO,モーリーファンタジー徳島,徳島市末広町4-1 ｲｵﾝｽﾀｲﾙ徳島4F,34.062505,134.573351,1,徳島県徳島市末広町4-1 ｲｵﾝｽﾀｲﾙ徳島4F
923,徳島県,その他,フジグラン石井,名西郡石井町高川原字天神544-1,34.082974,134.441153,1,徳島県名西郡石井町高川原字天神544-1
832,徳島県,その他,パレパレ田宮,徳島市南田宮2丁目2-46 ｱｿﾋﾞﾊﾞ!,34.086048,134.542652,1,徳島県徳島市南田宮2丁目2-46 ｱｿﾋﾞﾊﾞ!
820,徳島県,その他,ナムコランド鳴門店,鳴門市撫養町大桑島字濘岩浜4ｰ1ﾊﾟﾜｰｼﾃｨ鳴門店別棟,34.186926,134.612308,2,徳島県鳴門市撫養町大桑島字濘岩浜4ｰ1ﾊﾟﾜｰｼﾃｨ鳴門店別棟
719,徳島県,タイトー,タイトーステーション フジグラン北島,板野郡北島町鯛浜字西ﾉ須81-1 ﾌｼﾞｸﾞﾗﾝ北島店2F,34.111836,134.547382,1,徳島県板野郡北島町鯛浜字西ﾉ須81-1 ﾌｼﾞｸﾞﾗﾝ北島店2F
189,徳島県,モーリーファンタジー・PALO,PALO小松島,小松島市小松島町領田20 小松島ｼｮｯﾋﾟﾝｸﾞﾌﾟﾗｻﾞﾙﾋﾟｱ1,34.005316,134.571523,1,徳島県小松島市小松島町領田20 小松島ｼｮｯﾋﾟﾝｸﾞﾌﾟﾗｻﾞﾙﾋﾟｱ1
128,徳島県,namco,namcoゆめタウン徳島店,板野郡藍住町奥野字東中須88番地の1ゆめﾀｳﾝ徳島2階,34.119364,134.501132,1,徳島県板野郡藍住町奥野字東中須88番地の1ゆめﾀｳﾝ徳島2階
116,徳島県,namco,namcoフジグラン石井店,名西郡石井町高川原字天神544番地1ﾌｼﾞｸﾞﾗﾝ石井店内2F,34.083688,134.442284,1,徳島県名西郡石井町高川原字天神544番地1ﾌｼﾞｸﾞﾗﾝ石井店内2F
1532,香川県,その他,GiGOイオンモール高松,高松市香西本町1-1 イオンモール高松2F 227-2,34.351821,134.004908,1,香川県高松市香西本町1-1 イオンモール高松2F 227-2
1367,香川県,その他,ゆめタウン高松店,高松市三条町中所608-1ゆめﾀｳﾝ高松店2Fゆめﾗﾝﾄﾞ,34.317008,134.041364,1,香川県高松市三条町中所608-1ゆめﾀｳﾝ高松店2Fゆめﾗﾝﾄﾞ
1101,香川県,モーリーファンタジー・PALO,モーリーファンタジー高松東,高松市福岡町3-8-5 ｲｵﾝ高松東店3階,34.345349,134.072704,1,香川県高松市福岡町3-8-5 ｲｵﾝ高松東店3階
1100,香川県,モーリーファンタジー・PALO,モーリーファンタジー高松,高松市香西本町1-1 ｲｵﾝ高松店3階,34.352013,134.004263,1,香川県高松市香西本町1-1 ｲｵﾝ高松店3階
1029,香川県,モーリーファンタジー・PALO,モーリーファンタジー綾川,綾歌郡綾川町萱原822-1 ｲｵﾝ綾川店3階,34.251814,133.930713,1,香川県綾歌郡綾川町萱原822-1 ｲｵﾝ綾川店3階
975,香川県,モーリーファンタジー・PALO,モーリーファンタジーf綾川,綾歌郡綾川町萱原822-1 ｲｵﾝ綾川SC3階,34.251338,133.931749,1,香川県綾歌郡綾川町萱原822-1 ｲｵﾝ綾川SC3階
963,香川県,その他,ペリカン三豊,三豊市豊中町本山甲22,34.145447,133.699574,1,香川県三豊市豊中町本山甲22
962,香川県,その他,ペリカン高松,高松市三条町字中所608-1ゆめﾀｳﾝ高松内2F,34.316949,134.041476,1,香川県高松市三条町字中所608-1ゆめﾀｳﾝ高松内2F
959,香川県,その他,ペリカン丸亀,丸亀市新田町150ゆめﾀｳﾝ丸亀内3F,34.273508,133.785538,1,香川県丸亀市新田町150ゆめﾀｳﾝ丸亀内3F
780,香川県,その他,トイザらス丸亀,丸亀市蓬莱町56-1ﾊﾟﾌﾞﾘｯｸﾌﾟﾗｻﾞ丸亀内,34.295638,133.784791,1,香川県丸亀市蓬莱町56-1ﾊﾟﾌﾞﾘｯｸﾌﾟﾗｻﾞ丸亀内
771,香川県,タイトー,タイトーステーション丸亀,丸亀市川西町南1280番地1 ﾌｼﾞｸﾞﾗﾝ丸亀ﾊﾞｯﾊ棟2F,34.241747,133.835799,2,香川県丸亀市川西町南1280番地1 ﾌｼﾞｸﾞﾗﾝ丸亀ﾊﾞｯﾊ棟2F
113,香川県,namco,namcoフジグラン十川店,高松市十川西町651-1ﾌｼﾞｸﾞﾗﾝ十川別棟,34.272056,134.108211,1,香川県高松市十川西町651-1ﾌｼﾞｸﾞﾗﾝ十川別棟
1559,愛媛県,その他,GiGO松山,松山市枝松5-7-32,33.828411,132.786445,1,愛媛県松山市枝松5-7-32
1289,愛媛県,モーリーファンタジー・PALO,モーリーファンタジー南松山,松山市朝生田町5-1-25 ｼﾞｮｰ･ﾌﾟﾗ2F,33.821021,132.773027,1,愛媛県松山市朝生田町5-1-25 ｼﾞｮｰ･ﾌﾟﾗ2F
1177,愛媛県,モーリーファンタジー・PALO,モーリーファンタジー新居浜,新居浜市前田町8-8 ｲｵﾝ新居浜店2階,33.954586,133.267923,1,愛媛県新居浜市前田町8-8 ｲｵﾝ新居浜店2階
1163,愛媛県,モーリーファンタジー・PALO,モーリーファンタジー松山,松山市天山1-13-5 ｲｵﾝ松山店3階,33.823518,132.776454,1,愛媛県松山市天山1-13-5 ｲｵﾝ松山店3階
1106,愛媛県,モーリーファンタジー・PALO,モーリーファンタジー今治新都市,今治市にぎわい広場1-1 ｲｵﾝｽﾀｲﾙ今治新都市2F,34.044367,132.962297,1,愛媛県今治市にぎわい広場1-1 ｲｵﾝｽﾀｲﾙ今治新都市2F
924,愛媛県,その他,フジグラン川之江,四国中央市妻鳥町1136-1,33.993001,133.574961,1,愛媛県四国中央市妻鳥町1136-1
922,愛媛県,その他,フジグラン西条,西条市新田字北新田235,33.92422,133.182626,1,愛媛県西条市新田字北新田235
921,愛媛県,その他,フジグラン松山,松山市宮西1-2-1,33.844934,132.752432,1,愛媛県松山市宮西1-2-1
726,愛媛県,タイトー,タイトーステーション 衣山,松山市衣山1丁目188 ﾊﾟﾙﾃｨ･ﾌｼﾞ衣山内,33.853891,132.74688,1,愛媛県松山市衣山1丁目188 ﾊﾟﾙﾃｨ･ﾌｼﾞ衣山内
683,愛媛県,その他,タイトーFステーション 今治ワールドプラザ,今治市東村1-14-2 今治ﾜｰﾙﾄﾞﾌﾟﾗｻﾞ内,34.042781,133.027806,1,愛媛県今治市東村1-14-2 今治ﾜｰﾙﾄﾞﾌﾟﾗｻﾞ内
647,愛媛県,その他,ソユーフォレストハンター 松前,伊予郡松前町筒井850番地ｴﾐﾌﾙMASAKIAM棟1F,33.789716,132.716075,1,愛媛県伊予郡松前町筒井850番地ｴﾐﾌﾙMASAKIAM棟1F
117,愛媛県,namco,namcoフジグラン川之江店,四国中央市妻鳥町1136-1ﾌｼﾞｸﾞﾗﾝ川之江店内2F,33.992952,133.57495,1,愛媛県四国中央市妻鳥町1136-1ﾌｼﾞｸﾞﾗﾝ川之江店内2F
115,愛媛県,namco,namcoフジグラン松山店,松山市宮西1-2-1ﾌｼﾞｸﾞﾗﾝ松山店4F,33.844919,132.753061,1,愛媛県松山市宮西1-2-1ﾌｼﾞｸﾞﾗﾝ松山店4F
114,愛媛県,namco,namcoフジグラン重信店,東温市野田3-1-13ﾌｼﾞｸﾞﾗﾝ重信店2F,33.795523,132.833607,1,愛媛県東温市野田3-1-13ﾌｼﾞｸﾞﾗﾝ重信店2F
1102,高知県,モーリーファンタジー・PALO,モーリーファンタジー高知,高知市秦南町1-4-8 ｲｵﾝ高知店2階,33.577477,133.542322,1,高知県高知市秦南町1-4-8 ｲｵﾝ高知店2階
934,高知県,その他,プラサカプコン高知,高知市秦南町1-4-8 ｲｵﾝﾓｰﾙ高知2F,33.575833,133.54349,2,高知県高知市秦南町1-4-8 ｲｵﾝﾓｰﾙ高知2F
927,高知県,その他,フジ須崎,須崎市西町2-7-15,33.38594,133.280554,1,高知県須崎市西町2-7-15
919,高知県,その他,GiGOフジグラン高知,高知市朝倉東町52-15,33.54283,133.498759,1,高知県高知市朝倉東町52-15
916,高知県,その他,フジグラン葛島,高知市小倉町3-30,33.557972,133.566932,1,高知県高知市小倉町3-30
695,高知県,その他,タイトーFステーション 野市,香南市野市町西野2007-1 ﾌｼﾞｸﾞﾗﾝ野市店内,33.561614,133.696117,1,高知県香南市野市町西野2007-1 ﾌｼﾞｸﾞﾗﾝ野市店内
566,高知県,その他,セガワールドフジグラン,高知市朝倉東町52-15 ﾌｼﾞｸﾞﾗﾝ高知3F,33.54292,133.497877,1,高知県高知市朝倉東町52-15 ﾌｼﾞｸﾞﾗﾝ高知3F
517,高知県,その他,サニーアクシス南国アクシスキッズ,南国市大そね乙1009ｻﾆｰｱｸｼｽ南国店,33.566545,133.648733,2,高知県南国市大そね乙1009ｻﾆｰｱｸｼｽ南国店
324,高知県,その他,アミュージアム高知,高知市介良字長丁乙317-1,33.553931,133.60393,1,高知県高知市介良字長丁乙317-1
323,高知県,その他,アミュージアム高松,高松市伏石町2144-91F,34.311998,134.05561,1,高知県高松市伏石町2144-91F
207,高知県,その他,SOYU Game Field高松,高松市香西本町1番地1ｲｵﾝﾓｰﾙ高松2F,34.352055,134.0048,1,高知県高松市香西本町1番地1ｲｵﾝﾓｰﾙ高松2F
112,高知県,namco,namcoフジグラン四万十店,四万十市具同字東五反田2222番地ﾌｼﾞｸﾞﾗﾝ四万十店内,32.981136,132.920533,1,高知県四万十市具同字東五反田2222番地ﾌｼﾞｸﾞﾗﾝ四万十店内
109,高知県,namco,namcoフジグラン葛島店,高知市小倉町3-30ﾌｼﾞｸﾞﾗﾝ葛島店内,33.55855,133.56725,1,高知県高知市小倉町3-30ﾌｼﾞｸﾞﾗﾝ葛島店内
1561,福岡県,その他,トイザラス八幡,北九州市八幡東区東田3-2-102 ｲｵﾝﾓｰﾙ八幡東1F,33.8706,130.810831,1,福岡県北九州市八幡東区東田3-2-102 ｲｵﾝﾓｰﾙ八幡東1F
1519,福岡県,namco,namcoららぽーと福岡店,福岡市博多区那珂6丁目23番地1ららぽーと福岡内4階,33.565202,130.440886,1,福岡県福岡市博多区那珂6丁目23番地1ららぽーと福岡内4階
1505,福岡県,その他,ゆめタウン八女,八女市蒲原988-28,33.215428,130.547203,1,福岡県八女市蒲原988-28
1467,福岡県,その他,遊遊パークフォレオ博多,福岡市博多区東那珂1丁目14番46号 ﾌｫﾚｵ博多2F,33.57415,130.439949,1,福岡県福岡市博多区東那珂1丁目14番46号 ﾌｫﾚｵ博多2F
1436,福岡県,その他,小倉メトロポリス,北九州市小倉北区西港町27-5,33.896646,130.85815,1,福岡県北九州市小倉北区西港町27-5
1429,福岡県,その他,ABCパレード博多,福岡市東区東浜1-1-1 ゆめﾀｳﾝ博多店2F,33.611874,130.411892,1,福岡県福岡市東区東浜1-1-1 ゆめﾀｳﾝ博多店2F
1369,福岡県,その他,ゆめタウン八女店,八女市大字蒲原988-28,33.215428,130.547203,1,福岡県八女市大字蒲原988-28
1329,福岡県,モーリーファンタジー・PALO,モーリーファンタジー福津,福津市日蒔野6-16-1 ｲｵﾝ2階,33.75341,130.49411,1,福岡県福津市日蒔野6-16-1 ｲｵﾝ2階
1327,福岡県,モーリーファンタジー・PALO,モーリーファンタジー福岡空港,糟屋郡志免町別府2-17-20 ﾄﾗｲｱﾙ福岡空港店1F,33.601877,130.454736,1,福岡県糟屋郡志免町別府2-17-20 ﾄﾗｲｱﾙ福岡空港店1F
1326,福岡県,モーリーファンタジー・PALO,モーリーファンタジー福岡伊都,福岡市西区北原1-2-1 ｲｵﾝ福岡伊都店3階,33.577467,130.25822,1,福岡県福岡市西区北原1-2-1 ｲｵﾝ福岡伊都店3階
1325,福岡県,モーリーファンタジー・PALO,モーリーファンタジー福岡,糟屋郡粕屋町大字酒殿字老ﾉ木192-1 ｲｵﾝ福岡ﾙｸﾙ店2階,33.595354,130.481113,1,福岡県糟屋郡粕屋町大字酒殿字老ﾉ木192-1 ｲｵﾝ福岡ﾙｸﾙ店2階
1308,福岡県,モーリーファンタジー・PALO,モーリーファンタジー八幡東,北九州市八幡東区東田3-2-102 ｲｵﾝ八幡東店3階,33.870009,130.81236,1,福岡県北九州市八幡東区東田3-2-102 ｲｵﾝ八幡東店3階
1261,福岡県,モーリーファンタジー・PALO,モーリーファンタジー田川,田川市大字伊田4616 ﾄﾗｲｱﾙ田川店1F,33.653052,130.809392,1,福岡県田川市大字伊田4616 ﾄﾗｲｱﾙ田川店1F
1250,福岡県,モーリーファンタジー・PALO,モーリーファンタジー直方,直方市湯野原2-1-1 ｲｵﾝ直方店2階,33.769464,130.748965,1,福岡県直方市湯野原2-1-1 ｲｵﾝ直方店2階
1237,福岡県,モーリーファンタジー・PALO,モーリーファンタジー筑紫野,筑紫野市大字立明寺434-1 ｲｵﾝ筑紫野店3階,33.480534,130.525714,1,福岡県筑紫野市大字立明寺434-1 ｲｵﾝ筑紫野店3階
1236,福岡県,モーリーファンタジー・PALO,モーリーファンタジー筑後,筑後市大字上北島字井原口1259-1 ﾄﾗｲｱﾙ筑後店1F,33.20387,130.493688,1,福岡県筑後市大字上北島字井原口1259-1 ﾄﾗｲｱﾙ筑後店1F
1232,福岡県,モーリーファンタジー・PALO,モーリーファンタジー大野城,大野城市錦町4-1-1 ｲｵﾝ大野城店3階,33.537586,130.476099,1,福岡県大野城市錦町4-1-1 ｲｵﾝ大野城店3階
1231,福岡県,モーリーファンタジー・PALO,モーリーファンタジー大木,三潴郡大木町蛭池1200 ｲｵﾝSC大木店1階,33.220589,130.44747,1,福岡県三潴郡大木町蛭池1200 ｲｵﾝSC大木店1階
1230,福岡県,モーリーファンタジー・PALO,モーリーファンタジー大牟田,大牟田市岬町3-4 ｲｵﾝ大牟田店2階,33.030748,130.4298,1,福岡県大牟田市岬町3-4 ｲｵﾝ大牟田店2階
1146,福岡県,モーリーファンタジー・PALO,モーリーファンタジー若松,北九州市若松区二島1-3-1 ｲｵﾝ若松店2階,33.89203,130.742795,1,福岡県北九州市若松区二島1-3-1 ｲｵﾝ若松店2階
1115,福岡県,モーリーファンタジー・PALO,モーリーファンタジー笹丘,福岡市中央区笹丘1-28-74 ｲｵﾝ笹丘店B1F,33.565028,130.377356,1,福岡県福岡市中央区笹丘1-28-74 ｲｵﾝ笹丘店B1F
1094,福岡県,モーリーファンタジー・PALO,モーリーファンタジー香椎浜,福岡市東区香椎浜3-12-1 ｲｵﾝ香椎浜店2階,33.657396,130.429969,1,福岡県福岡市東区香椎浜3-12-1 ｲｵﾝ香椎浜店2階
1083,福岡県,モーリーファンタジー・PALO,モーリーファンタジー原,福岡市早良区原6-27-8 ｲｵﾝ原店3階,33.564538,130.34206,1,福岡県福岡市早良区原6-27-8 ｲｵﾝ原店3階
1016,福岡県,モーリーファンタジー・PALO,モーリーファンタジーマリナタウン,福岡市西区豊浜3-1-10 ｼｮｯﾊﾟｰｽﾞMﾏﾘﾅﾀｳﾝ店2F,33.58953,130.334219,1,福岡県福岡市西区豊浜3-1-10 ｼｮｯﾊﾟｰｽﾞMﾏﾘﾅﾀｳﾝ店2F
1010,福岡県,モーリーファンタジー・PALO,モーリーファンタジービバモール赤間,宗像市田久2-1-1 ﾋﾞﾊﾞﾓｰﾙ赤間,33.805895,130.568173,1,福岡県宗像市田久2-1-1 ﾋﾞﾊﾞﾓｰﾙ赤間
961,福岡県,その他,ペリカン行橋,行橋市西宮市3-8-1ゆめﾀｳﾝ行橋内2F,33.720232,130.967578,1,福岡県行橋市西宮市3-8-1ゆめﾀｳﾝ行橋内2F
944,福岡県,namco,namcoゆめタウン久留米店,久留米市新合川1丁目2番1号ゆめﾀｳﾝ久留米2階,33.32188,130.538305,2,福岡県久留米市新合川1丁目2番1号ゆめﾀｳﾝ久留米2階
911,福岡県,その他,ふぇすたらんど久留米,久留米市野中町1411-1 ｻﾝﾘﾌﾞ久留米店2F,33.302761,130.529967,1,福岡県久留米市野中町1411-1 ｻﾝﾘﾌﾞ久留米店2F
827,福岡県,その他,ハムリーズ キャナルシティ博多店,福岡市博多区住吉1丁目2-22ｷｬﾅﾙｼﾃｨ博多OPA内ｻｳｽﾋﾞﾙB1F,33.588498,130.410718,1,福岡県福岡市博多区住吉1丁目2-22ｷｬﾅﾙｼﾃｨ博多OPA内ｻｳｽﾋﾞﾙB1F
823,福岡県,その他,パスカランド 福重,福岡市西区拾六町1丁目7番1号 MEGAﾄﾞﾝ･ｷﾎｰﾃ福重店3F,33.567226,130.314842,1,福岡県福岡市西区拾六町1丁目7番1号 MEGAﾄﾞﾝ･ｷﾎｰﾃ福重店3F
822,福岡県,その他,パスカランド 黒崎,北九州市八幡西区西曲町3-1 ｲｵﾝﾀｳﾝ黒崎店1F,33.859786,130.76025,1,福岡県北九州市八幡西区西曲町3-1 ｲｵﾝﾀｳﾝ黒崎店1F
804,福岡県,その他,トイザらス福岡香椎,福岡市東区香椎浜312-1,33.65555,130.427437,1,福岡県福岡市東区香椎浜312-1
803,福岡県,その他,トイザらス福岡かすや,糟屋郡粕屋町大字酒殿字老ﾉ木192-1-1001ｲｵﾝﾓ-ﾙ福岡ﾙｸﾙ1F,33.595354,130.481113,1,福岡県糟屋郡粕屋町大字酒殿字老ﾉ木192-1-1001ｲｵﾝﾓ-ﾙ福岡ﾙｸﾙ1F
782,福岡県,その他,トイザらス久留米,久留米市新合川13-30,33.309365,130.544042,1,福岡県久留米市新合川13-30
765,福岡県,タイトー,タイトーステーション 福岡天神,福岡市中央区天神2-6-35 ｻｻﾞﾝｸﾛｽﾋﾞﾙ,33.589625,130.397298,2,福岡県福岡市中央区天神2-6-35 ｻｻﾞﾝｸﾛｽﾋﾞﾙ
724,福岡県,タイトー,タイトーステーション リバーウォーク,北九州市小倉北区室町1-1-1 ﾘﾊﾞｰｳｫｰｸ北九州4F5409,33.885909,130.875291,2,福岡県北九州市小倉北区室町1-1-1 ﾘﾊﾞｰｳｫｰｸ北九州4F5409
721,福岡県,タイトー,タイトーステーション マリノア,福岡市西区小戸2-12-30 ﾏﾘﾉｱｼﾃｨ福岡ﾏﾘﾅｻｲﾄﾞ棟2F,33.594844,130.322755,1,福岡県福岡市西区小戸2-12-30 ﾏﾘﾉｱｼﾃｨ福岡ﾏﾘﾅｻｲﾄﾞ棟2F
714,福岡県,タイトー,タイトーステーション サニーサイドモール小倉,北九州市小倉南区下曽根新町10-1,33.832316,130.933174,1,福岡県北九州市小倉南区下曽根新町10-1
713,福岡県,タイトー,タイトーステーション キャナルシティ博多,福岡市博多区住吉1-2-22 ｷｬﾅﾙｼﾃｨ博多4F,33.589319,130.411099,1,福岡県福岡市博多区住吉1-2-22 ｷｬﾅﾙｼﾃｨ博多4F
677,福岡県,その他,タイトーFステーション ヨドバシ博多,福岡市博多区博多駅中央街6-12 ﾖﾄﾞﾊﾞｼｶﾒﾗ4F,33.588305,130.421694,2,福岡県福岡市博多区博多駅中央街6-12 ﾖﾄﾞﾊﾞｼｶﾒﾗ4F
546,福岡県,その他,GiGO中間,中間市上蓮花寺3-1-1,33.823083,130.721719,1,福岡県中間市上蓮花寺3-1-1
520,福岡県,その他,サンゲームス新宮,糟屋郡新宮町美咲3-1-40,33.706182,130.440571,1,福岡県糟屋郡新宮町美咲3-1-40
369,福岡県,その他,イオン穂波,飯塚市枝国長浦666-48,33.634397,130.670498,1,福岡県飯塚市枝国長浦666-48
241,福岡県,その他,アニメガ×ソフマップ天神1号館,福岡市中央区今泉1-25-1 ﾋﾞｯｸｶﾒﾗ天神1号館Bﾌﾞﾛｯｸ内2F,33.587021,130.401031,1,福岡県福岡市中央区今泉1-25-1 ﾋﾞｯｸｶﾒﾗ天神1号館Bﾌﾞﾛｯｸ内2F
157,福岡県,namco,namco博多バスターミナル店,福岡市博多区博多駅中央街2-1博多ﾊﾞｽﾀｰﾐﾅﾙ7F,33.591347,130.419189,2,福岡県福岡市博多区博多駅中央街2-1博多ﾊﾞｽﾀｰﾐﾅﾙ7F
127,福岡県,namco,namcoゆめタウン筑紫野店,筑紫野市針摺東3-3-1,33.484709,130.538275,1,福岡県筑紫野市針摺東3-3-1
120,福岡県,namco,namcoマークイズ福岡ももち店,福岡市中央区地行浜2-2-1ﾏｰｸｲｽﾞ福岡ももち店4F,33.592825,130.363656,1,福岡県福岡市中央区地行浜2-2-1ﾏｰｸｲｽﾞ福岡ももち店4F
1564,佐賀県,その他,ポップンパーク佐賀,佐賀市東与賀町大字下古賀字一本杉87番地1,33.222781,130.308482,1,佐賀県佐賀市東与賀町大字下古賀字一本杉87番地1
1370,佐賀県,その他,ゆめタウン武雄店,武雄市武雄町武雄4992ゆめﾀｳﾝ武雄2Fゆめｷｯｽﾞ,33.188736,130.025108,1,佐賀県武雄市武雄町武雄4992ゆめﾀｳﾝ武雄2Fゆめｷｯｽﾞ
1268,佐賀県,モーリーファンタジー・PALO,モーリーファンタジー唐津,唐津市鏡字立神4671 ｲｵﾝ唐津店2階,33.4369,130.01235,1,佐賀県唐津市鏡字立神4671 ｲｵﾝ唐津店2階
1108,佐賀県,モーリーファンタジー・PALO,モーリーファンタジー佐賀大和,佐賀市大和町大字尼寺3535 ｲｵﾝ佐賀大和店2階,33.303252,130.280987,1,佐賀県佐賀市大和町大字尼寺3535 ｲｵﾝ佐賀大和店2階
1107,佐賀県,モーリーファンタジー・PALO,モーリーファンタジー佐賀,佐賀市東与賀町大字下古賀字一本杉87-1 ｲｵﾝSC佐賀店1階,33.181094,130.280778,1,佐賀県佐賀市東与賀町大字下古賀字一本杉87-1 ｲｵﾝSC佐賀店1階
968,佐賀県,その他,ペリカン武雄,武雄市武雄町武雄大字武雄4992,33.188743,130.025012,1,佐賀県武雄市武雄町武雄大字武雄4992
824,佐賀県,その他,パスカランド鳥栖,鳥栖市本鳥栖町537-1 ﾌﾚｽﾎﾟ鳥栖店2F,33.375891,130.516848,1,佐賀県鳥栖市本鳥栖町537-1 ﾌﾚｽﾎﾟ鳥栖店2F
674,佐賀県,その他,タイトーFステーション モラージュ佐賀,佐賀市巨勢町大字牛島730 ﾓﾗｰｼﾞｭ佐賀北館2階,33.252517,130.318773,1,佐賀県佐賀市巨勢町大字牛島730 ﾓﾗｰｼﾞｭ佐賀北館2階
614,佐賀県,その他,GiGO武雄,武雄市武雄町大字富岡12517-1,33.199356,130.034656,1,佐賀県武雄市武雄町大字富岡12517-1
126,佐賀県,namco,namcoゆめタウン佐賀店,佐賀市兵庫北5-14-1ゆめﾀｳﾝ佐賀店2F,33.275913,130.307849,1,佐賀県佐賀市兵庫北5-14-1ゆめﾀｳﾝ佐賀店2F
122,佐賀県,namco,namcoモラージュ佐賀店,佐賀市巨勢町大字牛島730ﾓﾗｰｼﾞｭ佐賀南館1F,33.252517,130.318773,1,佐賀県佐賀市巨勢町大字牛島730ﾓﾗｰｼﾞｭ佐賀南館1F
1502,長崎県,その他,GiGO諫早,諫早市小川町９０−１,32.83157,130.05522,1,長崎県諫早市小川町９０−１
1489,長崎県,その他,GiGOみらい長崎ココウォーク,長崎市茂里町１−５５みらい長崎ココウォーク ５Ｆ,32.762534,129.864648,1,長崎県長崎市茂里町１−５５みらい長崎ココウォーク ５Ｆ
1353,長崎県,モーリーファンタジー・PALO,モーリーファンタジー有家,南島原市有家町山川135-1 ｲｵﾝ有家店1階,32.663625,130.309474,1,長崎県南島原市有家町山川135-1 ｲｵﾝ有家店1階
1278,長崎県,モーリーファンタジー・PALO,モーリーファンタジー東長崎,長崎市田中町1027-8 ｲｵﾝ東長崎店2階,32.768298,129.952514,1,長崎県長崎市田中町1027-8 ｲｵﾝ東長崎店2階
1246,長崎県,モーリーファンタジー・PALO,モーリーファンタジー長崎,長崎市新地町3-17 ｲｵﾝ長崎店5F,32.74158,129.874085,1,長崎県長崎市新地町3-17 ｲｵﾝ長崎店5F
1228,長崎県,モーリーファンタジー・PALO,モーリーファンタジー大塔,佐世保市大塔町14-2 ｲｵﾝ大塔店3階,33.148545,129.779987,1,長崎県佐世保市大塔町14-2 ｲｵﾝ大塔店3階
1225,長崎県,モーリーファンタジー・PALO,モーリーファンタジー大村,大村市幸町25-200 ｲｵﾝ大村店2階,32.901537,129.954119,1,長崎県大村市幸町25-200 ｲｵﾝ大村店2階
1142,長崎県,モーリーファンタジー・PALO,モーリーファンタジー時津,西彼杵郡時津町浜田郷751-5 ｲｵﾝ時津店2階,32.831809,129.863187,1,長崎県西彼杵郡時津町浜田郷751-5 ｲｵﾝ時津店2階
1036,長崎県,モーリーファンタジー・PALO,モーリーファンタジー壱岐,壱岐市芦辺町箱崎中山触字干拓2604-2 ｲｵﾝ壱岐店2F,33.81024,129.751437,1,長崎県壱岐市芦辺町箱崎中山触字干拓2604-2 ｲｵﾝ壱岐店2F
1001,長崎県,モーリーファンタジー・PALO,モーリーファンタジーチトセピア,長崎市千歳町5-1 ｲｵﾝﾁﾄｾﾋﾟｱ千歳店3F,32.790491,129.86144,1,長崎県長崎市千歳町5-1 ｲｵﾝﾁﾄｾﾋﾟｱ千歳店3F
130,長崎県,namco,namcoゆめタウン夢彩都店,長崎市元船町10-1夢彩都4F 夢彩都4F,32.746263,129.870253,1,長崎県長崎市元船町10-1夢彩都4F 夢彩都4F
1518,熊本県,その他,キデイランド アミュプラザくまもと,熊本市春日3-15-26,32.788678,130.688552,1,熊本県熊本市春日3-15-26
1365,熊本県,その他,ゆめタウンサンピアンアミューズパーク,熊本市東区熊本県熊本市東区上南部二丁目2番2号ゆめﾀｳﾝｻﾝﾋﾟｱﾝ3F,32.827296,130.763575,1,熊本県熊本市東区熊本県熊本市東区上南部二丁目2番2号ゆめﾀｳﾝｻﾝﾋﾟｱﾝ3F
1307,熊本県,モーリーファンタジー・PALO,モーリーファンタジー八代,八代市沖町六-割3987-3 ｲｵﾝ八代店2階,32.524737,130.584156,1,熊本県八代市沖町六-割3987-3 ｲｵﾝ八代店2階
1260,熊本県,モーリーファンタジー・PALO,モーリーファンタジー田崎,熊本市西区田崎町字下寄380 ｲｵﾝﾀｳﾝ田崎店1階,32.783936,130.677978,1,熊本県熊本市西区田崎町字下寄380 ｲｵﾝﾀｳﾝ田崎店1階
1257,熊本県,モーリーファンタジー・PALO,モーリーファンタジー天草,天草市亀場町食場後山下740 ｲｵﾝ天草店2階,32.434553,130.179354,1,熊本県天草市亀場町食場後山下740 ｲｵﾝ天草店2階
1077,熊本県,モーリーファンタジー・PALO,モーリーファンタジー熊本中央,熊本市中央区大江4-2-1 ｲｵﾝ熊本中央店2F,32.800348,130.718946,1,熊本県熊本市中央区大江4-2-1 ｲｵﾝ熊本中央店2F
1076,熊本県,モーリーファンタジー・PALO,モーリーファンタジー熊本,上益城郡嘉島町上島字長池2232 ｲｵﾝ熊本店2階,32.737461,130.745582,1,熊本県上益城郡嘉島町上島字長池2232 ｲｵﾝ熊本店2階
825,熊本県,その他,パスカワールド宇土,宇土市善道寺町綾織95 宇土ｼﾃｨﾓｰﾙ2F,32.682836,130.668712,1,熊本県宇土市善道寺町綾織95 宇土ｼﾃｨﾓｰﾙ2F
785,熊本県,その他,トイザらス熊本南,宇城市小川町河江1-1,32.597414,130.706668,1,熊本県宇城市小川町河江1-1
784,熊本県,その他,トイザらス熊本,熊本市上南部2-2-2ゆめﾀｳﾝｻﾝﾋﾟｱﾝ1F,32.827296,130.763575,1,熊本県熊本市上南部2-2-2ゆめﾀｳﾝｻﾝﾋﾟｱﾝ1F
723,熊本県,タイトー,タイトーステーション ゆめタウン八代,八代市建馬町3-1 ゆめﾀｳﾝ八代2F,32.505695,130.585744,1,熊本県八代市建馬町3-1 ゆめﾀｳﾝ八代2F
722,熊本県,タイトー,タイトーステーション ゆめタウン光の森,菊池郡菊陽町光の森7丁目33番地1 ゆめﾀｳﾝ光の森2F,32.860295,130.784577,1,熊本県菊池郡菊陽町光の森7丁目33番地1 ゆめﾀｳﾝ光の森2F
519,熊本県,その他,サンゲームス熊本インタープラザ,熊本市東区御領8-4-82,32.831,130.771382,1,熊本県熊本市東区御領8-4-82
217,熊本県,その他,THE 3RD PLANET 下通り,熊本市中央区手取本町4-12,32.80268,130.709372,2,熊本県熊本市中央区手取本町4-12
124,熊本県,namco,namcoゆめタウン光の森店,菊池郡菊陽町光の森7丁目39番1ゆめﾀｳﾝ光の森南館3F,32.859014,130.785681,1,熊本県菊池郡菊陽町光の森7丁目39番1ゆめﾀｳﾝ光の森南館3F
93,熊本県,namco,namcoサクラマチクマモト店,熊本市中央区桜町3-10ｻｸﾗﾏﾁｸﾏﾓﾄ3F,32.800527,130.703635,1,熊本県熊本市中央区桜町3-10ｻｸﾗﾏﾁｸﾏﾓﾄ3F
57,熊本県,namco,namcoイオンモール宇城店,宇城市小川町河江1-1ｲｵﾝﾓｰﾙ宇城2F,32.596899,130.706788,1,熊本県宇城市小川町河江1-1ｲｵﾝﾓｰﾙ宇城2F
38,熊本県,namco,namcoWC南熊本店,熊本市中央区九品寺6丁目9番1,32.787494,130.716709,1,熊本県熊本市中央区九品寺6丁目9番1
1553,大分県,その他,GiGO中津,中津市沖代町1-2-16,33.591406,131.202169,1,大分県中津市沖代町1-2-16
1368,大分県,その他,ゆめタウン中津店,中津市蛭子町3丁目99番地ゆめﾀｳﾝ中津店3階ゆめｷｯｽﾞ,33.602268,131.195242,1,大分県中津市蛭子町3丁目99番地ゆめﾀｳﾝ中津店3階ゆめｷｯｽﾞ
1364,大分県,モーリーファンタジー・PALO,モーリーファンタジー挾間,由布市挾間町北方77 ｲｵﾝ挾間店2階,33.206374,131.522181,1,大分県由布市挾間町北方77 ｲｵﾝ挾間店2階
1297,大分県,モーリーファンタジー・PALO,モーリーファンタジー日田,日田市南元町14-22 ｲｵﾝ日田店2F,33.315269,130.939133,1,大分県日田市南元町14-22 ｲｵﾝ日田店2F
1127,大分県,モーリーファンタジー・PALO,モーリーファンタジー三光,中津市三光佐知1032 ｲｵﾝ三光店2F,33.557693,131.193959,1,大分県中津市三光佐知1032 ｲｵﾝ三光店2F
1007,大分県,モーリーファンタジー・PALO,モーリーファンタジーパークプレイス大分,大分市公園通り西2--1 ｲｵﾝﾊﾟｰｸﾌﾟﾚｲｽ大分店2階,33.194998,131.658854,1,大分県大分市公園通り西2--1 ｲｵﾝﾊﾟｰｸﾌﾟﾚｲｽ大分店2階
965,大分県,その他,ペリカン中津,中津市大字島田134-1ゆめﾀｳﾝ中津内3F,33.596325,131.186348,1,大分県中津市大字島田134-1ゆめﾀｳﾝ中津内3F
937,大分県,その他,プラサカプコン大分,大分市公園通り西2丁目1番 ﾊﾟｰｸﾌﾟﾚｲｽ大分2F,33.195179,131.657365,1,大分県大分市公園通り西2丁目1番 ﾊﾟｰｸﾌﾟﾚｲｽ大分2F
798,大分県,その他,トイザらス大分,大分市大字宮崎525,33.201657,131.608758,1,大分県大分市大字宮崎525
704,大分県,タイトー,タイトーステーション アミュプラザおおいた,大分市要町1-14 ｱﾐｭﾌﾟﾗｻﾞおおいた4F,33.233146,131.606325,2,大分県大分市要町1-14 ｱﾐｭﾌﾟﾗｻﾞおおいた4F
698,大分県,その他,タイトーFステーションセントポルタ大分,大分市中央町2-1-1,33.235517,131.606035,1,大分県大分市中央町2-1-1
572,大分県,その他,GiGO高城,大分市牧1-161-8,33.235152,131.64041,1,大分県大分市牧1-161-8
160,大分県,namco,namco明野店,大分市大分県大分市明野東1-1-1ﾄｷﾊｲﾝﾀﾞｽﾄﾘｰ明野内,33.224083,131.652358,1,大分県大分市大分県大分市明野東1-1-1ﾄｷﾊｲﾝﾀﾞｽﾄﾘｰ明野内
121,大分県,namco,namcoミスターマックス宇佐店,宇佐市大字法鏡寺500MrMAX宇佐店内,33.525298,131.349833,1,大分県宇佐市大字法鏡寺500MrMAX宇佐店内
100,大分県,namco,namcoトキハわさだタウン店,大分市大字玉沢字楠本755-1ﾄｷﾊわさだﾀｳﾝ内2F,33.188404,131.581218,2,大分県大分市大字玉沢字楠本755-1ﾄｷﾊわさだﾀｳﾝ内2F
43,大分県,namco,namcoアムス大在店,大分市大在浜2-1-1ﾄｷﾊｲﾝﾀﾞｽﾄﾘｰｱﾑｽ大在内,33.242725,131.73013,1,大分県大分市大在浜2-1-1ﾄｷﾊｲﾝﾀﾞｽﾄﾘｰｱﾑｽ大在内
8,大分県,その他,FESTAわさだ,大分市木上鉾手2102ﾌﾘｰﾓｰﾙわさだ内,33.185122,131.568791,1,大分県大分市木上鉾手2102ﾌﾘｰﾓｰﾙわさだ内
7,大分県,その他,FESTA佐伯,佐伯市鶴岡西町2丁目163番地ｺｽﾓﾀｳﾝ佐伯内,32.960973,131.866225,1,大分県佐伯市鶴岡西町2丁目163番地ｺｽﾓﾀｳﾝ佐伯内
1551,宮崎県,その他,GiGOｱﾐｭﾌﾟﾗｻﾞみやざき,宮崎市老松2丁目2番22号 ｱﾐｭﾌﾟﾗｻﾞみやざきうみ館4F0401区画,31.915054,131.431443,1,宮崎県宮崎市老松2丁目2番22号 ｱﾐｭﾌﾟﾗｻﾞみやざきうみ館4F0401区画
1296,宮崎県,モーリーファンタジー・PALO,モーリーファンタジー日向,日向市日知屋字古田町61-1 ｲｵﾝ日向店2階,32.424754,131.651124,1,宮崎県日向市日知屋字古田町61-1 ｲｵﾝ日向店2階
1286,宮崎県,モーリーファンタジー・PALO,モーリーファンタジー南宮崎,宮崎市大淀4-7-30 ｲｵﾝ南宮崎店3階,31.895633,131.419252,1,宮崎県宮崎市大淀4-7-30 ｲｵﾝ南宮崎店3階
1266,宮崎県,モーリーファンタジー・PALO,モーリーファンタジー都城駅前,都城市栄町4672-5 ｲｵﾝ都城駅前店2F,31.735233,131.079925,1,宮崎県都城市栄町4672-5 ｲｵﾝ都城駅前店2F
1265,宮崎県,モーリーファンタジー・PALO,モーリーファンタジー都城,都城市早鈴町1950 ｲｵﾝ都城店2階,31.714656,131.075727,1,宮崎県都城市早鈴町1950 ｲｵﾝ都城店2階
1066,宮崎県,モーリーファンタジー・PALO,モーリーファンタジー宮崎,宮崎市新別府町江口862-1 ｲｵﾝ宮崎店2階,31.92349,131.454207,1,宮崎県宮崎市新別府町江口862-1 ｲｵﾝ宮崎店2階
1042,宮崎県,モーリーファンタジー・PALO,モーリーファンタジー延岡,延岡市旭町2-2-1 ｲｵﾝ延岡店2階,32.572343,131.670087,1,宮崎県延岡市旭町2-2-1 ｲｵﾝ延岡店2階
143,宮崎県,namco,namco宮交シティ店,宮崎市大淀四丁目6番28号宮交ｼﾃｨ3階,31.894655,131.419557,1,宮崎県宮崎市大淀四丁目6番28号宮交ｼﾃｨ3階
1309,鹿児島県,モーリーファンタジー・PALO,モーリーファンタジー隼人国分,霧島市隼人町見次1229 ｲｵﾝ隼人国分店2階,31.738379,130.741992,1,鹿児島県霧島市隼人町見次1229 ｲｵﾝ隼人国分店2階
1144,鹿児島県,モーリーファンタジー・PALO,モーリーファンタジー鹿児島鴨池,鹿児島市鴨池2-26-30 ｲｵﾝ鹿児島鴨池店2F,31.562701,130.549878,1,鹿児島県鹿児島市鴨池2-26-30 ｲｵﾝ鹿児島鴨池店2F
1143,鹿児島県,モーリーファンタジー・PALO,モーリーファンタジー鹿児島,鹿児島市東開町7 ｲｵﾝ鹿児島店3階,31.527222,130.536944,1,鹿児島県鹿児島市東開町7 ｲｵﾝ鹿児島店3階
1026,鹿児島県,モーリーファンタジー・PALO,モーリーファンタジー姶良,姶良市西餅田264-1s外 ｲｵﾝｽﾀｲﾙ姶良店3F,31.732129,130.626356,1,鹿児島県姶良市西餅田264-1s外 ｲｵﾝｽﾀｲﾙ姶良店3F
879,鹿児島県,ビックカメラ,ビックカメラ鹿児島中央,鹿児島市中央町1-1,31.584573,130.542754,1,鹿児島県鹿児島市中央町1-1
687,鹿児島県,その他,タイトーFステーション 出水,出水市六月田町347 ﾆｼﾑﾀ出水店別棟,32.10614,130.344986,1,鹿児島県出水市六月田町347 ﾆｼﾑﾀ出水店別棟
214,鹿児島県,その他,THE 3RD PLANET 国分,霧島市国分広瀬2丁目4番1号 ﾌﾚｽﾎﾟ国分,31.721947,130.756049,1,鹿児島県霧島市国分広瀬2丁目4番1号 ﾌﾚｽﾎﾟ国分
212,鹿児島県,その他,THE 3RD PLANET ジャングルパーク鹿児島,鹿児島市与次郎1丁目11番1号 ﾌﾚｽﾎﾟｼﾞｬﾝｸﾞﾙﾊﾟｰｸ2階,31.570298,130.56505,1,鹿児島県鹿児島市与次郎1丁目11番1号 ﾌﾚｽﾎﾟｼﾞｬﾝｸﾞﾙﾊﾟｰｸ2階
1346,沖縄県,モーリーファンタジー・PALO,モーリーファンタジー名護,名護市字名護見取川原4472 ｲｵﾝ名護店1階,26.609907,127.984913,1,沖縄県名護市字名護見取川原4472 ｲｵﾝ名護店1階
1339,沖縄県,モーリーファンタジー・PALO,モーリーファンタジー北谷,中頭郡北谷町字美浜8-3 ｲｵﾝ北谷店2階,26.31439,127.757203,1,沖縄県中頭郡北谷町字美浜8-3 ｲｵﾝ北谷店2階
1292,沖縄県,モーリーファンタジー・PALO,モーリーファンタジー南風原,島尻郡南風原町字宮平264 ｲｵﾝ南風原店2階,26.200957,127.737887,1,沖縄県島尻郡南風原町字宮平264 ｲｵﾝ南風原店2階
1285,沖縄県,モーリーファンタジー・PALO,モーリーファンタジー那覇,那覇市金城5-10-2 ｲｵﾝ那覇店3階,26.196956,127.665768,1,沖縄県那覇市金城5-10-2 ｲｵﾝ那覇店3階
1141,沖縄県,モーリーファンタジー・PALO,モーリーファンタジー糸満,糸満市字兼城400 ｻﾝﾌﾟﾗｻﾞいとまん店1F,26.138433,127.661109,1,沖縄県糸満市字兼城400 ｻﾝﾌﾟﾗｻﾞいとまん店1F
1074,沖縄県,モーリーファンタジー・PALO,モーリーファンタジー具志川,うるま市前原幸崎原303 ｲｵﾝ具志川店2階,26.33818,127.844476,1,沖縄県うるま市前原幸崎原303 ｲｵﾝ具志川店2階
1040,沖縄県,モーリーファンタジー・PALO,モーリーファンタジー浦添,浦添市城間4-7-1 浦添ｼｮｯﾋﾟﾝｸﾞｾﾝﾀｰ3F,26.258554,127.712596,1,沖縄県浦添市城間4-7-1 浦添ｼｮｯﾋﾟﾝｸﾞｾﾝﾀｰ3F
1021,沖縄県,モーリーファンタジー・PALO,モーリーファンタジーライカム,中頭郡北中城村字ﾗｲｶﾑ1番地 ｲｵﾝﾗｲｶﾑ店4階,26.315379,127.794467,1,沖縄県中頭郡北中城村字ﾗｲｶﾑ1番地 ｲｵﾝﾗｲｶﾑ店4階
801,沖縄県,その他,トイザらス那覇新都心,那覇市おもろまち3-3あっぷるﾀｳﾝ1F,26.22831,127.691948,1,沖縄県那覇市おもろまち3-3あっぷるﾀｳﾝ1F
155,沖縄県,namco,namco那覇メインプレイス店,那覇市おもろまち4丁目4番地9号ｻﾝｴｰ那覇ﾒｲﾝﾌﾟﾚｲｽ内2F,26.22566,127.695057,1,沖縄県那覇市おもろまち4丁目4番地9号ｻﾝｴｰ那覇ﾒｲﾝﾌﾟﾚｲｽ内2F
95,沖縄県,namco,namcoサンエー浦添西海岸パルコシティ店,浦添市西洲三丁目1番1ｻﾝｴｰ浦添西海岸ﾊﾟﾙｺｼﾃｨ3F,26.26298,127.699049,1,沖縄県浦添市西洲三丁目1番1ｻﾝｴｰ浦添西海岸ﾊﾟﾙｺｼﾃｨ3F
78,沖縄県,namco,namcoイオン具志川店,うるま市字前原幸崎原303番地ｲｵﾝ具志川SC2F,26.338149,127.844674,1,沖縄県うるま市字前原幸崎原303番地ｲｵﾝ具志川SC2F
52,沖縄県,namco,namcoイオンとよみショッピングセンター店,豊見城市根差部710ｲｵﾝとよみSC,26.189484,127.687503,1,沖縄県豊見城市根差部710ｲｵﾝとよみSC
